{"type":"FeatureCollection","name":"africa_submarine_cables","features":[{"type":"Feature","properties":{"name":"Adria-1","color":"#22d3ee","width":2.5,"type":"submarine_cable"},"geometry":{"type":"LineString","coordinates":[[19.9196,39.6195,0.0],[19.0444,39.9863,0.0],[19.0444,40.9084,0.0],[19.45,41.3169,0.0],[18.3104,41.7406,0.0],[18.1065,42.6421,0.0]]}},{"type":"Feature","properties":{"name":"Aden-Djibouti","color":"#22d3ee","width":2.5,"type":"submarine_cable"},"geometry":{"type":"LineString","coordinates":[[43.148,11.5948,0.0],[45.0336,12.8009,0.0]]}},{"type":"Feature","properties":{"name":"Africa Coast to Europe (ACE)","color":"#22d3ee","width":2.5,"type":"submarine_cable"},"geometry":{"type":"LineString","coordinates":[[18.422,-33.919,0.0],[16.8962,-33.0521,0.0],[9.1083,-24.1249,0.0],[9.1083,-22.4723,0.0],[9.1083,-11.6154,0.0],[9.1083,-7.1205,0.0],[9.1083,-3.9727,0.0],[6.8233,0.5012,0.0],[6.5328,0.86,0.0],[6.6593,1.2249,0.0],[6.6879,1.3076,0.0],[6.6543,1.3988,0.0],[6.4988,1.8205,0.0],[6.3075,2.3391,0.0],[1.9289,2.343,0.0],[0.5238,2.343,0.0],[-3.5081,2.3486,0.0],[-4.0262,5.3235,0.0],[-4.5707,2.3298,0.0],[-10.1684,2.3255,0.0],[-12.2218,5.2678,0.0],[-14.0343,7.8447,0.0],[-14.709,8.7951,0.0]]}},{"type":"Feature","properties":{"name":"Africa Coast to Europe (ACE)","color":"#22d3ee","width":2.5,"type":"submarine_cable"},"geometry":{"type":"LineString","coordinates":[[9.1083,-22.4723,0.0],[14.5334,-22.6854,0.0]]}},{"type":"Feature","properties":{"name":"Africa Coast to Europe (ACE)","color":"#22d3ee","width":2.5,"type":"submarine_cable"},"geometry":{"type":"LineString","coordinates":[[9.1083,-11.6154,0.0],[13.2351,-8.8126,0.0]]}},{"type":"Feature","properties":{"name":"Africa Coast to Europe (ACE)","color":"#22d3ee","width":2.5,"type":"submarine_cable"},"geometry":{"type":"LineString","coordinates":[[9.1083,-7.1205,0.0],[12.35,-5.9334,0.0]]}},{"type":"Feature","properties":{"name":"Africa Coast to Europe (ACE)","color":"#22d3ee","width":2.5,"type":"submarine_cable"},"geometry":{"type":"LineString","coordinates":[[6.6593,1.2249,0.0],[9.4543,0.3944,0.0]]}},{"type":"Feature","properties":{"name":"Africa Coast to Europe (ACE)","color":"#22d3ee","width":2.5,"type":"submarine_cable"},"geometry":{"type":"LineString","coordinates":[[6.6543,1.3988,0.0],[9.7682,1.8602,0.0]]}},{"type":"Feature","properties":{"name":"Africa Coast to Europe (ACE)","color":"#22d3ee","width":2.5,"type":"submarine_cable"},"geometry":{"type":"LineString","coordinates":[[6.4988,1.8205,0.0],[9.9102,2.9331,0.0]]}},{"type":"Feature","properties":{"name":"Africa Coast to Europe (ACE)","color":"#22d3ee","width":2.5,"type":"submarine_cable"},"geometry":{"type":"LineString","coordinates":[[3.4235,6.4391,0.0],[4.4492,2.361,0.0]]}},{"type":"Feature","properties":{"name":"Africa Coast to Europe (ACE)","color":"#22d3ee","width":2.5,"type":"submarine_cable"},"geometry":{"type":"LineString","coordinates":[[2.4401,6.3567,0.0],[1.9289,2.343,0.0]]}},{"type":"Feature","properties":{"name":"Africa Coast to Europe (ACE)","color":"#22d3ee","width":2.5,"type":"submarine_cable"},"geometry":{"type":"LineString","coordinates":[[-0.2043,5.5583,0.0],[0.5238,2.343,0.0]]}},{"type":"Feature","properties":{"name":"Africa Coast to Europe (ACE)","color":"#22d3ee","width":2.5,"type":"submarine_cable"},"geometry":{"type":"LineString","coordinates":[[-10.7972,6.3004,0.0],[-12.2218,5.2678,0.0]]}},{"type":"Feature","properties":{"name":"Africa Coast to Europe (ACE)","color":"#22d3ee","width":2.5,"type":"submarine_cable"},"geometry":{"type":"LineString","coordinates":[[-13.2381,8.4855,0.0],[-14.0343,7.8447,0.0]]}},{"type":"Feature","properties":{"name":"Africa Coast to Europe (ACE)","color":"#22d3ee","width":2.5,"type":"submarine_cable"},"geometry":{"type":"LineString","coordinates":[[-14.709,8.7951,0.0],[-13.7038,9.5135,0.0]]}},{"type":"Feature","properties":{"name":"Africa Coast to Europe (ACE)","color":"#22d3ee","width":2.5,"type":"submarine_cable"},"geometry":{"type":"LineString","coordinates":[[-18.2196,13.7492,0.0],[-16.5814,13.4562,0.0]]}},{"type":"Feature","properties":{"name":"Africa Coast to Europe (ACE)","color":"#22d3ee","width":2.5,"type":"submarine_cable"},"geometry":{"type":"LineString","coordinates":[[-15.9783,18.0839,0.0],[-18.7958,18.0978,0.0]]}},{"type":"Feature","properties":{"name":"Africa Coast to Europe (ACE)","color":"#22d3ee","width":2.5,"type":"submarine_cable"},"geometry":{"type":"LineString","coordinates":[[-4.3385,47.811,0.0],[-10.1722,45.0335,0.0],[-10.1722,38.6843,0.0],[-9.1481,38.7239,0.0],[-16.5228,28.293,0.0],[-16.3067,28.0057,0.0],[-18.8135,20.2649,0.0],[-18.7781,15.9093,0.0],[-17.4457,14.6867,0.0],[-18.2196,13.7492,0.0],[-14.709,8.7951,0.0]]}},{"type":"Feature","properties":{"name":"Balalink","color":"#22d3ee","width":2.5,"type":"submarine_cable"},"geometry":{"type":"LineString","coordinates":[[-0.3769,39.4597,0.0],[2.6052,39.3847,0.0],[2.6052,39.5524,0.0]]}},{"type":"Feature","properties":{"name":"ALASIA","color":"#22d3ee","width":2.5,"type":"submarine_cable"},"geometry":{"type":"LineString","coordinates":[[35.8978,34.8917,0.0],[35.3374,34.7551,0.0],[34.018,34.7369,0.0],[33.6106,34.8273,0.0]]}},{"type":"Feature","properties":{"name":"Aletar","color":"#22d3ee","width":2.5,"type":"submarine_cable"},"geometry":{"type":"LineString","coordinates":[[29.8935,31.1915,0.0],[35.8978,34.8917,0.0]]}},{"type":"Feature","properties":{"name":"Algeria-Spain","color":"#22d3ee","width":2.5,"type":"submarine_cable"},"geometry":{"type":"LineString","coordinates":[[-0.3769,39.4597,0.0],[0.459,39.1283,0.0],[0.513,36.5589,0.0],[-0.642,35.7016,0.0]]}},{"type":"Feature","properties":{"name":"ALPAL-2","color":"#22d3ee","width":2.5,"type":"submarine_cable"},"geometry":{"type":"LineString","coordinates":[[5.7342,36.3117,0.0],[2.971,39.3549,0.0]]}},{"type":"Feature","properties":{"name":"Angola Domestic Network System (ADONES)","color":"#22d3ee","width":2.5,"type":"submarine_cable"},"geometry":{"type":"LineString","coordinates":[[12.3522,-6.1406,0.0],[11.8118,-5.9784,0.0],[11.8118,-5.7185,0.0],[12.1899,-5.5562,0.0],[11.6497,-5.5562,0.0],[11.6497,-6.1406,0.0],[12.3522,-6.1406,0.0],[11.9201,-6.5729,0.0],[12.3266,-7.2329,0.0],[12.8667,-7.2329,0.0],[12.5426,-7.5564,0.0],[13.2351,-8.8126,0.0],[12.7775,-8.6771,0.0],[12.7775,-9.8352,0.0],[13.2422,-10.7026,0.0],[13.7823,-10.7026,0.0],[13.4079,-11.8358,0.0],[13.4079,-12.5796,0.0],[12.8677,-12.5796,0.0],[12.0989,-13.444,0.0],[12.531,-13.8665,0.0],[11.9909,-13.8665,0.0],[11.724,-14.7665,0.0],[12.1561,-15.1866,0.0]]}},{"type":"Feature","properties":{"name":"Apollo","color":"#22d3ee","width":2.5,"type":"submarine_cable"},"geometry":{"type":"LineString","coordinates":[[-74.0471,40.1236,0.0],[-57.3313,34.2893,0.0],[-19.2751,42.6047,0.0],[-4.2623,48.6769,0.0],[-3.4599,48.7306,0.0]]}},{"type":"Feature","properties":{"name":"Aphrodite 2","color":"#22d3ee","width":2.5,"type":"submarine_cable"},"geometry":{"type":"LineString","coordinates":[[32.4667,34.7666,0.0],[30.7383,34.7666,0.0],[27.0117,35.9923,0.0],[24.3956,35.7357,0.0],[24.0122,35.512,0.0]]}},{"type":"Feature","properties":{"name":"South Atlantic Cable System (SACS)","color":"#22d3ee","width":2.5,"type":"submarine_cable"},"geometry":{"type":"LineString","coordinates":[[-38.543,-3.7187,0.0],[-34.2436,-4.0072,0.0],[-33.1048,-4.9213,0.0],[-33.1048,-8.8126,0.0],[13.2351,-8.8126,0.0]]}},{"type":"Feature","properties":{"name":"Atlantis-2","color":"#22d3ee","width":2.5,"type":"submarine_cable"},"geometry":{"type":"LineString","coordinates":[[-16.5386,28.0467,0.0],[-15.4252,29.0849,0.0]]}},{"type":"Feature","properties":{"name":"Atlantis-2","color":"#22d3ee","width":2.5,"type":"submarine_cable"},"geometry":{"type":"LineString","coordinates":[[-23.5056,14.9353,0.0],[-21.0748,14.8886,0.0],[-17.4457,14.6867,0.0]]}},{"type":"Feature","properties":{"name":"Atlantis-2","color":"#22d3ee","width":2.5,"type":"submarine_cable"},"geometry":{"type":"LineString","coordinates":[[-32.6113,-4.6928,0.0],[-21.0748,14.8886,0.0],[-21.0724,20.2673,0.0],[-15.7167,27.2606,0.0],[-16.1896,27.8442,0.0],[-15.4252,29.0849,0.0],[-9.1481,38.7239,0.0]]}},{"type":"Feature","properties":{"name":"Atlas Offshore","color":"#22d3ee","width":2.5,"type":"submarine_cable"},"geometry":{"type":"LineString","coordinates":[[-6.0357,35.4706,0.0],[-5.9478,35.8899,0.0],[-5.034,35.9342,0.0],[-4.6256,35.4127,0.0],[4.9777,39.3625,0.0],[5.3725,43.2936,0.0]]}},{"type":"Feature","properties":{"name":"BERYTAR","color":"#22d3ee","width":2.5,"type":"submarine_cable"},"geometry":{"type":"LineString","coordinates":[[35.8978,34.8917,0.0],[35.7793,34.6719,0.0],[35.8592,34.4397,0.0],[35.4706,34.2222,0.0],[35.4852,33.8927,0.0],[35.29,33.7154,0.0],[35.3864,33.4502,0.0]]}},{"type":"Feature","properties":{"name":"CADMOS","color":"#22d3ee","width":2.5,"type":"submarine_cable"},"geometry":{"type":"LineString","coordinates":[[33.6106,34.8273,0.0],[35.4852,33.8927,0.0]]}},{"type":"Feature","properties":{"name":"Canalink","color":"#22d3ee","width":2.5,"type":"submarine_cable"},"geometry":{"type":"LineString","coordinates":[[-16.5228,28.293,0.0],[-15.9378,28.5189,0.0],[-15.9378,28.6632,0.0],[-17.7652,28.6632,0.0]]}},{"type":"Feature","properties":{"name":"Canalink","color":"#22d3ee","width":2.5,"type":"submarine_cable"},"geometry":{"type":"LineString","coordinates":[[-16.5228,28.293,0.0],[-15.2881,28.293,0.0],[-15.2881,28.0604,0.0],[-15.3962,27.9644,0.0]]}},{"type":"Feature","properties":{"name":"Canalink","color":"#22d3ee","width":2.5,"type":"submarine_cable"},"geometry":{"type":"LineString","coordinates":[[-6.2927,36.5298,0.0],[-10.9733,34.8408,0.0],[-10.7754,33.8702,0.0],[-15.4744,28.4871,0.0],[-16.5228,28.293,0.0]]}},{"type":"Feature","properties":{"name":"Ceiba-1","color":"#22d3ee","width":2.5,"type":"submarine_cable"},"geometry":{"type":"LineString","coordinates":[[9.7682,1.8602,0.0],[9.0528,3.8594,0.0],[8.7823,3.8594,0.0],[8.7823,3.7508,0.0]]}},{"type":"Feature","properties":{"name":"CIOS","color":"#22d3ee","width":2.5,"type":"submarine_cable"},"geometry":{"type":"LineString","coordinates":[[34.0001,34.9832,0.0],[35.0946,33.0113,0.0]]}},{"type":"Feature","properties":{"name":"Columbus-III","color":"#22d3ee","width":2.5,"type":"submarine_cable"},"geometry":{"type":"LineString","coordinates":[[-6.0871,36.2768,0.0],[-6.1835,35.9166,0.0]]}},{"type":"Feature","properties":{"name":"Columbus-III","color":"#22d3ee","width":2.5,"type":"submarine_cable"},"geometry":{"type":"LineString","coordinates":[[-10.8492,35.9082,0.0],[-9.1481,38.7239,0.0]]}},{"type":"Feature","properties":{"name":"Columbus-III","color":"#22d3ee","width":2.5,"type":"submarine_cable"},"geometry":{"type":"LineString","coordinates":[[-25.7703,37.7171,0.0],[-26.1798,35.8803,0.0]]}},{"type":"Feature","properties":{"name":"Columbus-III","color":"#22d3ee","width":2.5,"type":"submarine_cable"},"geometry":{"type":"LineString","coordinates":[[-80.1602,26.0106,0.0],[-73.1583,31.5402,0.0],[-57.4457,31.5402,0.0],[-30.9914,35.8715,0.0],[-6.1835,35.9166,0.0]]}},{"type":"Feature","properties":{"name":"Columbus-III","color":"#22d3ee","width":2.5,"type":"submarine_cable"},"geometry":{"type":"LineString","coordinates":[[-6.1835,35.9166,0.0],[-5.3204,35.9182,0.0],[-2.1092,35.7868,0.0],[2.388,37.5976,0.0],[10.8455,37.6777,0.0],[12.5914,37.6505,0.0]]}},{"type":"Feature","properties":{"name":"Corfu-Bar","color":"#22d3ee","width":2.5,"type":"submarine_cable"},"geometry":{"type":"LineString","coordinates":[[19.9196,39.6195,0.0],[18.8709,39.8885,0.0],[18.8709,41.2701,0.0],[19.1003,42.0933,0.0]]}},{"type":"Feature","properties":{"name":"Corse-Continent 5 (CC5)","color":"#22d3ee","width":2.5,"type":"submarine_cable"},"geometry":{"type":"LineString","coordinates":[[5.8782,43.1032,0.0],[5.8782,42.9447,0.0],[8.4147,41.9195,0.0],[8.7387,41.9195,0.0]]}},{"type":"Feature","properties":{"name":"Eastern Africa Submarine System (EASSy)","color":"#22d3ee","width":2.5,"type":"submarine_cable"},"geometry":{"type":"LineString","coordinates":[[46.585,1.0034,0.0],[45.3442,2.0416,0.0]]}},{"type":"Feature","properties":{"name":"Eastern Africa Submarine System (EASSy)","color":"#22d3ee","width":2.5,"type":"submarine_cable"},"geometry":{"type":"LineString","coordinates":[[43.2434,-11.7006,0.0],[41.7625,-12.1577,0.0]]}},{"type":"Feature","properties":{"name":"Eastern Africa Submarine System (EASSy)","color":"#22d3ee","width":2.5,"type":"submarine_cable"},"geometry":{"type":"LineString","coordinates":[[43.6632,-23.3548,0.0],[37.5393,-23.3418,0.0]]}},{"type":"Feature","properties":{"name":"Eastern Africa Submarine System (EASSy)","color":"#22d3ee","width":2.5,"type":"submarine_cable"},"geometry":{"type":"LineString","coordinates":[[32.5806,-25.9682,0.0],[36.1447,-25.7475,0.0]]}},{"type":"Feature","properties":{"name":"Eastern Africa Submarine System (EASSy)","color":"#22d3ee","width":2.5,"type":"submarine_cable"},"geometry":{"type":"LineString","coordinates":[[39.6729,-4.0529,0.0],[42.8733,-3.8298,0.0]]}},{"type":"Feature","properties":{"name":"Eastern Africa Submarine System (EASSy)","color":"#22d3ee","width":2.5,"type":"submarine_cable"},"geometry":{"type":"LineString","coordinates":[[42.5079,-6.5866,0.0],[39.2698,-6.8231,0.0]]}},{"type":"Feature","properties":{"name":"Eastern Africa Submarine System (EASSy)","color":"#22d3ee","width":2.5,"type":"submarine_cable"},"geometry":{"type":"LineString","coordinates":[[43.148,11.5948,0.0],[43.3219,11.8336,0.0]]}},{"type":"Feature","properties":{"name":"Eastern Africa Submarine System (EASSy)","color":"#22d3ee","width":2.5,"type":"submarine_cable"},"geometry":{"type":"LineString","coordinates":[[31.758,-28.9506,0.0],[34.2011,-29.0187,0.0],[36.1447,-25.7475,0.0]]}},{"type":"Feature","properties":{"name":"Eastern Africa Submarine System (EASSy)","color":"#22d3ee","width":2.5,"type":"submarine_cable"},"geometry":{"type":"LineString","coordinates":[[36.1447,-25.7475,0.0],[37.5393,-23.3418,0.0]]}},{"type":"Feature","properties":{"name":"Eastern Africa Submarine System (EASSy)","color":"#22d3ee","width":2.5,"type":"submarine_cable"},"geometry":{"type":"LineString","coordinates":[[37.5393,-23.3418,0.0],[41.1017,-17.0016,0.0],[41.7625,-12.1577,0.0]]}},{"type":"Feature","properties":{"name":"Eastern Africa Submarine System (EASSy)","color":"#22d3ee","width":2.5,"type":"submarine_cable"},"geometry":{"type":"LineString","coordinates":[[41.7625,-12.1577,0.0],[42.5079,-6.5866,0.0]]}},{"type":"Feature","properties":{"name":"Eastern Africa Submarine System (EASSy)","color":"#22d3ee","width":2.5,"type":"submarine_cable"},"geometry":{"type":"LineString","coordinates":[[42.5079,-6.5866,0.0],[42.8733,-3.8298,0.0]]}},{"type":"Feature","properties":{"name":"Eastern Africa Submarine System (EASSy)","color":"#22d3ee","width":2.5,"type":"submarine_cable"},"geometry":{"type":"LineString","coordinates":[[42.8733,-3.8298,0.0],[42.9269,-3.4239,0.0],[46.585,1.0034,0.0],[48.1951,2.9518,0.0],[52.5135,12.1377,0.0],[52.4,12.6473,0.0],[45.2439,10.8004,0.0],[43.8352,10.9695,0.0],[43.294,11.8769,0.0],[43.4628,12.1318,0.0],[42.4018,13.8778,0.0],[41.9682,13.8296,0.0],[38.2725,19.9097,0.0],[37.2196,19.6156,0.0]]}},{"type":"Feature","properties":{"name":"Estepona-Tetouan","color":"#22d3ee","width":2.5,"type":"submarine_cable"},"geometry":{"type":"LineString","coordinates":[[-5.3918,35.5659,0.0],[-5.1756,35.7424,0.0],[-5.1459,36.4274,0.0]]}},{"type":"Feature","properties":{"name":"EUROPA","color":"#22d3ee","width":2.5,"type":"submarine_cable"},"geometry":{"type":"LineString","coordinates":[[35.4852,33.8927,0.0],[35.0834,33.8881,0.0],[33.8885,34.4937,0.0],[33.6106,34.8273,0.0]]}},{"type":"Feature","properties":{"name":"Europe India Gateway (EIG)","color":"#22d3ee","width":2.5,"type":"submarine_cable"},"geometry":{"type":"LineString","coordinates":[[29.7009,31.0723,0.0],[30.2394,30.3448,0.0],[31.54,29.74,0.0],[32.6532,29.1135,0.0]]}},{"type":"Feature","properties":{"name":"Europe India Gateway (EIG)","color":"#22d3ee","width":2.5,"type":"submarine_cable"},"geometry":{"type":"LineString","coordinates":[[-5.3477,35.9367,0.0],[-5.3476,36.1561,0.0]]}},{"type":"Feature","properties":{"name":"Europe India Gateway (EIG)","color":"#22d3ee","width":2.5,"type":"submarine_cable"},"geometry":{"type":"LineString","coordinates":[[32.6532,29.1135,0.0],[33.4228,28.292,0.0],[33.8965,27.7631,0.0],[34.1361,27.6738,0.0],[34.8041,27.6324,0.0],[38.4298,21.9594,0.0],[42.9619,14.5388,0.0],[42.806,13.9729,0.0],[43.7506,12.3617,0.0],[44.2639,12.3765,0.0],[44.4854,12.0051,0.0],[44.6207,11.7783,0.0],[44.8778,11.7607,0.0],[62.8944,16.5784,0.0],[72.5658,19.0888,0.0],[72.8759,19.0761,0.0]]}},{"type":"Feature","properties":{"name":"Europe India Gateway (EIG)","color":"#22d3ee","width":2.5,"type":"submarine_cable"},"geometry":{"type":"LineString","coordinates":[[44.4854,12.0051,0.0],[43.148,11.5948,0.0]]}},{"type":"Feature","properties":{"name":"Europe India Gateway (EIG)","color":"#22d3ee","width":2.5,"type":"submarine_cable"},"geometry":{"type":"LineString","coordinates":[[38.4298,21.9594,0.0],[39.1828,21.4815,0.0]]}},{"type":"Feature","properties":{"name":"Europe India Gateway (EIG)","color":"#22d3ee","width":2.5,"type":"submarine_cable"},"geometry":{"type":"LineString","coordinates":[[-4.5444,50.8282,0.0],[-14.058,48.2662,0.0],[-14.058,36.2268,0.0],[-5.3477,35.9367,0.0],[-2.1602,36.2168,0.0],[2.3076,38.0987,0.0],[8.8229,38.1138,0.0]]}},{"type":"Feature","properties":{"name":"Europe India Gateway (EIG)","color":"#22d3ee","width":2.5,"type":"submarine_cable"},"geometry":{"type":"LineString","coordinates":[[8.8229,38.1138,0.0],[10.6864,38.1182,0.0],[11.7692,37.8925,0.0],[12.7656,36.8859,0.0],[13.2853,36.5071,0.0],[11.9865,35.4683,0.0],[13.0376,34.5752,0.0],[17.1846,34.0243,0.0],[17.2749,33.8555,0.0],[27.8491,32.3424,0.0],[29.7009,31.0723,0.0],[30.1886,30.2621,0.0],[31.4892,29.6569,0.0],[32.6532,29.1135,0.0]]}},{"type":"Feature","properties":{"name":"Europe India Gateway (EIG)","color":"#22d3ee","width":2.5,"type":"submarine_cable"},"geometry":{"type":"LineString","coordinates":[[56.3337,25.1217,0.0],[58.0045,23.6796,0.0],[58.1977,25.0759,0.0],[60.6288,24.7615,0.0],[62.8944,16.5784,0.0]]}},{"type":"Feature","properties":{"name":"Europe India Gateway (EIG)","color":"#22d3ee","width":2.5,"type":"submarine_cable"},"geometry":{"type":"LineString","coordinates":[[-14.0543,36.7556,0.0],[-10.4788,37.6477,0.0],[-9.1028,38.4431,0.0]]}},{"type":"Feature","properties":{"name":"Europe India Gateway (EIG)","color":"#22d3ee","width":2.5,"type":"submarine_cable"},"geometry":{"type":"LineString","coordinates":[[13.9705,34.4559,0.0],[13.1874,32.8776,0.0]]}},{"type":"Feature","properties":{"name":"Europe India Gateway (EIG)","color":"#22d3ee","width":2.5,"type":"submarine_cable"},"geometry":{"type":"LineString","coordinates":[[7.4267,43.7383,0.0],[7.9692,39.4235,0.0],[8.8229,38.1138,0.0]]}},{"type":"Feature","properties":{"name":"FLAG Atlantic-1 (FA-1)","color":"#22d3ee","width":2.5,"type":"submarine_cable"},"geometry":{"type":"LineString","coordinates":[[-73.656,40.6006,0.0],[-57.3113,35.165,0.0],[-19.1896,43.4943,0.0],[-3.6367,49.1557,0.0],[-2.7678,48.5349,0.0],[-3.5176,49.3691,0.0],[-5.6749,50.0639,0.0]]}},{"type":"Feature","properties":{"name":"FLAG Europe-Asia (FEA)","color":"#22d3ee","width":2.5,"type":"submarine_cable"},"geometry":{"type":"LineString","coordinates":[[29.8935,31.1915,0.0],[30.4937,30.757,0.0],[31.7943,30.1548,0.0],[32.5299,29.9726,0.0]]}},{"type":"Feature","properties":{"name":"FLAG Europe-Asia (FEA)","color":"#22d3ee","width":2.5,"type":"submarine_cable"},"geometry":{"type":"LineString","coordinates":[[-5.6545,50.0432,0.0],[-12.1833,46.4882,0.0],[-12.1911,37.9572,0.0],[-9.2636,34.8261,0.0],[-5.3476,36.1561,0.0],[-2.169,36.1014,0.0],[2.312,37.9634,0.0],[10.7269,38.0064,0.0],[12.8367,38.5566,0.0],[13.3587,38.1161,0.0],[12.8184,38.4698,0.0],[11.8903,38.2083,0.0],[12.0194,37.4625,0.0],[11.243,36.65,0.0],[13.26,34.9701,0.0],[28.8922,32.8081,0.0],[29.8935,31.1915,0.0],[30.4428,30.6747,0.0],[31.7434,30.072,0.0],[32.5299,29.9726,0.0],[32.6532,29.1135,0.0],[33.7549,27.7782,0.0],[34.3035,27.3762,0.0],[38.0153,21.567,0.0],[42.5562,14.1325,0.0],[42.5587,13.9527,0.0],[43.6168,12.1697,0.0],[43.7523,12.1273,0.0],[44.3797,11.0688,0.0],[46.8493,11.1012,0.0],[64.1702,15.5289,0.0]]}},{"type":"Feature","properties":{"name":"FLAG Europe-Asia (FEA)","color":"#22d3ee","width":2.5,"type":"submarine_cable"},"geometry":{"type":"LineString","coordinates":[[64.1702,15.5289,0.0],[70.7689,17.1921,0.0],[72.6272,18.8583,0.0],[72.8759,19.0761,0.0]]}},{"type":"Feature","properties":{"name":"FLAG Europe-Asia (FEA)","color":"#22d3ee","width":2.5,"type":"submarine_cable"},"geometry":{"type":"LineString","coordinates":[[39.1879,21.4841,0.0],[38.0153,21.567,0.0]]}},{"type":"Feature","properties":{"name":"FLAG Europe-Asia (FEA)","color":"#22d3ee","width":2.5,"type":"submarine_cable"},"geometry":{"type":"LineString","coordinates":[[35.0071,29.532,0.0],[34.3035,27.3762,0.0]]}},{"type":"Feature","properties":{"name":"FLAG Europe-Asia (FEA)","color":"#22d3ee","width":2.5,"type":"submarine_cable"},"geometry":{"type":"LineString","coordinates":[[-5.1459,36.4274,0.0],[-4.8934,36.1482,0.0]]}},{"type":"Feature","properties":{"name":"FLAG Europe-Asia (FEA)","color":"#22d3ee","width":2.5,"type":"submarine_cable"},"geometry":{"type":"LineString","coordinates":[[56.3337,25.1217,0.0],[61.9334,23.6523,0.0],[64.1702,15.5289,0.0]]}},{"type":"Feature","properties":{"name":"FLAG FALCON","color":"#22d3ee","width":2.5,"type":"submarine_cable"},"geometry":{"type":"LineString","coordinates":[[48.5318,29.9237,0.0],[48.6046,29.0239,0.0]]}},{"type":"Feature","properties":{"name":"FLAG FALCON","color":"#22d3ee","width":2.5,"type":"submarine_cable"},"geometry":{"type":"LineString","coordinates":[[48.5318,29.9237,0.0],[48.3187,29.1747,0.0]]}},{"type":"Feature","properties":{"name":"FLAG FALCON","color":"#22d3ee","width":2.5,"type":"submarine_cable"},"geometry":{"type":"LineString","coordinates":[[60.6274,25.2587,0.0],[59.7482,23.7103,0.0]]}},{"type":"Feature","properties":{"name":"FLAG FALCON","color":"#22d3ee","width":2.5,"type":"submarine_cable"},"geometry":{"type":"LineString","coordinates":[[52.1825,16.213,0.0],[53.0283,13.8133,0.0]]}},{"type":"Feature","properties":{"name":"FLAG FALCON","color":"#22d3ee","width":2.5,"type":"submarine_cable"},"geometry":{"type":"LineString","coordinates":[[43.0086,14.6856,0.0],[42.4596,14.5679,0.0]]}},{"type":"Feature","properties":{"name":"FLAG FALCON","color":"#22d3ee","width":2.5,"type":"submarine_cable"},"geometry":{"type":"LineString","coordinates":[[39.1828,21.4815,0.0],[38.8284,20.5153,0.0],[37.2196,19.6156,0.0]]}},{"type":"Feature","properties":{"name":"FLAG FALCON","color":"#22d3ee","width":2.5,"type":"submarine_cable"},"geometry":{"type":"LineString","coordinates":[[72.8759,19.0761,0.0],[72.609,19.0319,0.0],[70.3935,18.4006,0.0],[62.2691,16.2699,0.0],[60.2869,23.5076,0.0],[58.9368,24.015,0.0],[58.1762,23.6849,0.0],[57.2787,25.5203,0.0],[56.743,26.9732,0.0],[56.2742,27.1873,0.0],[56.2742,26.7684,0.0],[55.2575,26.1512,0.0],[53.8492,26.2046,0.0],[48.4628,29.0991,0.0],[47.9748,29.3741,0.0],[49.4802,28.1102,0.0],[50.2142,26.2854,0.0],[50.6535,26.7349,0.0],[50.576,26.2295,0.0],[51.5877,26.259,0.0],[51.5193,25.2946,0.0],[52.6002,25.9685,0.0],[55.1495,25.9242,0.0],[55.3086,25.2693,0.0],[55.3655,25.9242,0.0],[56.1651,26.4108,0.0],[56.2014,26.4108,0.0],[56.2468,26.1814,0.0],[56.3605,26.4089,0.0],[56.4685,26.4089,0.0],[58.1762,23.6849,0.0],[58.902,23.8751,0.0],[59.612,23.5815,0.0],[61.6296,16.1047,0.0],[53.0283,13.8133,0.0]]}},{"type":"Feature","properties":{"name":"FLAG FALCON","color":"#22d3ee","width":2.5,"type":"submarine_cable"},"geometry":{"type":"LineString","coordinates":[[53.0283,13.8133,0.0],[44.3027,11.4652,0.0],[43.8778,12.1822,0.0],[43.6487,12.2074,0.0],[42.613,13.9714,0.0],[42.6545,14.2335,0.0],[42.4596,14.5679,0.0],[38.8284,20.5153,0.0],[34.4298,27.424,0.0],[33.7693,27.879,0.0],[32.904,29.0205,0.0],[32.5407,29.9742,0.0]]}},{"type":"Feature","properties":{"name":"Hawk","color":"#22d3ee","width":2.5,"type":"submarine_cable"},"geometry":{"type":"LineString","coordinates":[[32.5757,34.6926,0.0],[29.6456,32.8419,0.0],[28.2563,32.4408,0.0]]}},{"type":"Feature","properties":{"name":"Hawk","color":"#22d3ee","width":2.5,"type":"submarine_cable"},"geometry":{"type":"LineString","coordinates":[[5.3725,43.2936,0.0],[8.2027,37.2729,0.0],[11.2033,37.268,0.0],[11.4535,37.0454,0.0],[11.1674,36.7367,0.0],[11.252,36.2979,0.0],[13.1452,34.7003,0.0],[17.2819,34.1496,0.0],[17.3827,33.9787,0.0],[28.2563,32.4408,0.0],[29.8935,31.1915,0.0]]}},{"type":"Feature","properties":{"name":"Fiber Optic Gulf (FOG)","color":"#22d3ee","width":2.5,"type":"submarine_cable"},"geometry":{"type":"LineString","coordinates":[[51.0948,27.0954,0.0],[50.576,26.2295,0.0]]}},{"type":"Feature","properties":{"name":"Fiber Optic Gulf (FOG)","color":"#22d3ee","width":2.5,"type":"submarine_cable"},"geometry":{"type":"LineString","coordinates":[[51.8708,26.5126,0.0],[51.5193,25.2946,0.0]]}},{"type":"Feature","properties":{"name":"Fiber Optic Gulf (FOG)","color":"#22d3ee","width":2.5,"type":"submarine_cable"},"geometry":{"type":"LineString","coordinates":[[48.0713,29.2709,0.0],[49.4367,28.4772,0.0],[53.3397,25.3103,0.0],[55.3086,25.2693,0.0]]}},{"type":"Feature","properties":{"name":"GLO-1","color":"#22d3ee","width":2.5,"type":"submarine_cable"},"geometry":{"type":"LineString","coordinates":[[-0.2043,5.5583,0.0],[-0.641,1.9267,0.0]]}},{"type":"Feature","properties":{"name":"GLO-1","color":"#22d3ee","width":2.5,"type":"submarine_cable"},"geometry":{"type":"LineString","coordinates":[[-4.5444,50.8282,0.0],[-13.1879,48.168,0.0],[-13.1614,37.9585,0.0],[-13.088,28.293,0.0],[-19.2238,20.2846,0.0],[-19.2081,14.6381,0.0],[-19.2076,14.4423,0.0],[-10.2973,1.9505,0.0],[3.4235,1.9431,0.0],[3.4235,6.4391,0.0]]}},{"type":"Feature","properties":{"name":"GO-1 Mediterranean Cable System","color":"#22d3ee","width":2.5,"type":"submarine_cable"},"geometry":{"type":"LineString","coordinates":[[12.5914,37.6505,0.0],[12.577,36.854,0.0],[13.7539,36.0012,0.0],[14.4119,35.9506,0.0]]}},{"type":"Feature","properties":{"name":"Greece-Western Europe Network (GWEN)","color":"#22d3ee","width":2.5,"type":"submarine_cable"},"geometry":{"type":"LineString","coordinates":[[16.8688,41.1257,0.0],[19.218,40.6538,0.0],[19.218,40.0339,0.0],[19.924,39.7541,0.0],[18.6974,39.7541,0.0],[18.6974,40.5715,0.0],[16.8688,41.1257,0.0]]}},{"type":"Feature","properties":{"name":"KAFOS","color":"#22d3ee","width":2.5,"type":"submarine_cable"},"geometry":{"type":"LineString","coordinates":[[27.9854,41.8842,0.0],[28.2017,42.2066,0.0],[28.1308,42.8848,0.0],[27.9145,43.202,0.0]]}},{"type":"Feature","properties":{"name":"KAFOS","color":"#22d3ee","width":2.5,"type":"submarine_cable"},"geometry":{"type":"LineString","coordinates":[[28.9882,41.0406,0.0],[28.9882,41.3672,0.0],[28.4179,41.8842,0.0],[27.9854,41.8842,0.0]]}},{"type":"Feature","properties":{"name":"HANNIBAL System","color":"#22d3ee","width":2.5,"type":"submarine_cable"},"geometry":{"type":"LineString","coordinates":[[11.0909,36.8498,0.0],[11.6601,36.4266,0.0],[12.5914,37.6505,0.0]]}},{"type":"Feature","properties":{"name":"Italy-Albania","color":"#22d3ee","width":2.5,"type":"submarine_cable"},"geometry":{"type":"LineString","coordinates":[[16.8688,41.1257,0.0],[18.1468,41.3169,0.0],[19.45,41.3169,0.0]]}},{"type":"Feature","properties":{"name":"Italy-Libya","color":"#22d3ee","width":2.5,"type":"submarine_cable"},"geometry":{"type":"LineString","coordinates":[[12.5914,37.6505,0.0],[13.1874,32.8776,0.0]]}},{"type":"Feature","properties":{"name":"Italy-Malta","color":"#22d3ee","width":2.5,"type":"submarine_cable"},"geometry":{"type":"LineString","coordinates":[[15.0674,37.5134,0.0],[15.5597,37.0697,0.0],[15.0501,36.2824,0.0],[14.4881,35.8919,0.0]]}},{"type":"Feature","properties":{"name":"Italy-Greece 1","color":"#22d3ee","width":2.5,"type":"submarine_cable"},"geometry":{"type":"LineString","coordinates":[[18.4858,40.1483,0.0],[18.4858,39.6195,0.0],[19.9196,39.6195,0.0]]}},{"type":"Feature","properties":{"name":"ITUR","color":"#22d3ee","width":2.5,"type":"submarine_cable"},"geometry":{"type":"LineString","coordinates":[[28.9882,41.0406,0.0],[29.2045,41.3672,0.0],[32.8027,43.4901,0.0]]}},{"type":"Feature","properties":{"name":"ITUR","color":"#22d3ee","width":2.5,"type":"submarine_cable"},"geometry":{"type":"LineString","coordinates":[[13.3585,38.1214,0.0],[13.5747,38.2921,0.0],[14.6231,38.7206,0.0],[15.7044,38.7206,0.0],[15.7044,38.2957,0.0],[15.5191,38.051,0.0],[15.5191,37.7081,0.0],[23.2877,35.9923,0.0],[24.6873,36.599,0.0],[24.9272,36.8423,0.0],[24.9272,37.1026,0.0],[25.214,37.4615,0.0],[25.3692,37.5852,0.0],[25.192,39.6913,0.0],[26.2433,40.0642,0.0],[26.3303,40.1098,0.0],[26.364,40.1444,0.0],[26.3587,40.1945,0.0],[26.4777,40.2626,0.0],[26.5839,40.3254,0.0],[26.7412,40.4729,0.0],[27.2421,40.5715,0.0],[27.5664,40.7362,0.0],[28.6304,40.9275,0.0],[28.9882,41.0406,0.0]]}},{"type":"Feature","properties":{"name":"Janna","color":"#22d3ee","width":2.5,"type":"submarine_cable"},"geometry":{"type":"LineString","coordinates":[[9.1094,39.2157,0.0],[9.3255,38.8787,0.0],[11.6191,37.8221,0.0],[12.5914,37.6505,0.0]]}},{"type":"Feature","properties":{"name":"Janna","color":"#22d3ee","width":2.5,"type":"submarine_cable"},"geometry":{"type":"LineString","coordinates":[[9.4869,40.9228,0.0],[11.7969,42.0914,0.0]]}},{"type":"Feature","properties":{"name":"Jonah","color":"#22d3ee","width":2.5,"type":"submarine_cable"},"geometry":{"type":"LineString","coordinates":[[34.7697,32.045,0.0],[32.0408,33.3543,0.0],[22.892,34.6979,0.0],[18.7838,39.6195,0.0],[18.7838,40.6436,0.0],[16.8688,41.1257,0.0]]}},{"type":"Feature","properties":{"name":"Kuwait-Iran","color":"#22d3ee","width":2.5,"type":"submarine_cable"},"geometry":{"type":"LineString","coordinates":[[50.2812,29.5523,0.0],[50.3121,29.246,0.0]]}},{"type":"Feature","properties":{"name":"Kuwait-Iran","color":"#22d3ee","width":2.5,"type":"submarine_cable"},"geometry":{"type":"LineString","coordinates":[[49.4363,29.487,0.0],[49.4781,29.0728,0.0]]}},{"type":"Feature","properties":{"name":"Kuwait-Iran","color":"#22d3ee","width":2.5,"type":"submarine_cable"},"geometry":{"type":"LineString","coordinates":[[47.9748,29.3741,0.0],[49.4363,29.487,0.0],[50.2812,29.5523,0.0],[50.5212,29.5708,0.0]]}},{"type":"Feature","properties":{"name":"Lev Submarine System","color":"#22d3ee","width":2.5,"type":"submarine_cable"},"geometry":{"type":"LineString","coordinates":[[34.7697,32.045,0.0],[31.3679,32.8469,0.0]]}},{"type":"Feature","properties":{"name":"Lev Submarine System","color":"#22d3ee","width":2.5,"type":"submarine_cable"},"geometry":{"type":"LineString","coordinates":[[12.5914,37.6505,0.0],[12.3494,36.469,0.0],[13.5678,35.4226,0.0],[31.3793,32.8469,0.0],[32.4667,34.7666,0.0]]}},{"type":"Feature","properties":{"name":"LFON (Libyan Fiber Optic Network)","color":"#22d3ee","width":2.5,"type":"submarine_cable"},"geometry":{"type":"LineString","coordinates":[[12.0834,32.9336,0.0],[12.0834,33.3092,0.0],[12.4218,33.3092,0.0],[12.5299,32.7749,0.0],[12.6379,33.3092,0.0],[12.9713,33.3092,0.0],[13.1874,32.8776,0.0],[13.2684,33.3092,0.0],[14.1565,33.3092,0.0],[14.2645,32.65,0.0],[14.3726,33.3092,0.0],[14.6634,33.3092,0.0],[15.3677,32.7568,0.0],[15.095,32.3746,0.0],[15.5258,32.6324,0.0],[16.6843,31.7473,0.0],[16.5884,31.2056,0.0],[16.8894,31.6891,0.0],[18.5415,31.2192,0.0],[18.412,30.587,0.0],[18.7465,31.1607,0.0],[19.3619,30.9967,0.0],[19.5765,30.3784,0.0],[19.5765,30.9544,0.0],[19.5765,32.025,0.0],[20.0667,32.1169,0.0],[19.5765,32.2089,0.0],[19.5765,33.105,0.0],[20.842,33.105,0.0],[20.95,32.717,0.0],[21.058,33.105,0.0],[21.6337,33.105,0.0],[21.7417,32.8821,0.0],[21.8497,33.105,0.0],[22.5311,33.1088,0.0],[22.6391,32.7637,0.0],[22.7472,33.105,0.0],[23.9604,32.447,0.0],[23.9604,32.0799,0.0]]}},{"type":"Feature","properties":{"name":"Libreville-Port Gentil Cable","color":"#22d3ee","width":2.5,"type":"submarine_cable"},"geometry":{"type":"LineString","coordinates":[[8.7817,-0.7206,0.0],[8.4576,-0.3944,0.0],[9.0204,0.266,0.0],[9.4543,0.3944,0.0]]}},{"type":"Feature","properties":{"name":"Lower Indian Ocean Network (LION)","color":"#22d3ee","width":2.5,"type":"submarine_cable"},"geometry":{"type":"LineString","coordinates":[[57.5102,-20.0775,0.0],[55.5478,-20.8973,0.0],[51.6345,-19.1852,0.0],[49.4002,-18.1461,0.0]]}},{"type":"Feature","properties":{"name":"Lower Indian Ocean Network 2 (LION2)","color":"#22d3ee","width":2.5,"type":"submarine_cable"},"geometry":{"type":"LineString","coordinates":[[48.223,-10.1921,0.0],[45.1658,-12.8171,0.0]]}},{"type":"Feature","properties":{"name":"Lower Indian Ocean Network 2 (LION2)","color":"#22d3ee","width":2.5,"type":"submarine_cable"},"geometry":{"type":"LineString","coordinates":[[39.7002,-4.0502,0.0],[43.8362,-4.9004,0.0],[52.9283,-15.7279,0.0],[51.6345,-19.1852,0.0]]}},{"type":"Feature","properties":{"name":"Loukkos","color":"#22d3ee","width":2.5,"type":"submarine_cable"},"geometry":{"type":"LineString","coordinates":[[-6.0357,35.4706,0.0],[-6.4678,35.4706,0.0],[-6.6823,36.2679,0.0],[-6.3582,36.617,0.0]]}},{"type":"Feature","properties":{"name":"Main One","color":"#22d3ee","width":2.5,"type":"submarine_cable"},"geometry":{"type":"LineString","coordinates":[[-0.2043,5.5583,0.0],[0.308,0.7325,0.0]]}},{"type":"Feature","properties":{"name":"Main One","color":"#22d3ee","width":2.5,"type":"submarine_cable"},"geometry":{"type":"LineString","coordinates":[[-9.1074,38.6427,0.0],[-10.4278,34.7959,0.0],[-10.1062,33.8491,0.0],[-14.3825,28.8969,0.0],[-14.3825,28.0378,0.0],[-20.3162,20.3061,0.0],[-20.3162,14.3944,0.0],[-10.6465,0.7325,0.0],[3.1154,0.7325,0.0],[3.4235,6.4391,0.0]]}},{"type":"Feature","properties":{"name":"Med Cable Network","color":"#22d3ee","width":2.5,"type":"submarine_cable"},"geometry":{"type":"LineString","coordinates":[[6.9744,39.0642,0.0],[5.3725,43.2936,0.0]]}},{"type":"Feature","properties":{"name":"Med Cable Network","color":"#22d3ee","width":2.5,"type":"submarine_cable"},"geometry":{"type":"LineString","coordinates":[[7.7554,36.9028,0.0],[6.9744,39.0642,0.0]]}},{"type":"Feature","properties":{"name":"Med Cable Network","color":"#22d3ee","width":2.5,"type":"submarine_cable"},"geometry":{"type":"LineString","coordinates":[[6.9744,39.0642,0.0],[3.0357,36.7621,0.0],[1.1907,36.7016,0.0],[-0.642,35.7016,0.0]]}},{"type":"Feature","properties":{"name":"MedNautilus Submarine System","color":"#22d3ee","width":2.5,"type":"submarine_cable"},"geometry":{"type":"LineString","coordinates":[[25.3002,39.6913,0.0],[25.5969,37.4101,0.0],[25.4121,37.3007,0.0],[25.0376,37.2363,0.0],[24.6072,37.2865,0.0],[24.3198,37.2247,0.0],[23.927,37.2419,0.0],[23.7303,37.6465,0.0],[23.7362,37.9761,0.0]]}},{"type":"Feature","properties":{"name":"MedNautilus Submarine System","color":"#22d3ee","width":2.5,"type":"submarine_cable"},"geometry":{"type":"LineString","coordinates":[[28.9882,41.0406,0.0],[28.2835,40.7445,0.0],[27.6706,40.5714,0.0],[27.2044,40.5173,0.0],[26.7554,40.4557,0.0],[26.644,40.3754,0.0],[26.5929,40.3174,0.0],[26.5166,40.2768,0.0],[26.4478,40.2237,0.0],[26.3722,40.1945,0.0],[26.3762,40.1468,0.0],[26.3442,40.1046,0.0],[26.2461,40.0557,0.0],[25.3002,39.6913,0.0]]}},{"type":"Feature","properties":{"name":"MedNautilus Submarine System","color":"#22d3ee","width":2.5,"type":"submarine_cable"},"geometry":{"type":"LineString","coordinates":[[25.895,36.653,0.0],[24.7574,36.4628,0.0],[24.0371,36.5905,0.0],[23.6782,37.6548,0.0],[23.7362,37.9761,0.0]]}},{"type":"Feature","properties":{"name":"MedNautilus Submarine System","color":"#22d3ee","width":2.5,"type":"submarine_cable"},"geometry":{"type":"LineString","coordinates":[[28.9882,41.0406,0.0],[28.3059,40.7274,0.0],[27.6788,40.5524,0.0],[27.1801,40.4957,0.0],[26.755,40.4374,0.0],[26.6771,40.3798,0.0],[26.6056,40.3078,0.0],[26.5317,40.2627,0.0],[26.4817,40.2214,0.0],[26.3887,40.1917,0.0],[26.3908,40.1324,0.0],[26.3482,40.0867,0.0],[26.26,40.0424,0.0],[26.0982,39.9778,0.0],[25.4351,39.7073,0.0],[25.6811,38.7831,0.0],[25.8819,37.4472,0.0],[26.2134,37.073,0.0],[26.2134,36.8996,0.0],[25.895,36.653,0.0],[26.0324,35.7148,0.0]]}},{"type":"Feature","properties":{"name":"MedNautilus Submarine System","color":"#22d3ee","width":2.5,"type":"submarine_cable"},"geometry":{"type":"LineString","coordinates":[[26.0324,35.7148,0.0],[24.0122,35.512,0.0],[15.0674,37.5134,0.0]]}},{"type":"Feature","properties":{"name":"MedNautilus Submarine System","color":"#22d3ee","width":2.5,"type":"submarine_cable"},"geometry":{"type":"LineString","coordinates":[[33.9328,33.1861,0.0],[33.6106,34.8273,0.0]]}},{"type":"Feature","properties":{"name":"MedNautilus Submarine System","color":"#22d3ee","width":2.5,"type":"submarine_cable"},"geometry":{"type":"LineString","coordinates":[[24.0122,35.512,0.0],[23.6206,37.6548,0.0],[23.7362,37.9761,0.0]]}},{"type":"Feature","properties":{"name":"MedNautilus Submarine System","color":"#22d3ee","width":2.5,"type":"submarine_cable"},"geometry":{"type":"LineString","coordinates":[[15.0674,37.5134,0.0],[16.8933,35.1097,0.0],[32.2014,32.8742,0.0],[34.7697,32.045,0.0],[34.2775,32.5995,0.0],[34.9989,32.8116,0.0]]}},{"type":"Feature","properties":{"name":"MedNautilus Submarine System","color":"#22d3ee","width":2.5,"type":"submarine_cable"},"geometry":{"type":"LineString","coordinates":[[34.9989,32.8116,0.0],[26.4771,35.7594,0.0],[26.0324,35.7148,0.0]]}},{"type":"Feature","properties":{"name":"Melita 1","color":"#22d3ee","width":2.5,"type":"submarine_cable"},"geometry":{"type":"LineString","coordinates":[[14.4588,35.9342,0.0],[14.8539,36.7339,0.0]]}},{"type":"Feature","properties":{"name":"OMRAN/EPEG Cable System","color":"#22d3ee","width":2.5,"type":"submarine_cable"},"geometry":{"type":"LineString","coordinates":[[57.7973,25.6813,0.0],[57.7973,25.1908,0.0],[57.3239,24.4208,0.0]]}},{"type":"Feature","properties":{"name":"OMRAN/EPEG Cable System","color":"#22d3ee","width":2.5,"type":"submarine_cable"},"geometry":{"type":"LineString","coordinates":[[56.2468,26.1814,0.0],[56.2468,26.1814,0.0],[56.3282,26.4355,0.0],[56.4898,26.4355,0.0],[56.5709,25.7908,0.0],[56.258,25.617,0.0]]}},{"type":"Feature","properties":{"name":"OMRAN/EPEG Cable System","color":"#22d3ee","width":2.5,"type":"submarine_cable"},"geometry":{"type":"LineString","coordinates":[[56.258,25.617,0.0],[57.3239,24.4208,0.0],[58.0045,23.6796,0.0]]}},{"type":"Feature","properties":{"name":"Pencan-6","color":"#22d3ee","width":2.5,"type":"submarine_cable"},"geometry":{"type":"LineString","coordinates":[[-16.5386,28.0467,0.0],[-15.4384,28.773,0.0],[-11.0949,33.8627,0.0],[-11.2614,34.9149,0.0],[-9.5151,35.7449,0.0],[-6.0871,36.2768,0.0]]}},{"type":"Feature","properties":{"name":"Pencan-8","color":"#22d3ee","width":2.5,"type":"submarine_cable"},"geometry":{"type":"LineString","coordinates":[[-6.3091,36.5328,0.0],[-9.6233,35.833,0.0],[-11.4776,35.0039,0.0],[-11.3111,33.9528,0.0],[-15.5465,28.8682,0.0],[-15.9405,28.3451,0.0],[-16.5228,28.293,0.0]]}},{"type":"Feature","properties":{"name":"Qatar-UAE Submarine Cable System","color":"#22d3ee","width":2.5,"type":"submarine_cable"},"geometry":{"type":"LineString","coordinates":[[51.5193,25.2946,0.0],[52.4202,25.6689,0.0],[52.866,25.1526,0.0],[54.4191,24.444,0.0]]}},{"type":"Feature","properties":{"name":"SAFE","color":"#22d3ee","width":2.5,"type":"submarine_cable"},"geometry":{"type":"LineString","coordinates":[[31.758,-28.9506,0.0],[33.7842,-35.4929,0.0]]}},{"type":"Feature","properties":{"name":"SAFE","color":"#22d3ee","width":2.5,"type":"submarine_cable"},"geometry":{"type":"LineString","coordinates":[[54.0482,-21.0,0.0],[55.2792,-21.0,0.0],[58.3634,-21.0,0.0],[58.7955,-20.474,0.0],[74.5195,-0.4376,0.0],[96.2016,6.2341,0.0],[100.363,5.3538,0.0]]}},{"type":"Feature","properties":{"name":"SAFE","color":"#22d3ee","width":2.5,"type":"submarine_cable"},"geometry":{"type":"LineString","coordinates":[[18.4459,-33.7272,0.0],[18.897,-35.4929,0.0],[33.7842,-35.4929,0.0],[41.2747,-35.4929,0.0]]}},{"type":"Feature","properties":{"name":"SAFE","color":"#22d3ee","width":2.5,"type":"submarine_cable"},"geometry":{"type":"LineString","coordinates":[[41.2747,-35.4929,0.0],[54.0482,-21.0,0.0],[54.4743,-20.474,0.0],[57.4855,-20.474,0.0],[58.7955,-20.474,0.0]]}},{"type":"Feature","properties":{"name":"SAT-3/WASC","color":"#22d3ee","width":2.5,"type":"submarine_cable"},"geometry":{"type":"LineString","coordinates":[[6.4534,-0.7845,0.0],[8.9124,0.3747,0.0],[9.4543,0.3944,0.0]]}},{"type":"Feature","properties":{"name":"SAT-3/WASC","color":"#22d3ee","width":2.5,"type":"submarine_cable"},"geometry":{"type":"LineString","coordinates":[[2.3201,1.1745,0.0],[2.4401,6.3567,0.0]]}},{"type":"Feature","properties":{"name":"SAT-3/WASC","color":"#22d3ee","width":2.5,"type":"submarine_cable"},"geometry":{"type":"LineString","coordinates":[[-14.7262,27.1307,0.0],[-15.8625,27.8079,0.0],[-15.8625,27.9428,0.0],[-15.6999,27.9998,0.0]]}},{"type":"Feature","properties":{"name":"SAT-3/WASC","color":"#22d3ee","width":2.5,"type":"submarine_cable"},"geometry":{"type":"LineString","coordinates":[[13.3724,-8.7766,0.0],[8.4045,-11.047,0.0]]}},{"type":"Feature","properties":{"name":"SAT-3/WASC","color":"#22d3ee","width":2.5,"type":"submarine_cable"},"geometry":{"type":"LineString","coordinates":[[9.7064,4.0474,0.0],[5.2818,1.1745,0.0]]}},{"type":"Feature","properties":{"name":"SAT-3/WASC","color":"#22d3ee","width":2.5,"type":"submarine_cable"},"geometry":{"type":"LineString","coordinates":[[3.4235,6.4391,0.0],[3.7831,1.1745,0.0]]}},{"type":"Feature","properties":{"name":"SAT-3/WASC","color":"#22d3ee","width":2.5,"type":"submarine_cable"},"geometry":{"type":"LineString","coordinates":[[-0.2043,5.5583,0.0],[-0.2184,1.1745,0.0]]}},{"type":"Feature","properties":{"name":"SAT-3/WASC","color":"#22d3ee","width":2.5,"type":"submarine_cable"},"geometry":{"type":"LineString","coordinates":[[-4.0262,5.3235,0.0],[-4.0465,1.1745,0.0]]}},{"type":"Feature","properties":{"name":"SAT-3/WASC","color":"#22d3ee","width":2.5,"type":"submarine_cable"},"geometry":{"type":"LineString","coordinates":[[-17.4457,14.6867,0.0],[-19.9381,16.1487,0.0]]}},{"type":"Feature","properties":{"name":"SAT-3/WASC","color":"#22d3ee","width":2.5,"type":"submarine_cable"},"geometry":{"type":"LineString","coordinates":[[-9.1028,38.4431,0.0],[-10.191,34.7684,0.0],[-9.7,33.323,0.0],[-14.7262,27.1307,0.0],[-19.9381,20.2675,0.0],[-19.9381,16.1487,0.0],[-19.9381,14.4257,0.0],[-10.5552,1.1745,0.0],[-4.0465,1.1745,0.0],[-0.2184,1.1745,0.0],[2.3201,1.1745,0.0],[3.7831,1.1745,0.0],[5.2818,1.1745,0.0],[6.4534,-0.7845,0.0],[8.3618,-3.9727,0.0],[8.4045,-11.047,0.0],[8.3618,-24.1148,0.0],[16.6772,-33.4117,0.0],[18.4459,-33.7272,0.0]]}},{"type":"Feature","properties":{"name":"Saudi Arabia-Sudan-1 (SAS-1)","color":"#22d3ee","width":2.5,"type":"submarine_cable"},"geometry":{"type":"LineString","coordinates":[[37.2196,19.6156,0.0],[39.1828,21.4815,0.0]]}},{"type":"Feature","properties":{"name":"Saudi Arabia-Sudan-2 (SAS-2)","color":"#22d3ee","width":2.5,"type":"submarine_cable"},"geometry":{"type":"LineString","coordinates":[[37.2196,19.6156,0.0],[37.6406,20.9416,0.0],[39.1828,21.4815,0.0]]}},{"type":"Feature","properties":{"name":"SeaMeWe-3","color":"#22d3ee","width":2.5,"type":"submarine_cable"},"geometry":{"type":"LineString","coordinates":[[29.8935,31.1915,0.0],[30.6973,31.0854,0.0],[31.9979,30.4853,0.0],[32.5428,29.9591,0.0]]}},{"type":"Feature","properties":{"name":"SeaMeWe-3","color":"#22d3ee","width":2.5,"type":"submarine_cable"},"geometry":{"type":"LineString","coordinates":[[43.148,11.5948,0.0],[43.8464,11.71,0.0]]}},{"type":"Feature","properties":{"name":"SeaMeWe-3","color":"#22d3ee","width":2.5,"type":"submarine_cable"},"geometry":{"type":"LineString","coordinates":[[29.8935,31.1915,0.0],[29.2131,33.0243,0.0],[22.7318,33.9549,0.0]]}},{"type":"Feature","properties":{"name":"SeaMeWe-3","color":"#22d3ee","width":2.5,"type":"submarine_cable"},"geometry":{"type":"LineString","coordinates":[[22.7318,33.9549,0.0],[13.4441,35.2706,0.0],[12.0512,36.4663,0.0],[12.5914,37.6505,0.0]]}},{"type":"Feature","properties":{"name":"SeaMeWe-3","color":"#22d3ee","width":2.5,"type":"submarine_cable"},"geometry":{"type":"LineString","coordinates":[[68.1037,17.5114,0.0],[62.6914,16.0919,0.0]]}},{"type":"Feature","properties":{"name":"SeaMeWe-3","color":"#22d3ee","width":2.5,"type":"submarine_cable"},"geometry":{"type":"LineString","coordinates":[[62.6914,16.0919,0.0],[44.8633,11.3475,0.0],[44.0936,11.2936,0.0],[43.8464,11.71,0.0],[43.1058,12.9535,0.0]]}},{"type":"Feature","properties":{"name":"SeaMeWe-3","color":"#22d3ee","width":2.5,"type":"submarine_cable"},"geometry":{"type":"LineString","coordinates":[[43.1058,12.9535,0.0],[38.2591,20.9128,0.0],[34.2037,27.2661,0.0],[32.8534,28.9613,0.0],[32.5299,29.9726,0.0],[31.947,30.4027,0.0],[30.6464,31.0034,0.0],[29.8935,31.1915,0.0]]}},{"type":"Feature","properties":{"name":"SeaMeWe-3","color":"#22d3ee","width":2.5,"type":"submarine_cable"},"geometry":{"type":"LineString","coordinates":[[12.5914,37.6505,0.0],[10.8121,37.7932,0.0],[2.3544,37.7488,0.0],[-2.1316,35.9416,0.0],[-5.394,35.9583,0.0],[-9.3954,36.2282,0.0],[-9.1028,38.4431,0.0]]}},{"type":"Feature","properties":{"name":"SeaMeWe-3","color":"#22d3ee","width":2.5,"type":"submarine_cable"},"geometry":{"type":"LineString","coordinates":[[-9.1028,38.4431,0.0],[-10.5424,38.5527,0.0],[-10.5826,45.2014,0.0],[-4.3385,47.811,0.0],[-5.4321,48.8035,0.0],[-5.173,50.0225,0.0],[0.3544,49.9749,0.0],[2.274,51.5182,0.0],[4.0218,53.8271,0.0],[7.2018,53.5956,0.0]]}},{"type":"Feature","properties":{"name":"SeaMeWe-3","color":"#22d3ee","width":2.5,"type":"submarine_cable"},"geometry":{"type":"LineString","coordinates":[[38.2589,20.913,0.0],[39.1828,21.4815,0.0]]}},{"type":"Feature","properties":{"name":"SeaMeWe-3","color":"#22d3ee","width":2.5,"type":"submarine_cable"},"geometry":{"type":"LineString","coordinates":[[58.5912,23.6152,0.0],[59.333,23.8013,0.0]]}},{"type":"Feature","properties":{"name":"SeaMeWe-3","color":"#22d3ee","width":2.5,"type":"submarine_cable"},"geometry":{"type":"LineString","coordinates":[[32.4667,34.7666,0.0],[29.2131,33.0243,0.0],[28.551,36.2227,0.0],[28.2536,36.8553,0.0]]}},{"type":"Feature","properties":{"name":"SeaMeWe-3","color":"#22d3ee","width":2.5,"type":"submarine_cable"},"geometry":{"type":"LineString","coordinates":[[-5.3918,35.5659,0.0],[-4.5257,35.9508,0.0]]}},{"type":"Feature","properties":{"name":"SeaMeWe-3","color":"#22d3ee","width":2.5,"type":"submarine_cable"},"geometry":{"type":"LineString","coordinates":[[22.7318,33.9549,0.0],[23.1057,35.4958,0.0],[23.4774,35.7797,0.0],[23.8554,35.7797,0.0],[24.0122,35.512,0.0]]}},{"type":"Feature","properties":{"name":"SeaMeWe-3","color":"#22d3ee","width":2.5,"type":"submarine_cable"},"geometry":{"type":"LineString","coordinates":[[56.3337,25.1217,0.0],[60.7394,23.1791,0.0],[62.6914,16.0919,0.0]]}},{"type":"Feature","properties":{"name":"SeaMeWe-4","color":"#22d3ee","width":2.5,"type":"submarine_cable"},"geometry":{"type":"LineString","coordinates":[[12.2146,38.0939,0.0],[12.3082,37.4086,0.0],[12.1177,37.2073,0.0],[11.5708,36.6299,0.0],[13.3386,35.1356,0.0],[29.0631,32.9259,0.0],[29.8935,31.1915,0.0],[30.5446,30.8392,0.0],[31.8452,30.2375,0.0],[32.5428,29.9591,0.0],[32.738,28.9311,0.0],[33.891,27.4969,0.0],[37.8114,21.3767,0.0],[39.1828,21.4815,0.0]]}},{"type":"Feature","properties":{"name":"SeaMeWe-4","color":"#22d3ee","width":2.5,"type":"submarine_cable"},"geometry":{"type":"LineString","coordinates":[[29.8935,31.1915,0.0],[30.5955,30.9213,0.0],[31.8961,30.3202,0.0],[32.5299,29.9726,0.0]]}},{"type":"Feature","properties":{"name":"SeaMeWe-4","color":"#22d3ee","width":2.5,"type":"submarine_cable"},"geometry":{"type":"LineString","coordinates":[[64.6449,16.4177,0.0],[62.3819,23.9233,0.0],[56.3337,25.1217,0.0]]}},{"type":"Feature","properties":{"name":"SeaMeWe-4","color":"#22d3ee","width":2.5,"type":"submarine_cable"},"geometry":{"type":"LineString","coordinates":[[39.1828,21.4815,0.0],[38.393,20.4443,0.0],[42.3142,14.0187,0.0],[42.4691,13.9839,0.0],[43.5816,12.1478,0.0],[43.5282,11.9876,0.0],[44.0358,11.1334,0.0],[44.8401,11.2225,0.0],[64.2502,16.3127,0.0],[64.6445,16.4191,0.0]]}},{"type":"Feature","properties":{"name":"SeaMeWe-4","color":"#22d3ee","width":2.5,"type":"submarine_cable"},"geometry":{"type":"LineString","coordinates":[[5.3725,43.2936,0.0],[8.5076,37.8911,0.0],[9.7093,37.8957,0.0]]}},{"type":"Feature","properties":{"name":"SeaMeWe-4","color":"#22d3ee","width":2.5,"type":"submarine_cable"},"geometry":{"type":"LineString","coordinates":[[9.7093,37.8957,0.0],[10.8231,37.8999,0.0],[12.2146,38.0939,0.0],[12.7568,38.252,0.0],[13.3587,38.1161,0.0]]}},{"type":"Feature","properties":{"name":"SeaMeWe-4","color":"#22d3ee","width":2.5,"type":"submarine_cable"},"geometry":{"type":"LineString","coordinates":[[64.6445,16.4191,0.0],[68.7909,17.5342,0.0]]}},{"type":"Feature","properties":{"name":"SeaMeWe-4","color":"#22d3ee","width":2.5,"type":"submarine_cable"},"geometry":{"type":"LineString","coordinates":[[9.8674,37.2768,0.0],[9.7093,37.8957,0.0]]}},{"type":"Feature","properties":{"name":"SeaMeWe-4","color":"#22d3ee","width":2.5,"type":"submarine_cable"},"geometry":{"type":"LineString","coordinates":[[7.7554,36.9028,0.0],[8.5076,37.8911,0.0]]}},{"type":"Feature","properties":{"name":"Seychelles to East Africa System (SEAS)","color":"#22d3ee","width":2.5,"type":"submarine_cable"},"geometry":{"type":"LineString","coordinates":[[39.2698,-6.8231,0.0],[55.4451,-4.6176,0.0]]}},{"type":"Feature","properties":{"name":"South America-1 (SAm-1)","color":"#22d3ee","width":2.5,"type":"submarine_cable"},"geometry":{"type":"LineString","coordinates":[[-38.543,-3.7187,0.0],[-33.1864,0.1515,0.0],[-28.6637,-3.4878,0.0],[-28.6637,-12.8188,0.0],[-32.0477,-17.4733,0.0],[-39.2572,-26.9675,0.0],[-44.5175,-24.7956,0.0],[-46.3281,-23.9619,0.0]]}},{"type":"Feature","properties":{"name":"South American Crossing (SAC)/Latin American Nautilus (LAN)","color":"#22d3ee","width":2.5,"type":"submarine_cable"},"geometry":{"type":"LineString","coordinates":[[-63.4724,17.8313,0.0],[-56.2397,17.4466,0.0],[-37.9449,0.5366,0.0],[-38.543,-3.7187,0.0],[-33.4467,-0.2656,0.0],[-29.6506,-3.3202,0.0],[-29.6506,-12.5215,0.0],[-38.8744,-24.9368,0.0],[-43.2096,-22.9035,0.0],[-44.5952,-24.2612,0.0]]}},{"type":"Feature","properties":{"name":"SEACOM/Tata TGN-Eurasia","color":"#22d3ee","width":2.5,"type":"submarine_cable"},"geometry":{"type":"LineString","coordinates":[[38.25,21.7135,0.0],[39.1828,21.4815,0.0]]}},{"type":"Feature","properties":{"name":"SEACOM/Tata TGN-Eurasia","color":"#22d3ee","width":2.5,"type":"submarine_cable"},"geometry":{"type":"LineString","coordinates":[[43.148,11.5948,0.0],[44.1272,12.0205,0.0]]}},{"type":"Feature","properties":{"name":"SEACOM/Tata TGN-Eurasia","color":"#22d3ee","width":2.5,"type":"submarine_cable"},"geometry":{"type":"LineString","coordinates":[[72.8759,19.0761,0.0],[72.605,18.9323,0.0],[70.6929,17.6057,0.0],[63.388,15.7471,0.0]]}},{"type":"Feature","properties":{"name":"SEACOM/Tata TGN-Eurasia","color":"#22d3ee","width":2.5,"type":"submarine_cable"},"geometry":{"type":"LineString","coordinates":[[63.388,15.7471,0.0],[52.7236,13.003,0.0]]}},{"type":"Feature","properties":{"name":"SEACOM/Tata TGN-Eurasia","color":"#22d3ee","width":2.5,"type":"submarine_cable"},"geometry":{"type":"LineString","coordinates":[[32.5806,-25.9682,0.0],[36.4479,-26.0039,0.0]]}},{"type":"Feature","properties":{"name":"SEACOM/Tata TGN-Eurasia","color":"#22d3ee","width":2.5,"type":"submarine_cable"},"geometry":{"type":"LineString","coordinates":[[42.8739,-6.7954,0.0],[39.2698,-6.8231,0.0]]}},{"type":"Feature","properties":{"name":"SEACOM/Tata TGN-Eurasia","color":"#22d3ee","width":2.5,"type":"submarine_cable"},"geometry":{"type":"LineString","coordinates":[[43.2484,-3.9716,0.0],[39.6729,-4.0529,0.0]]}},{"type":"Feature","properties":{"name":"SEACOM/Tata TGN-Eurasia","color":"#22d3ee","width":2.5,"type":"submarine_cable"},"geometry":{"type":"LineString","coordinates":[[52.7236,13.003,0.0],[52.9127,12.2597,0.0],[48.5597,2.8927,0.0],[43.3164,-3.4585,0.0],[43.2484,-3.9716,0.0]]}},{"type":"Feature","properties":{"name":"SEACOM/Tata TGN-Eurasia","color":"#22d3ee","width":2.5,"type":"submarine_cable"},"geometry":{"type":"LineString","coordinates":[[43.2484,-3.9716,0.0],[42.8739,-6.7954,0.0]]}},{"type":"Feature","properties":{"name":"SEACOM/Tata TGN-Eurasia","color":"#22d3ee","width":2.5,"type":"submarine_cable"},"geometry":{"type":"LineString","coordinates":[[42.8739,-6.7954,0.0],[41.496,-16.9871,0.0],[36.4479,-26.0039,0.0]]}},{"type":"Feature","properties":{"name":"SEACOM/Tata TGN-Eurasia","color":"#22d3ee","width":2.5,"type":"submarine_cable"},"geometry":{"type":"LineString","coordinates":[[36.4479,-26.0039,0.0],[34.5904,-29.1661,0.0],[31.758,-28.9506,0.0]]}},{"type":"Feature","properties":{"name":"SEACOM/Tata TGN-Eurasia","color":"#22d3ee","width":2.5,"type":"submarine_cable"},"geometry":{"type":"LineString","coordinates":[[52.7236,13.003,0.0],[45.8821,11.2273,0.0],[45.235,11.206,0.0],[44.3869,11.6005,0.0],[44.1272,12.0205,0.0],[44.0,12.2262,0.0],[43.6837,12.2483,0.0],[42.6638,13.9651,0.0],[42.782,14.2954,0.0],[38.25,21.7135,0.0],[34.568,27.4743,0.0],[33.9032,27.7309,0.0],[33.3023,28.2763,0.0],[32.6137,29.1042,0.0]]}},{"type":"Feature","properties":{"name":"Subcan Link 1","color":"#22d3ee","width":2.5,"type":"submarine_cable"},"geometry":{"type":"LineString","coordinates":[[-16.3623,28.3776,0.0],[-15.2881,28.3885,0.0],[-15.1801,28.3885,0.0],[-15.1801,28.0604,0.0],[-15.4087,28.041,0.0]]}},{"type":"Feature","properties":{"name":"Subcan Link 2","color":"#22d3ee","width":2.5,"type":"submarine_cable"},"geometry":{"type":"LineString","coordinates":[[-16.3623,28.3776,0.0],[-15.2881,28.484,0.0],[-15.0721,28.484,0.0],[-15.0721,28.0604,0.0],[-15.4087,28.041,0.0]]}},{"type":"Feature","properties":{"name":"TAGIDE 2","color":"#22d3ee","width":2.5,"type":"submarine_cable"},"geometry":{"type":"LineString","coordinates":[[-4.3385,47.811,0.0],[-9.981,44.8698,0.0],[-9.981,38.8865,0.0],[-9.1028,38.4431,0.0]]}},{"type":"Feature","properties":{"name":"Tata TGN-Gulf","color":"#22d3ee","width":2.5,"type":"submarine_cable"},"geometry":{"type":"LineString","coordinates":[[63.388,15.7471,0.0],[61.3527,23.2573,0.0],[58.8545,24.1962,0.0],[57.2521,24.7536,0.0],[56.8551,25.5664,0.0],[56.5396,26.5633,0.0],[56.0959,26.5633,0.0],[55.2575,26.0536,0.0],[53.8041,26.1212,0.0],[52.6994,26.6938,0.0],[51.8864,27.1266,0.0],[51.0495,27.6006,0.0],[50.2142,26.2854,0.0]]}},{"type":"Feature","properties":{"name":"Tata TGN-Gulf","color":"#22d3ee","width":2.5,"type":"submarine_cable"},"geometry":{"type":"LineString","coordinates":[[55.3086,25.2693,0.0],[55.2575,26.0536,0.0]]}},{"type":"Feature","properties":{"name":"Tata TGN-Gulf","color":"#22d3ee","width":2.5,"type":"submarine_cable"},"geometry":{"type":"LineString","coordinates":[[56.3337,25.1217,0.0],[56.8551,25.5664,0.0]]}},{"type":"Feature","properties":{"name":"Tata TGN-Gulf","color":"#22d3ee","width":2.5,"type":"submarine_cable"},"geometry":{"type":"LineString","coordinates":[[58.5912,23.6152,0.0],[58.8545,24.1962,0.0]]}},{"type":"Feature","properties":{"name":"Tata TGN-Gulf","color":"#22d3ee","width":2.5,"type":"submarine_cable"},"geometry":{"type":"LineString","coordinates":[[50.576,26.2295,0.0],[51.8864,27.1266,0.0]]}},{"type":"Feature","properties":{"name":"Tata TGN-Gulf","color":"#22d3ee","width":2.5,"type":"submarine_cable"},"geometry":{"type":"LineString","coordinates":[[51.5193,25.2946,0.0],[52.6994,26.6938,0.0]]}},{"type":"Feature","properties":{"name":"Tata TGN-Western Europe","color":"#22d3ee","width":2.5,"type":"submarine_cable"},"geometry":{"type":"LineString","coordinates":[[-4.2216,51.1199,0.0],[-4.3358,51.2299,0.0],[-3.9452,51.3188,0.0],[-2.9749,51.2224,0.0],[-3.9533,51.3699,0.0],[-11.2255,49.5518,0.0],[-11.2778,38.2092,0.0],[-9.1074,38.6427,0.0]]}},{"type":"Feature","properties":{"name":"The East African Marine System (TEAMS)","color":"#22d3ee","width":2.5,"type":"submarine_cable"},"geometry":{"type":"LineString","coordinates":[[39.6729,-4.0529,0.0],[43.8352,-3.483,0.0],[48.8922,2.6227,0.0],[53.1747,11.7704,0.0],[64.2277,14.6029,0.0],[61.7612,23.5109,0.0],[56.3337,25.1217,0.0]]}},{"type":"Feature","properties":{"name":"Tobrok-Emasaed Cable System","color":"#22d3ee","width":2.5,"type":"submarine_cable"},"geometry":{"type":"LineString","coordinates":[[23.9604,32.0799,0.0],[24.2532,32.1576,0.0],[25.0874,32.1576,0.0],[25.0874,31.7613,0.0]]}},{"type":"Feature","properties":{"name":"Transworld (TW1)","color":"#22d3ee","width":2.5,"type":"submarine_cable"},"geometry":{"type":"LineString","coordinates":[[58.1762,23.6849,0.0],[59.1915,24.7407,0.0]]}},{"type":"Feature","properties":{"name":"Transworld (TW1)","color":"#22d3ee","width":2.5,"type":"submarine_cable"},"geometry":{"type":"LineString","coordinates":[[56.3337,25.1217,0.0],[62.5596,24.29,0.0],[67.0286,24.8897,0.0]]}},{"type":"Feature","properties":{"name":"Trapani-Kelibia","color":"#22d3ee","width":2.5,"type":"submarine_cable"},"geometry":{"type":"LineString","coordinates":[[11.0909,36.8498,0.0],[11.4411,36.678,0.0],[12.173,37.4576,0.0],[12.1057,37.8189,0.0],[12.5137,38.0182,0.0]]}},{"type":"Feature","properties":{"name":"Turcyos-1","color":"#22d3ee","width":2.5,"type":"submarine_cable"},"geometry":{"type":"LineString","coordinates":[[34.6334,36.7999,0.0],[34.6334,36.6258,0.0],[33.2363,35.4762,0.0],[33.2363,35.2991,0.0]]}},{"type":"Feature","properties":{"name":"Turcyos-2","color":"#22d3ee","width":2.5,"type":"submarine_cable"},"geometry":{"type":"LineString","coordinates":[[35.9993,36.0823,0.0],[35.7831,36.0823,0.0],[34.1132,35.2973,0.0],[33.8969,35.2973,0.0]]}},{"type":"Feature","properties":{"name":"UAE-Iran","color":"#22d3ee","width":2.5,"type":"submarine_cable"},"geometry":{"type":"LineString","coordinates":[[56.3337,25.1217,0.0],[57.6036,25.2342,0.0],[57.7973,25.6813,0.0]]}},{"type":"Feature","properties":{"name":"UGARIT","color":"#22d3ee","width":2.5,"type":"submarine_cable"},"geometry":{"type":"LineString","coordinates":[[35.8978,34.8917,0.0],[33.6106,34.8273,0.0]]}},{"type":"Feature","properties":{"name":"Vodafone Malta-Sicily Cable System (VMSCS)","color":"#22d3ee","width":2.5,"type":"submarine_cable"},"geometry":{"type":"LineString","coordinates":[[15.0674,37.5134,0.0],[15.7603,37.0964,0.0],[15.1689,36.1634,0.0],[14.3801,35.9341,0.0]]}},{"type":"Feature","properties":{"name":"West African Cable System (WACS)","color":"#22d3ee","width":2.5,"type":"submarine_cable"},"geometry":{"type":"LineString","coordinates":[[18.1556,-33.348,0.0],[16.5426,-33.595,0.0],[7.5521,-24.1187,0.0],[7.5504,-23.0554,0.0],[7.5582,-18.3666,0.0]]}},{"type":"Feature","properties":{"name":"West African Cable System (WACS)","color":"#22d3ee","width":2.5,"type":"submarine_cable"},"geometry":{"type":"LineString","coordinates":[[7.5582,-18.3666,0.0],[7.5704,-10.7267,0.0],[7.5504,-6.9221,0.0],[7.5776,-4.6284,0.0],[7.5791,-3.9727,0.0],[5.2896,0.3603,0.0],[4.2966,0.3603,0.0],[0.7702,0.3603,0.0],[-1.1976,0.3603,0.0],[-2.4661,0.3603,0.0],[-10.7868,0.3603,0.0],[-20.6943,14.3627,0.0],[-20.6943,15.0666,0.0],[-20.6943,20.3044,0.0],[-17.096,25.0265,0.0],[-17.096,27.6156,0.0],[-17.096,29.3923,0.0],[-9.1074,38.6427,0.0]]}},{"type":"Feature","properties":{"name":"West African Cable System (WACS)","color":"#22d3ee","width":2.5,"type":"submarine_cable"},"geometry":{"type":"LineString","coordinates":[[14.5334,-22.6854,0.0],[7.5504,-23.0554,0.0]]}},{"type":"Feature","properties":{"name":"West African Cable System (WACS)","color":"#22d3ee","width":2.5,"type":"submarine_cable"},"geometry":{"type":"LineString","coordinates":[[12.35,-5.9334,0.0],[7.5504,-6.9221,0.0]]}},{"type":"Feature","properties":{"name":"West African Cable System (WACS)","color":"#22d3ee","width":2.5,"type":"submarine_cable"},"geometry":{"type":"LineString","coordinates":[[7.5704,-10.7267,0.0],[13.2351,-8.8126,0.0]]}},{"type":"Feature","properties":{"name":"West African Cable System (WACS)","color":"#22d3ee","width":2.5,"type":"submarine_cable"},"geometry":{"type":"LineString","coordinates":[[7.5776,-4.6284,0.0],[11.8637,-4.7788,0.0]]}},{"type":"Feature","properties":{"name":"West African Cable System (WACS)","color":"#22d3ee","width":2.5,"type":"submarine_cable"},"geometry":{"type":"LineString","coordinates":[[5.2896,0.3603,0.0],[9.2087,4.0148,0.0]]}},{"type":"Feature","properties":{"name":"West African Cable System (WACS)","color":"#22d3ee","width":2.5,"type":"submarine_cable"},"geometry":{"type":"LineString","coordinates":[[3.4235,6.4391,0.0],[4.2966,0.3603,0.0]]}},{"type":"Feature","properties":{"name":"West African Cable System (WACS)","color":"#22d3ee","width":2.5,"type":"submarine_cable"},"geometry":{"type":"LineString","coordinates":[[1.2278,6.1262,0.0],[0.7702,0.3603,0.0]]}},{"type":"Feature","properties":{"name":"West African Cable System (WACS)","color":"#22d3ee","width":2.5,"type":"submarine_cable"},"geometry":{"type":"LineString","coordinates":[[-0.2043,5.5583,0.0],[-1.1976,0.3603,0.0]]}},{"type":"Feature","properties":{"name":"West African Cable System (WACS)","color":"#22d3ee","width":2.5,"type":"submarine_cable"},"geometry":{"type":"LineString","coordinates":[[-4.0262,5.3235,0.0],[-2.4661,0.3603,0.0]]}},{"type":"Feature","properties":{"name":"West African Cable System (WACS)","color":"#22d3ee","width":2.5,"type":"submarine_cable"},"geometry":{"type":"LineString","coordinates":[[-23.5056,14.9353,0.0],[-20.6943,15.0666,0.0]]}},{"type":"Feature","properties":{"name":"West African Cable System (WACS)","color":"#22d3ee","width":2.5,"type":"submarine_cable"},"geometry":{"type":"LineString","coordinates":[[-17.096,27.6156,0.0],[-16.132,27.6156,0.0],[-15.6999,27.9998,0.0]]}},{"type":"Feature","properties":{"name":"West African Cable System (WACS)","color":"#22d3ee","width":2.5,"type":"submarine_cable"},"geometry":{"type":"LineString","coordinates":[[-2.9749,51.2224,0.0],[-4.4412,51.2892,0.0],[-14.9703,48.7428,0.0],[-14.9556,37.0252,0.0],[-9.1074,38.6427,0.0]]}},{"type":"Feature","properties":{"name":"BARSAV","color":"#22d3ee","width":2.5,"type":"submarine_cable"},"geometry":{"type":"LineString","coordinates":[[8.4838,44.3058,0.0],[8.5247,42.9965,0.0],[2.1688,41.3856,0.0]]}},{"type":"Feature","properties":{"name":"Cable of the Americas","color":"#22d3ee","width":2.5,"type":"submarine_cable"},"geometry":{"type":"LineString","coordinates":[[-46.3407,-23.9701,0.0],[-38.5517,-27.5863,0.0],[-27.6767,-13.1157,0.0],[-27.6767,-3.6553,0.0],[-32.9261,0.5685,0.0],[-38.543,-3.7187,0.0]]}},{"type":"Feature","properties":{"name":"Didon","color":"#22d3ee","width":2.5,"type":"submarine_cable"},"geometry":{"type":"LineString","coordinates":[[11.0909,36.8498,0.0],[11.8773,37.5116,0.0],[12.5914,37.6505,0.0]]}},{"type":"Feature","properties":{"name":"Pishgaman Oman Iran (POI) Network","color":"#22d3ee","width":2.5,"type":"submarine_cable"},"geometry":{"type":"LineString","coordinates":[[57.7973,25.6813,0.0],[57.9593,25.1908,0.0],[58.0045,23.6796,0.0]]}},{"type":"Feature","properties":{"name":"Pishgaman Oman Iran (POI) Network","color":"#22d3ee","width":2.5,"type":"submarine_cable"},"geometry":{"type":"LineString","coordinates":[[60.6329,25.2959,0.0],[58.0045,23.6796,0.0]]}},{"type":"Feature","properties":{"name":"Bay of Bengal Gateway (BBG)","color":"#22d3ee","width":2.5,"type":"submarine_cable"},"geometry":{"type":"LineString","coordinates":[[58.4522,24.7603,0.0],[56.3337,25.1217,0.0]]}},{"type":"Feature","properties":{"name":"Bay of Bengal Gateway (BBG)","color":"#22d3ee","width":2.5,"type":"submarine_cable"},"geometry":{"type":"LineString","coordinates":[[79.0654,4.0165,0.0],[74.0488,6.3785,0.0],[70.6461,16.7221,0.0],[62.5242,24.0902,0.0],[58.4522,24.7603,0.0],[58.0045,23.6796,0.0]]}},{"type":"Feature","properties":{"name":"Flores-Corvo Cable System","color":"#22d3ee","width":2.5,"type":"submarine_cable"},"geometry":{"type":"LineString","coordinates":[[-28.6475,38.5254,0.0],[-28.6475,38.4405,0.0],[-29.7276,38.4405,0.0],[-30.8584,39.4625,0.0],[-31.1284,39.4625,0.0],[-31.0818,39.5652,0.0],[-31.1105,39.6723,0.0],[-28.5035,38.9271,0.0],[-27.9634,38.9271,0.0],[-27.9634,39.0114,0.0]]}},{"type":"Feature","properties":{"name":"South Atlantic Express (SAEx)","color":"#22d3ee","width":2.5,"type":"submarine_cable"},"geometry":{"type":"LineString","coordinates":[[25.57,-33.9324,0.0],[25.57,-35.2074,0.0]]}},{"type":"Feature","properties":{"name":"South Atlantic Express (SAEx)","color":"#22d3ee","width":2.5,"type":"submarine_cable"},"geometry":{"type":"LineString","coordinates":[[28.6415,-33.3377,0.0],[27.8667,-32.983,0.0]]}},{"type":"Feature","properties":{"name":"South Atlantic Express (SAEx)","color":"#22d3ee","width":2.5,"type":"submarine_cable"},"geometry":{"type":"LineString","coordinates":[[-5.7046,-15.9218,0.0],[-5.7046,-14.4673,0.0]]}},{"type":"Feature","properties":{"name":"South Atlantic Express (SAEx)","color":"#22d3ee","width":2.5,"type":"submarine_cable"},"geometry":{"type":"LineString","coordinates":[[18.1556,-33.348,0.0],[18.1108,-34.0252,0.0],[18.1108,-35.2074,0.0],[25.57,-35.2074,0.0],[26.7594,-35.2074,0.0],[28.6415,-33.3377,0.0],[31.6444,-30.2692,0.0],[31.7831,-28.9496,0.0]]}},{"type":"Feature","properties":{"name":"South Atlantic Express (SAEx)","color":"#22d3ee","width":2.5,"type":"submarine_cable"},"geometry":{"type":"LineString","coordinates":[[18.1556,-33.348,0.0],[16.519,-33.8246,0.0],[6.8094,-24.1352,0.0],[6.8094,-14.4673,0.0]]}},{"type":"Feature","properties":{"name":"South Atlantic Express (SAEx)","color":"#22d3ee","width":2.5,"type":"submarine_cable"},"geometry":{"type":"LineString","coordinates":[[6.8094,-14.4673,0.0],[-5.7046,-14.4673,0.0]]}},{"type":"Feature","properties":{"name":"South Atlantic Express (SAEx)","color":"#22d3ee","width":2.5,"type":"submarine_cable"},"geometry":{"type":"LineString","coordinates":[[-5.7046,-14.4673,0.0],[-25.7029,-14.4673,0.0],[-25.7029,-3.9019,0.0],[-32.4055,1.4025,0.0],[-38.543,-3.7187,0.0]]}},{"type":"Feature","properties":{"name":"Gulf Bridge International Cable System (GBICS)/Middle East North Africa (MENA) Cable System","color":"#22d3ee","width":2.5,"type":"submarine_cable"},"geometry":{"type":"LineString","coordinates":[[49.3266,29.0105,0.0],[49.1405,28.8467,0.0]]}},{"type":"Feature","properties":{"name":"Gulf Bridge International Cable System (GBICS)/Middle East North Africa (MENA) Cable System","color":"#22d3ee","width":2.5,"type":"submarine_cable"},"geometry":{"type":"LineString","coordinates":[[56.3337,25.1217,0.0],[56.697,25.7458,0.0],[56.5044,26.4871,0.0],[56.1305,26.4871,0.0],[55.3115,25.9889,0.0],[52.5034,26.0418,0.0],[51.452,25.539,0.0],[52.0411,26.4028,0.0],[51.7335,26.6905,0.0],[50.7404,27.6677,0.0],[49.1405,28.8467,0.0],[47.9748,29.3741,0.0]]}},{"type":"Feature","properties":{"name":"Gulf Bridge International Cable System (GBICS)/Middle East North Africa (MENA) Cable System","color":"#22d3ee","width":2.5,"type":"submarine_cable"},"geometry":{"type":"LineString","coordinates":[[56.3337,25.1217,0.0],[57.099,25.4228,0.0],[56.6291,26.7574,0.0],[56.0962,26.7574,0.0],[55.2575,26.2486,0.0],[53.8686,26.2964,0.0],[49.3266,29.0105,0.0],[48.5318,29.9237,0.0]]}},{"type":"Feature","properties":{"name":"Gulf Bridge International Cable System (GBICS)/Middle East North Africa (MENA) Cable System","color":"#22d3ee","width":2.5,"type":"submarine_cable"},"geometry":{"type":"LineString","coordinates":[[58.1762,23.6849,0.0],[58.2406,24.1069,0.0]]}},{"type":"Feature","properties":{"name":"Gulf Bridge International Cable System (GBICS)/Middle East North Africa (MENA) Cable System","color":"#22d3ee","width":2.5,"type":"submarine_cable"},"geometry":{"type":"LineString","coordinates":[[50.6562,26.2416,0.0],[51.7335,26.6905,0.0]]}},{"type":"Feature","properties":{"name":"Gulf Bridge International Cable System (GBICS)/Middle East North Africa (MENA) Cable System","color":"#22d3ee","width":2.5,"type":"submarine_cable"},"geometry":{"type":"LineString","coordinates":[[50.2142,26.2854,0.0],[50.7404,27.6677,0.0]]}},{"type":"Feature","properties":{"name":"Gulf Bridge International Cable System (GBICS)/Middle East North Africa (MENA) Cable System","color":"#22d3ee","width":2.5,"type":"submarine_cable"},"geometry":{"type":"LineString","coordinates":[[50.8427,28.9703,0.0],[50.3802,28.387,0.0]]}},{"type":"Feature","properties":{"name":"Gulf Bridge International Cable System (GBICS)/Middle East North Africa (MENA) Cable System","color":"#22d3ee","width":2.5,"type":"submarine_cable"},"geometry":{"type":"LineString","coordinates":[[56.3337,25.1217,0.0],[58.2406,24.1069,0.0],[60.0151,23.1449,0.0],[69.143,21.2674,0.0],[72.8759,19.0761,0.0]]}},{"type":"Feature","properties":{"name":"IMEWE","color":"#22d3ee","width":2.5,"type":"submarine_cable"},"geometry":{"type":"LineString","coordinates":[[32.5299,29.9726,0.0],[32.0996,30.6501,0.0],[30.7991,31.2492,0.0],[29.8935,31.1915,0.0]]}},{"type":"Feature","properties":{"name":"IMEWE","color":"#22d3ee","width":2.5,"type":"submarine_cable"},"geometry":{"type":"LineString","coordinates":[[28.5892,32.3625,0.0],[29.8935,31.1915,0.0],[30.7482,31.1673,0.0],[32.0488,30.5677,0.0],[32.5299,29.9726,0.0]]}},{"type":"Feature","properties":{"name":"IMEWE","color":"#22d3ee","width":2.5,"type":"submarine_cable"},"geometry":{"type":"LineString","coordinates":[[38.3642,21.8034,0.0],[39.1828,21.4815,0.0]]}},{"type":"Feature","properties":{"name":"IMEWE","color":"#22d3ee","width":2.5,"type":"submarine_cable"},"geometry":{"type":"LineString","coordinates":[[56.3337,25.1217,0.0],[62.1627,23.8149,0.0],[64.3352,16.1899,0.0]]}},{"type":"Feature","properties":{"name":"IMEWE","color":"#22d3ee","width":2.5,"type":"submarine_cable"},"geometry":{"type":"LineString","coordinates":[[35.8592,34.4397,0.0],[32.2955,32.8157,0.0],[28.5892,32.3625,0.0]]}},{"type":"Feature","properties":{"name":"IMEWE","color":"#22d3ee","width":2.5,"type":"submarine_cable"},"geometry":{"type":"LineString","coordinates":[[15.0674,37.5134,0.0],[16.6924,35.1212,0.0]]}},{"type":"Feature","properties":{"name":"IMEWE","color":"#22d3ee","width":2.5,"type":"submarine_cable"},"geometry":{"type":"LineString","coordinates":[[5.3725,43.2936,0.0],[8.3548,37.427,0.0],[11.3995,37.4197,0.0],[13.6359,35.5778,0.0],[16.6924,35.1212,0.0],[17.4804,34.0941,0.0],[28.324,32.5989,0.0],[28.5892,32.3625,0.0]]}},{"type":"Feature","properties":{"name":"IMEWE","color":"#22d3ee","width":2.5,"type":"submarine_cable"},"geometry":{"type":"LineString","coordinates":[[32.5299,29.9726,0.0],[32.8922,28.9731,0.0],[33.883,27.8148,0.0],[34.6794,27.5558,0.0],[38.3642,21.8034,0.0],[42.8893,14.412,0.0],[42.7041,13.9527,0.0],[43.682,12.2953,0.0],[44.0976,12.3049,0.0],[44.4683,11.6754,0.0],[45.8117,11.3443,0.0],[64.3352,16.1898,0.0]]}},{"type":"Feature","properties":{"name":"IMEWE","color":"#22d3ee","width":2.5,"type":"submarine_cable"},"geometry":{"type":"LineString","coordinates":[[64.3352,16.1898,0.0],[67.8073,17.0859,0.0]]}},{"type":"Feature","properties":{"name":"Middle East North Africa (MENA) Cable System/Gulf Bridge International","color":"#22d3ee","width":2.5,"type":"submarine_cable"},"geometry":{"type":"LineString","coordinates":[[32.6532,29.1135,0.0],[33.7863,27.4241,0.0],[37.7857,21.1903,0.0],[42.1982,13.9607,0.0],[42.4404,13.9339,0.0],[43.5242,12.1318,0.0],[43.4153,11.9305,0.0],[43.4687,11.8298,0.0],[43.831,11.2135,0.0],[61.988,16.0505,0.0],[60.0151,23.1449,0.0],[58.2406,24.1069,0.0],[58.1762,23.6849,0.0]]}},{"type":"Feature","properties":{"name":"Middle East North Africa (MENA) Cable System/Gulf Bridge International","color":"#22d3ee","width":2.5,"type":"submarine_cable"},"geometry":{"type":"LineString","coordinates":[[29.7009,31.0723,0.0],[30.2903,30.4273,0.0],[31.5909,29.8231,0.0],[32.6532,29.1135,0.0]]}},{"type":"Feature","properties":{"name":"Middle East North Africa (MENA) Cable System/Gulf Bridge International","color":"#22d3ee","width":2.5,"type":"submarine_cable"},"geometry":{"type":"LineString","coordinates":[[29.7009,31.0723,0.0],[30.3411,30.5099,0.0],[31.6417,29.9061,0.0],[32.6532,29.1135,0.0]]}},{"type":"Feature","properties":{"name":"Middle East North Africa (MENA) Cable System/Gulf Bridge International","color":"#22d3ee","width":2.5,"type":"submarine_cable"},"geometry":{"type":"LineString","coordinates":[[37.7857,21.1903,0.0],[39.1828,21.4815,0.0]]}},{"type":"Feature","properties":{"name":"Middle East North Africa (MENA) Cable System/Gulf Bridge International","color":"#22d3ee","width":2.5,"type":"submarine_cable"},"geometry":{"type":"LineString","coordinates":[[12.5914,37.6505,0.0],[11.4269,36.3372,0.0],[13.2013,34.838,0.0],[28.7675,32.6849,0.0],[29.7009,31.0723,0.0]]}},{"type":"Feature","properties":{"name":"Seabras-1","color":"#22d3ee","width":2.5,"type":"submarine_cable"},"geometry":{"type":"LineString","coordinates":[[-46.3407,-23.9701,0.0],[-37.8461,-28.2016,0.0],[-26.6898,-13.4123,0.0],[-26.6898,-3.7439,0.0],[-33.9797,2.0256,0.0],[-63.5988,34.4541,0.0],[-74.0059,40.7146,0.0]]}},{"type":"Feature","properties":{"name":"Silphium","color":"#22d3ee","width":2.5,"type":"submarine_cable"},"geometry":{"type":"LineString","coordinates":[[22.6391,32.7637,0.0],[23.2815,35.3901,0.0],[23.5314,35.7357,0.0],[23.8554,35.7357,0.0],[24.0122,35.512,0.0]]}},{"type":"Feature","properties":{"name":"South African Marine System (SAMS)","color":"#22d3ee","width":2.5,"type":"submarine_cable"},"geometry":{"type":"LineString","coordinates":[[25.57,-33.9324,0.0],[27.9864,-35.8721,0.0]]}},{"type":"Feature","properties":{"name":"South African Marine System (SAMS)","color":"#22d3ee","width":2.5,"type":"submarine_cable"},"geometry":{"type":"LineString","coordinates":[[27.8667,-32.983,0.0],[29.1674,-34.7133,0.0]]}},{"type":"Feature","properties":{"name":"South African Marine System (SAMS)","color":"#22d3ee","width":2.5,"type":"submarine_cable"},"geometry":{"type":"LineString","coordinates":[[18.1556,-33.348,0.0],[17.6787,-34.2376,0.0],[17.6787,-36.9029,0.0],[26.9461,-36.8773,0.0],[27.9864,-35.8721,0.0],[29.1674,-34.7133,0.0],[32.2605,-31.6003,0.0],[31.7831,-28.9496,0.0]]}},{"type":"Feature","properties":{"name":"Tamares North","color":"#22d3ee","width":2.5,"type":"submarine_cable"},"geometry":{"type":"LineString","coordinates":[[32.492,34.9164,0.0],[31.9519,34.9164,0.0],[31.9519,34.6045,0.0],[34.2425,32.8116,0.0],[34.9989,32.8116,0.0]]}},{"type":"Feature","properties":{"name":"Techteledata (TTD) Cable","color":"#22d3ee","width":2.5,"type":"submarine_cable"},"geometry":{"type":"LineString","coordinates":[[25.57,-33.9324,0.0],[27.5902,-35.3276,0.0]]}},{"type":"Feature","properties":{"name":"Techteledata (TTD) Cable","color":"#22d3ee","width":2.5,"type":"submarine_cable"},"geometry":{"type":"LineString","coordinates":[[27.8667,-32.983,0.0],[28.8837,-34.0489,0.0]]}},{"type":"Feature","properties":{"name":"Techteledata (TTD) Cable","color":"#22d3ee","width":2.5,"type":"submarine_cable"},"geometry":{"type":"LineString","coordinates":[[18.1556,-33.348,0.0],[17.8948,-34.2376,0.0],[17.8948,-36.3037,0.0],[26.6155,-36.2779,0.0],[27.5902,-35.3276,0.0],[28.8837,-34.0489,0.0],[31.9181,-30.9725,0.0],[31.7831,-28.9496,0.0]]}},{"type":"Feature","properties":{"name":"TE North/TGN-Eurasia/SEACOM/Alexandros","color":"#22d3ee","width":2.5,"type":"submarine_cable"},"geometry":{"type":"LineString","coordinates":[[26.2817,33.8965,0.0],[32.2761,33.0252,0.0],[33.6106,34.8273,0.0]]}},{"type":"Feature","properties":{"name":"TE North/TGN-Eurasia/SEACOM/Alexandros","color":"#22d3ee","width":2.5,"type":"submarine_cable"},"geometry":{"type":"LineString","coordinates":[[5.3725,43.2936,0.0],[8.4411,37.5531,0.0],[11.428,37.5352,0.0],[13.6948,35.7296,0.0],[26.2817,33.8965,0.0],[29.7009,31.0723,0.0]]}}]}