{"type":"FeatureCollection","name":"africa_admin1","features":[{"type":"Feature","properties":{"name":"Northern Cape","iso3":"ZAF"},"geometry":{"type":"Polygon","coordinates":[[[22.6151,-26.1075],[22.7052,-26.1297],[22.702,-26.41],[22.8151,-26.4477],[22.9153,-26.1551],[23.0575,-26.1],[23.0995,-25.9868],[23.3741,-26.0158],[23.3515,-26.0797],[23.2287,-26.0594],[23.303,-26.1435],[23.2222,-26.2682],[23.2707,-26.4795],[23.5809,-26.6153],[23.4937,-26.7366],[23.988,-26.9125],[24.0235,-27.0161],[23.8943,-27.2577],[24.0849,-27.3589],[24.0434,-27.5852],[24.1124,-27.7427],[24.4075,-27.6844],[24.4452,-27.7828],[24.3626,-27.8989],[24.5197,-28.0996],[24.6913,-27.8264],[24.6713,-27.6717],[24.7958,-27.6111],[24.8149,-27.6872],[25.0267,-27.7077],[24.842,-27.906],[24.9324,-28.0966],[25.0135,-28.0682],[24.8451,-28.5194],[24.8743,-28.6499],[24.3408,-29.649],[24.4091,-29.7645],[24.7845,-29.9882],[25.1849,-30.4557],[25.4675,-30.6131],[25.522,-30.8019],[25.4455,-31.0952],[25.3501,-31.2277],[25.2151,-31.2016],[24.5587,-31.4018],[24.4996,-31.7048],[24.147,-31.7899],[23.9631,-31.7268],[23.8632,-31.7998],[23.6989,-31.6674],[23.4009,-31.6813],[23.0698,-31.9765],[23.0265,-31.8865],[22.6055,-31.7766],[22.2915,-31.5702],[22.0888,-31.8931],[22.1012,-32.0574],[21.9714,-32.1958],[21.5534,-32.2415],[21.3052,-32.3767],[21.1178,-32.6072],[20.8651,-32.6769],[20.7051,-32.9181],[20.4212,-32.9369],[20.2093,-32.7643],[20.0823,-32.4117],[20.2128,-32.2836],[20.1392,-32.1896],[19.9246,-32.3574],[19.6098,-32.4575],[19.5336,-32.6376],[19.4251,-32.31],[19.4926,-32.232],[19.4707,-32.0782],[19.2108,-31.9135],[19.0286,-31.8932],[19.0667,-31.5772],[18.905,-31.0095],[18.9387,-30.724],[18.5608,-30.4707],[18.4106,-30.4999],[18.2472,-30.7828],[18.024,-30.7751],[17.7708,-31.1492],[17.3471,-30.4448],[16.95,-29.4034],[16.4476,-28.6175],[16.7558,-28.4522],[16.8753,-28.1279],[17.0563,-28.031],[17.3587,-28.2694],[17.3478,-28.5012],[17.448,-28.6981],[18.1027,-28.8717],[19.1618,-28.9388],[19.5398,-28.5746],[19.9804,-28.4513],[19.9805,-24.7768],[20.4306,-25.1471],[20.7932,-25.9156],[20.815,-26.165],[20.6268,-26.4438],[20.685,-26.8224],[21.6947,-26.8409],[22.6151,-26.1075]]]}},{"type":"Feature","properties":{"name":"Western Cape","iso3":"ZAF"},"geometry":{"type":"MultiPolygon","coordinates":[[[[23.6349,-33.9885],[23.2682,-34.0812],[22.7355,-34.0103],[22.2455,-34.0691],[21.789,-34.3727],[20.9898,-34.3675],[20.5299,-34.4631],[20.0206,-34.7857],[19.635,-34.7533],[19.2982,-34.615],[19.3308,-34.4924],[19.0983,-34.3501],[18.8313,-34.3641],[18.7521,-34.0826],[18.5004,-34.1093],[18.4616,-34.3469],[18.3334,-34.0742],[18.3544,-33.9391],[18.465,-33.8878],[18.433,-33.7173],[17.9926,-33.1523],[17.8511,-32.8274],[17.9652,-32.7086],[18.0365,-32.7751],[18.2509,-32.6521],[18.3253,-32.505],[18.3107,-32.1225],[18.1637,-31.6552],[17.7708,-31.1492],[18.024,-30.7751],[18.2472,-30.7828],[18.4106,-30.4999],[18.5608,-30.4707],[18.7352,-30.577],[18.9387,-30.724],[18.905,-31.0095],[19.0667,-31.5772],[19.0286,-31.8932],[19.2108,-31.9135],[19.4707,-32.0782],[19.4729,-32.5835],[19.5336,-32.6376],[19.6098,-32.4575],[19.9246,-32.3574],[20.1392,-32.1896],[20.2128,-32.2836],[20.0823,-32.4117],[20.1232,-32.5965],[20.4212,-32.9369],[20.7051,-32.9181],[20.8651,-32.6769],[21.1178,-32.6072],[21.1922,-32.4591],[21.5534,-32.2415],[21.9714,-32.1958],[22.1012,-32.0574],[22.0888,-31.8931],[22.2915,-31.5702],[22.6055,-31.7766],[23.0265,-31.8865],[23.0698,-31.9765],[23.4009,-31.6813],[23.6989,-31.6674],[23.8632,-31.7998],[23.9631,-31.7268],[24.147,-31.7899],[24.1816,-31.9516],[24.0288,-32.1746],[23.7571,-32.1959],[23.6016,-32.3247],[23.2425,-32.4245],[23.2782,-32.6675],[23.3704,-32.7682],[23.0007,-32.8892],[22.7452,-33.3279],[22.7495,-33.4016],[23.2616,-33.3989],[23.5634,-33.496],[23.6182,-33.644],[23.3665,-33.7807],[23.6868,-33.872],[23.6349,-33.9885]]],[[[37.59,-46.908],[37.6849,-46.824],[37.8877,-46.9017],[37.814,-46.9629],[37.59,-46.908]]]]}},{"type":"Feature","properties":{"name":"North West","iso3":"ZAF"},"geometry":{"type":"Polygon","coordinates":[[[22.6151,-26.1075],[22.8788,-25.4579],[23.022,-25.3241],[23.266,-25.2666],[24.3306,-25.7429],[24.7482,-25.8174],[25.4436,-25.7145],[25.5838,-25.6062],[25.9121,-24.7475],[26.3972,-24.6136],[26.4554,-24.8123],[26.768,-24.8662],[27.023,-24.724],[27.1825,-24.9909],[27.3665,-25.059],[27.5457,-25.0928],[27.6676,-24.9708],[28.0982,-25.0094],[28.222,-25.0776],[28.1244,-25.1098],[28.1275,-25.2002],[28.2937,-25.3171],[27.9493,-25.4103],[28.0333,-25.4716],[27.9428,-25.8068],[27.7276,-25.8784],[27.6407,-25.8037],[27.4593,-25.8853],[27.3946,-26.1229],[27.2905,-26.146],[27.3244,-26.2865],[27.1913,-26.3819],[27.2434,-26.64],[27.5686,-26.6501],[27.4803,-26.874],[26.9142,-26.8899],[26.6449,-26.9993],[26.4111,-27.1768],[26.4859,-27.2538],[26.4501,-27.3529],[25.9998,-27.6392],[25.7987,-27.5807],[25.4214,-27.7104],[24.9324,-28.0966],[24.842,-27.906],[25.0267,-27.7077],[24.8149,-27.6872],[24.7958,-27.6111],[24.6713,-27.6717],[24.6913,-27.8264],[24.5197,-28.0996],[24.3626,-27.8989],[24.4452,-27.7828],[24.4075,-27.6844],[24.1124,-27.7427],[24.0434,-27.5852],[24.0849,-27.3589],[23.8943,-27.2577],[24.0235,-27.0161],[23.988,-26.9125],[23.4937,-26.7366],[23.5809,-26.6153],[23.2707,-26.4795],[23.2222,-26.2682],[23.303,-26.1435],[23.2287,-26.0594],[23.3515,-26.0797],[23.3741,-26.0158],[23.0995,-25.9868],[23.0575,-26.1],[22.9153,-26.1551],[22.8151,-26.4477],[22.702,-26.41],[22.7052,-26.1297],[22.6151,-26.1075]]]}},{"type":"Feature","properties":{"name":"Free State","iso3":"ZAF"},"geometry":{"type":"Polygon","coordinates":[[[28.8563,-28.7761],[28.6258,-28.5817],[27.7356,-28.9401],[27.2945,-29.5193],[27.0569,-29.6256],[27.3835,-30.3085],[27.2978,-30.4882],[27.0104,-30.5329],[26.9218,-30.6553],[26.5346,-30.6511],[26.4416,-30.5596],[26.0599,-30.5138],[25.7254,-30.6806],[25.4675,-30.6131],[25.1849,-30.4557],[24.7845,-29.9882],[24.4091,-29.7645],[24.3408,-29.649],[24.8743,-28.6499],[24.8451,-28.5194],[25.0135,-28.0682],[25.2406,-27.8229],[25.7987,-27.5807],[25.9998,-27.6392],[26.4501,-27.3529],[26.4859,-27.2538],[26.4111,-27.1768],[26.6449,-26.9993],[26.9142,-26.8899],[27.4076,-26.8944],[27.5825,-26.7376],[27.9697,-26.6713],[28.044,-26.818],[28.4264,-26.9826],[29.0574,-27.0303],[29.1256,-27.1539],[29.4423,-27.2532],[29.6153,-27.5018],[29.7712,-27.4523],[29.6241,-28.0481],[29.6753,-28.121],[29.5889,-28.2502],[29.2348,-28.4396],[29.1889,-28.5355],[28.973,-28.5748],[28.8563,-28.7761]]]}},{"type":"Feature","properties":{"name":"Gauteng","iso3":"ZAF"},"geometry":{"type":"Polygon","coordinates":[[[28.2558,-26.8936],[28.044,-26.818],[27.9697,-26.6713],[27.6435,-26.7641],[27.5686,-26.6501],[27.2434,-26.64],[27.1913,-26.3819],[27.3244,-26.2865],[27.2905,-26.146],[27.3946,-26.1229],[27.4593,-25.8853],[27.6407,-25.8037],[27.7276,-25.8784],[27.9428,-25.8068],[28.0042,-25.3607],[28.6631,-25.2475],[28.6057,-25.1579],[28.7518,-25.1149],[28.7829,-25.2278],[28.6294,-25.3329],[28.6278,-25.527],[28.7635,-25.7062],[28.8588,-25.6319],[28.8039,-25.5416],[28.9202,-25.5518],[28.9412,-25.8698],[28.8701,-26.0049],[28.6343,-25.973],[28.501,-26.08],[28.5325,-26.2211],[28.7183,-26.3384],[28.8071,-26.308],[28.8637,-26.4006],[28.7667,-26.5163],[28.644,-26.5077],[28.4016,-26.6594],[28.4081,-26.7589],[28.2558,-26.8936]]]}},{"type":"Feature","properties":{"name":"Mpumalanga","iso3":"ZAF"},"geometry":{"type":"Polygon","coordinates":[[[31.828,-23.9638],[31.9858,-24.4607],[31.9483,-25.9576],[31.3352,-25.7556],[31.0881,-25.9807],[30.7891,-26.4554],[30.8067,-26.7853],[30.8833,-26.7924],[31.0634,-27.1123],[31.274,-27.2384],[30.9801,-27.3547],[30.4225,-27.2752],[29.6153,-27.5018],[29.4423,-27.2532],[29.1256,-27.1539],[29.0574,-27.0303],[28.4264,-26.9826],[28.2558,-26.8936],[28.4081,-26.7589],[28.4016,-26.6594],[28.644,-26.5077],[28.7667,-26.5163],[28.8637,-26.4006],[28.8071,-26.308],[28.7183,-26.3384],[28.5325,-26.2211],[28.501,-26.08],[28.6343,-25.973],[28.8701,-26.0049],[28.976,-25.6737],[28.9202,-25.5518],[28.8039,-25.5416],[28.8588,-25.6319],[28.7635,-25.7062],[28.6698,-25.6639],[28.6294,-25.3329],[28.7829,-25.2278],[28.7518,-25.1149],[28.3545,-25.1886],[28.7316,-24.9428],[28.8976,-24.9564],[29.043,-25.1422],[29.0381,-25.2694],[29.1658,-25.3045],[29.211,-25.4081],[30.0042,-25.3322],[30.0349,-25.072],[30.1238,-25.1232],[30.1836,-24.8553],[30.421,-24.8509],[30.4921,-24.9476],[30.6585,-24.8186],[30.7651,-24.4647],[30.9752,-24.5816],[31.2207,-24.5566],[31.1949,-24.311],[31.0592,-24.3213],[31.1109,-24.0973],[31.203,-24.0353],[31.2485,-24.1007],[31.4456,-24.0227],[31.7123,-24.05],[31.828,-23.9638]]]}},{"type":"Feature","properties":{"name":"Limpopo","iso3":"ZAF"},"geometry":{"type":"Polygon","coordinates":[[[31.828,-23.9638],[31.7123,-24.05],[31.4456,-24.0227],[31.2485,-24.1007],[31.203,-24.0353],[31.1109,-24.0973],[31.0592,-24.3213],[31.1949,-24.311],[31.2207,-24.5566],[30.9752,-24.5816],[30.7651,-24.4647],[30.6585,-24.8186],[30.4921,-24.9476],[30.421,-24.8509],[30.1836,-24.8553],[30.1238,-25.1232],[30.0349,-25.072],[30.0042,-25.3322],[29.77,-25.395],[29.211,-25.4081],[29.1658,-25.3045],[29.0381,-25.2694],[29.043,-25.1422],[28.8976,-24.9564],[28.7316,-24.9428],[28.3545,-25.1886],[28.6057,-25.1579],[28.6631,-25.2475],[28.2937,-25.3171],[28.1275,-25.2002],[28.1244,-25.1098],[28.222,-25.0776],[28.0982,-25.0094],[27.6676,-24.9708],[27.5457,-25.0928],[27.1825,-24.9909],[27.023,-24.724],[26.768,-24.8662],[26.4554,-24.8123],[26.4104,-24.7415],[26.3972,-24.6136],[26.8351,-24.2408],[27.0855,-23.5779],[27.7583,-23.1968],[28.2102,-22.6937],[28.8398,-22.4808],[29.1299,-22.2133],[29.6631,-22.1463],[30.1904,-22.2911],[30.9161,-22.2907],[31.2878,-22.402],[31.5456,-23.4823],[31.828,-23.9638]]]}},{"type":"Feature","properties":{"name":"KwaZulu-Natal","iso3":"ZAF"},"geometry":{"type":"Polygon","coordinates":[[[31.274,-27.2384],[31.9584,-27.3059],[31.9947,-26.8175],[32.8861,-26.8493],[32.5348,-28.1997],[32.3752,-28.4982],[32.0272,-28.8396],[31.7782,-28.9371],[31.3352,-29.3781],[30.1944,-31.0746],[30.0636,-30.859],[29.7939,-30.7088],[29.4761,-30.6202],[29.3202,-30.6553],[29.163,-30.5548],[29.2977,-30.3178],[29.175,-30.2856],[29.0144,-29.9762],[29.2935,-29.5669],[29.3907,-29.2697],[29.3013,-29.0899],[28.8563,-28.7761],[28.973,-28.5748],[29.1889,-28.5355],[29.2348,-28.4396],[29.5889,-28.2502],[29.6753,-28.121],[29.6241,-28.0481],[29.7712,-27.4523],[30.4225,-27.2752],[30.9801,-27.3547],[31.274,-27.2384]]]}},{"type":"Feature","properties":{"name":"Eastern Cape","iso3":"ZAF"},"geometry":{"type":"Polygon","coordinates":[[[29.0144,-29.9762],[29.175,-30.2856],[29.2977,-30.3178],[29.163,-30.5548],[29.2203,-30.6179],[29.7939,-30.7088],[30.0636,-30.859],[30.1944,-31.0746],[28.4494,-32.6246],[27.0774,-33.5212],[26.4295,-33.7596],[25.8059,-33.7371],[25.6524,-33.8496],[25.5742,-34.0354],[25.0029,-33.9736],[24.8271,-34.1689],[24.5955,-34.1745],[23.6349,-33.9885],[23.6868,-33.872],[23.3665,-33.7807],[23.6182,-33.644],[23.5634,-33.496],[23.4374,-33.4326],[22.7495,-33.4016],[23.0007,-32.8892],[23.3704,-32.7682],[23.2371,-32.5053],[23.3254,-32.3546],[24.0288,-32.1746],[24.1816,-31.9516],[24.1543,-31.758],[24.4996,-31.7048],[24.5587,-31.4018],[25.2151,-31.2016],[25.3501,-31.2277],[25.5066,-30.9344],[25.4675,-30.6131],[25.7254,-30.6806],[26.0599,-30.5138],[26.4416,-30.5596],[26.5346,-30.6511],[26.9218,-30.6553],[27.0104,-30.5329],[27.2978,-30.4882],[27.3835,-30.3085],[27.7531,-30.6],[28.0182,-30.6423],[28.3921,-30.1476],[29.0144,-29.9762]]]}}]}