{"type":"FeatureCollection","name":"africa_places","features":[{"type":"Feature","properties":{"name":"Lobamba","iso3":"SWZ","population":9782},"geometry":{"type":"Point","coordinates":[31.2,-26.4667]}},{"type":"Feature","properties":{"name":"El Fasher","iso3":"SDN","population":252609},"geometry":{"type":"Point","coordinates":[25.35,13.63]}},{"type":"Feature","properties":{"name":"Keetmanshoop","iso3":"NAM","population":18039},"geometry":{"type":"Point","coordinates":[18.13,-26.5739]}},{"type":"Feature","properties":{"name":"Swakopmund","iso3":"NAM","population":29491},"geometry":{"type":"Point","coordinates":[14.535,-22.6689]}},{"type":"Feature","properties":{"name":"Moroni","iso3":"COM","population":128698},"geometry":{"type":"Point","coordinates":[43.2402,-11.7042]}},{"type":"Feature","properties":{"name":"Benin City","iso3":"NGA","population":1190000},"geometry":{"type":"Point","coordinates":[5.6181,6.3424]}},{"type":"Feature","properties":{"name":"Atakpamé","iso3":"TGO","population":80683},"geometry":{"type":"Point","coordinates":[1.12,7.53]}},{"type":"Feature","properties":{"name":"Sousse","iso3":"TUN","population":327004},"geometry":{"type":"Point","coordinates":[10.625,35.83]}},{"type":"Feature","properties":{"name":"Kabwe","iso3":"ZMB","population":188979},"geometry":{"type":"Point","coordinates":[28.45,-14.44]}},{"type":"Feature","properties":{"name":"Mufulira","iso3":"ZMB","population":153624},"geometry":{"type":"Point","coordinates":[28.26,-12.55]}},{"type":"Feature","properties":{"name":"Kitwe","iso3":"ZMB","population":404901},"geometry":{"type":"Point","coordinates":[28.22,-12.81]}},{"type":"Feature","properties":{"name":"Livingstone","iso3":"ZMB","population":165480},"geometry":{"type":"Point","coordinates":[25.86,-17.86]}},{"type":"Feature","properties":{"name":"Chitungwiza","iso3":"ZWE","population":340360},"geometry":{"type":"Point","coordinates":[31.1,-18.0]}},{"type":"Feature","properties":{"name":"Douala","iso3":"CMR","population":1906000},"geometry":{"type":"Point","coordinates":[9.708,4.0624]}},{"type":"Feature","properties":{"name":"Gulu","iso3":"UGA","population":146858},"geometry":{"type":"Point","coordinates":[32.28,2.78]}},{"type":"Feature","properties":{"name":"Kigali","iso3":"RWA","population":860000},"geometry":{"type":"Point","coordinates":[30.0586,-1.9516]}},{"type":"Feature","properties":{"name":"Niamey","iso3":"NER","population":232555},"geometry":{"type":"Point","coordinates":[7.0964,13.4916]}},{"type":"Feature","properties":{"name":"Tahoua","iso3":"NER","population":115956},"geometry":{"type":"Point","coordinates":[5.2599,14.9]}},{"type":"Feature","properties":{"name":"Mbabane","iso3":"SWZ","population":90138},"geometry":{"type":"Point","coordinates":[31.1333,-26.3167]}},{"type":"Feature","properties":{"name":"Kaolack","iso3":"SEN","population":277812},"geometry":{"type":"Point","coordinates":[-16.1,14.15]}},{"type":"Feature","properties":{"name":"Kaédi","iso3":"SEN","population":21656},"geometry":{"type":"Point","coordinates":[-13.5,16.15]}},{"type":"Feature","properties":{"name":"Geneina","iso3":"SDN","population":162981},"geometry":{"type":"Point","coordinates":[22.44,13.45]}},{"type":"Feature","properties":{"name":"Juba","iso3":"SSD","population":111975},"geometry":{"type":"Point","coordinates":[31.58,4.83]}},{"type":"Feature","properties":{"name":"Malakal","iso3":"SSD","population":160765},"geometry":{"type":"Point","coordinates":[31.656,9.5369]}},{"type":"Feature","properties":{"name":"Omdurman","iso3":"SDN","population":2395159},"geometry":{"type":"Point","coordinates":[32.48,15.6167]}},{"type":"Feature","properties":{"name":"Al-Ubayyid","iso3":"SDN","population":393311},"geometry":{"type":"Point","coordinates":[30.2167,13.1833]}},{"type":"Feature","properties":{"name":"Springbok","iso3":"ZAF","population":10438},"geometry":{"type":"Point","coordinates":[17.8833,-29.6667]}},{"type":"Feature","properties":{"name":"Upington","iso3":"ZAF","population":71373},"geometry":{"type":"Point","coordinates":[21.23,-28.46]}},{"type":"Feature","properties":{"name":"Worcester","iso3":"ZAF","population":127597},"geometry":{"type":"Point","coordinates":[19.4399,-33.64]}},{"type":"Feature","properties":{"name":"George","iso3":"ZAF","population":174582},"geometry":{"type":"Point","coordinates":[22.45,-33.95]}},{"type":"Feature","properties":{"name":"Tete","iso3":"MOZ","population":129316},"geometry":{"type":"Point","coordinates":[33.58,-16.17]}},{"type":"Feature","properties":{"name":"Pemba","iso3":"MOZ","population":110643},"geometry":{"type":"Point","coordinates":[40.5323,-12.983]}},{"type":"Feature","properties":{"name":"Nampula","iso3":"MOZ","population":388526},"geometry":{"type":"Point","coordinates":[39.293,-15.136]}},{"type":"Feature","properties":{"name":"Welkom","iso3":"ZAF","population":431944},"geometry":{"type":"Point","coordinates":[26.73,-27.97]}},{"type":"Feature","properties":{"name":"Xai-Xai","iso3":"MOZ","population":128805},"geometry":{"type":"Point","coordinates":[33.64,-25.04]}},{"type":"Feature","properties":{"name":"Oujda","iso3":"MAR","population":409391},"geometry":{"type":"Point","coordinates":[-1.91,34.69]}},{"type":"Feature","properties":{"name":"Safi","iso3":"MAR","population":353476},"geometry":{"type":"Point","coordinates":[-9.24,32.32]}},{"type":"Feature","properties":{"name":"Quelimane","iso3":"MOZ","population":188964},"geometry":{"type":"Point","coordinates":[36.89,-17.88]}},{"type":"Feature","properties":{"name":"East London","iso3":"ZAF","population":338627},"geometry":{"type":"Point","coordinates":[27.87,-32.97]}},{"type":"Feature","properties":{"name":"Middelburg","iso3":"ZAF","population":18164},"geometry":{"type":"Point","coordinates":[25.01,-31.5]}},{"type":"Feature","properties":{"name":"Maiduguri","iso3":"NGA","population":896000},"geometry":{"type":"Point","coordinates":[13.1581,11.8519]}},{"type":"Feature","properties":{"name":"Port Harcourt","iso3":"NGA","population":1020000},"geometry":{"type":"Point","coordinates":[7.0081,4.8119]}},{"type":"Feature","properties":{"name":"Makurdi","iso3":"NGA","population":292645},"geometry":{"type":"Point","coordinates":[8.53,7.73]}},{"type":"Feature","properties":{"name":"Ibadan","iso3":"NGA","population":2628000},"geometry":{"type":"Point","coordinates":[3.928,7.382]}},{"type":"Feature","properties":{"name":"Ogbomosho","iso3":"NGA","population":951000},"geometry":{"type":"Point","coordinates":[4.238,8.132]}},{"type":"Feature","properties":{"name":"Warri","iso3":"NGA","population":830106},"geometry":{"type":"Point","coordinates":[5.76,5.52]}},{"type":"Feature","properties":{"name":"Kaduna","iso3":"NGA","population":1442000},"geometry":{"type":"Point","coordinates":[7.4381,10.522]}},{"type":"Feature","properties":{"name":"Lüderitz","iso3":"NAM","population":15137},"geometry":{"type":"Point","coordinates":[15.1594,-26.648]}},{"type":"Feature","properties":{"name":"Walvis Bay","iso3":"NAM","population":52058},"geometry":{"type":"Point","coordinates":[14.5053,-22.9575]}},{"type":"Feature","properties":{"name":"Mwanza","iso3":"TZA","population":493944},"geometry":{"type":"Point","coordinates":[32.93,-2.52]}},{"type":"Feature","properties":{"name":"Morogoro","iso3":"TZA","population":250902},"geometry":{"type":"Point","coordinates":[37.66,-6.82]}},{"type":"Feature","properties":{"name":"Dodoma","iso3":"TZA","population":218269},"geometry":{"type":"Point","coordinates":[35.75,-6.1833]}},{"type":"Feature","properties":{"name":"Arusha","iso3":"TZA","population":341136},"geometry":{"type":"Point","coordinates":[36.67,-3.36]}},{"type":"Feature","properties":{"name":"Laayoune","iso3":"MAR","population":188084},"geometry":{"type":"Point","coordinates":[-13.2,27.15]}},{"type":"Feature","properties":{"name":"Meru","iso3":"KEN","population":47226},"geometry":{"type":"Point","coordinates":[37.64,0.06]}},{"type":"Feature","properties":{"name":"Eldoret","iso3":"KEN","population":353381},"geometry":{"type":"Point","coordinates":[35.27,0.52]}},{"type":"Feature","properties":{"name":"Antsiranana","iso3":"MDG","population":82937},"geometry":{"type":"Point","coordinates":[49.3115,-12.2765]}},{"type":"Feature","properties":{"name":"Fianarantsoa","iso3":"MDG","population":184184},"geometry":{"type":"Point","coordinates":[47.0833,-21.4333]}},{"type":"Feature","properties":{"name":"Mahajanga","iso3":"MDG","population":154657},"geometry":{"type":"Point","coordinates":[46.345,-15.67]}},{"type":"Feature","properties":{"name":"Toliara","iso3":"MDG","population":115319},"geometry":{"type":"Point","coordinates":[43.69,-23.3568]}},{"type":"Feature","properties":{"name":"Mbandaka","iso3":"COD","population":274996},"geometry":{"type":"Point","coordinates":[18.26,0.04]}},{"type":"Feature","properties":{"name":"Moundou","iso3":"TCD","population":156705},"geometry":{"type":"Point","coordinates":[16.09,8.55]}},{"type":"Feature","properties":{"name":"Suez","iso3":"EGY","population":508335},"geometry":{"type":"Point","coordinates":[32.5499,30.005]}},{"type":"Feature","properties":{"name":"Bur Said","iso3":"EGY","population":623864},"geometry":{"type":"Point","coordinates":[32.29,31.26]}},{"type":"Feature","properties":{"name":"El Faiyum","iso3":"EGY","population":316772},"geometry":{"type":"Point","coordinates":[30.84,29.31]}},{"type":"Feature","properties":{"name":"Aswan","iso3":"EGY","population":313442},"geometry":{"type":"Point","coordinates":[32.8989,24.0875]}},{"type":"Feature","properties":{"name":"Asyut","iso3":"EGY","population":420585},"geometry":{"type":"Point","coordinates":[31.1799,27.19]}},{"type":"Feature","properties":{"name":"Kisangani","iso3":"COD","population":578470},"geometry":{"type":"Point","coordinates":[25.22,0.52]}},{"type":"Feature","properties":{"name":"Assab","iso3":"ERI","population":105496},"geometry":{"type":"Point","coordinates":[42.73,13.01]}},{"type":"Feature","properties":{"name":"Djibouti","iso3":"DJI","population":923000},"geometry":{"type":"Point","coordinates":[43.148,11.595]}},{"type":"Feature","properties":{"name":"Bandundu","iso3":"COD","population":118211},"geometry":{"type":"Point","coordinates":[17.38,-3.31]}},{"type":"Feature","properties":{"name":"Kananga","iso3":"COD","population":765000},"geometry":{"type":"Point","coordinates":[22.3981,-5.8881]}},{"type":"Feature","properties":{"name":"Kasongo","iso3":"COD","population":63000},"geometry":{"type":"Point","coordinates":[26.66,-4.45]}},{"type":"Feature","properties":{"name":"Mbuji-Mayi","iso3":"COD","population":1295000},"geometry":{"type":"Point","coordinates":[23.5981,-6.1481]}},{"type":"Feature","properties":{"name":"Kalemie","iso3":"COD","population":206257},"geometry":{"type":"Point","coordinates":[29.2,-5.9333]}},{"type":"Feature","properties":{"name":"Butembo","iso3":"COD","population":286403},"geometry":{"type":"Point","coordinates":[29.28,0.13]}},{"type":"Feature","properties":{"name":"Goma","iso3":"COD","population":144124},"geometry":{"type":"Point","coordinates":[29.2218,-1.6788]}},{"type":"Feature","properties":{"name":"Mzuzu","iso3":"MWI","population":110201},"geometry":{"type":"Point","coordinates":[34.02,-11.46]}},{"type":"Feature","properties":{"name":"Blantyre","iso3":"MWI","population":584877},"geometry":{"type":"Point","coordinates":[34.9899,-15.79]}},{"type":"Feature","properties":{"name":"Banjul","iso3":"GMB","population":43094},"geometry":{"type":"Point","coordinates":[-16.5917,13.4539]}},{"type":"Feature","properties":{"name":"Kayes","iso3":"COG","population":62521},"geometry":{"type":"Point","coordinates":[13.28,-4.18]}},{"type":"Feature","properties":{"name":"Franceville","iso3":"GAB","population":42967},"geometry":{"type":"Point","coordinates":[13.5833,-1.6333]}},{"type":"Feature","properties":{"name":"Gao","iso3":"MLI","population":116967},"geometry":{"type":"Point","coordinates":[-0.05,16.2666]}},{"type":"Feature","properties":{"name":"Nouadhibou","iso3":"MRT","population":86738},"geometry":{"type":"Point","coordinates":[-17.056,20.9]}},{"type":"Feature","properties":{"name":"Kayes","iso3":"MLI","population":77207},"geometry":{"type":"Point","coordinates":[-11.44,14.45]}},{"type":"Feature","properties":{"name":"Ayoun el Atrous","iso3":"MRT","population":1423},"geometry":{"type":"Point","coordinates":[-9.6167,16.6666]}},{"type":"Feature","properties":{"name":"Ségou","iso3":"MLI","population":122952},"geometry":{"type":"Point","coordinates":[-6.26,13.44]}},{"type":"Feature","properties":{"name":"Al Jawf","iso3":"LBY","population":24132},"geometry":{"type":"Point","coordinates":[23.29,24.2]}},{"type":"Feature","properties":{"name":"Tmassa","iso3":"LBY","population":500},"geometry":{"type":"Point","coordinates":[15.8,26.3666]}},{"type":"Feature","properties":{"name":"Misrata","iso3":"LBY","population":386120},"geometry":{"type":"Point","coordinates":[15.1,32.38]}},{"type":"Feature","properties":{"name":"Zuwara","iso3":"LBY","population":180310},"geometry":{"type":"Point","coordinates":[12.0791,32.9344]}},{"type":"Feature","properties":{"name":"Bahir Dar","iso3":"ETH","population":206748},"geometry":{"type":"Point","coordinates":[37.3833,11.6001]}},{"type":"Feature","properties":{"name":"Mekele","iso3":"ETH","population":95856},"geometry":{"type":"Point","coordinates":[39.47,13.5]}},{"type":"Feature","properties":{"name":"Dire Dawa","iso3":"ETH","population":252279},"geometry":{"type":"Point","coordinates":[41.86,9.59]}},{"type":"Feature","properties":{"name":"Pointe-Noire","iso3":"COG","population":659084},"geometry":{"type":"Point","coordinates":[11.88,-4.77]}},{"type":"Feature","properties":{"name":"Kankan","iso3":"GIN","population":114009},"geometry":{"type":"Point","coordinates":[-9.31,10.39]}},{"type":"Feature","properties":{"name":"Nzérékoré","iso3":"GIN","population":168121},"geometry":{"type":"Point","coordinates":[-8.83,7.76]}},{"type":"Feature","properties":{"name":"Bouaké","iso3":"CIV","population":567481},"geometry":{"type":"Point","coordinates":[-5.03,7.69]}},{"type":"Feature","properties":{"name":"Ebolowa","iso3":"CMR","population":87875},"geometry":{"type":"Point","coordinates":[11.15,2.9]}},{"type":"Feature","properties":{"name":"Bambari","iso3":"CAF","population":62098},"geometry":{"type":"Point","coordinates":[20.6672,5.762]}},{"type":"Feature","properties":{"name":"Bamenda","iso3":"CMR","population":445299},"geometry":{"type":"Point","coordinates":[10.15,5.96]}},{"type":"Feature","properties":{"name":"Garoua","iso3":"CMR","population":436899},"geometry":{"type":"Point","coordinates":[13.39,9.3]}},{"type":"Feature","properties":{"name":"Malanje","iso3":"AGO","population":125856},"geometry":{"type":"Point","coordinates":[16.34,-9.54]}},{"type":"Feature","properties":{"name":"Benguela","iso3":"AGO","population":151226},"geometry":{"type":"Point","coordinates":[13.4072,-12.5783]}},{"type":"Feature","properties":{"name":"Lubango","iso3":"AGO","population":125632},"geometry":{"type":"Point","coordinates":[13.49,-14.91]}},{"type":"Feature","properties":{"name":"Moçâmedes","iso3":"AGO","population":132900},"geometry":{"type":"Point","coordinates":[12.16,-15.19]}},{"type":"Feature","properties":{"name":"Annaba","iso3":"DZA","population":503524},"geometry":{"type":"Point","coordinates":[7.76,36.92]}},{"type":"Feature","properties":{"name":"Parakou","iso3":"BEN","population":188853},"geometry":{"type":"Point","coordinates":[2.62,9.34]}},{"type":"Feature","properties":{"name":"Porto-Novo","iso3":"BEN","population":300000},"geometry":{"type":"Point","coordinates":[2.6166,6.4833]}},{"type":"Feature","properties":{"name":"Constantine","iso3":"DZA","population":605179},"geometry":{"type":"Point","coordinates":[6.5999,36.36]}},{"type":"Feature","properties":{"name":"Francistown","iso3":"BWA","population":89979},"geometry":{"type":"Point","coordinates":[27.5,-21.17]}},{"type":"Feature","properties":{"name":"Mahalapye","iso3":"BWA","population":50744},"geometry":{"type":"Point","coordinates":[26.82,-23.1]}},{"type":"Feature","properties":{"name":"Serowe","iso3":"BWA","population":48573},"geometry":{"type":"Point","coordinates":[26.71,-22.39]}},{"type":"Feature","properties":{"name":"Bobo Dioulasso","iso3":"BFA","population":360106},"geometry":{"type":"Point","coordinates":[-4.29,11.18]}},{"type":"Feature","properties":{"name":"Bujumbura","iso3":"BDI","population":331700},"geometry":{"type":"Point","coordinates":[29.36,-3.3761]}},{"type":"Feature","properties":{"name":"Port Louis","iso3":"MUS","population":595491},"geometry":{"type":"Point","coordinates":[57.5,-20.1666]}},{"type":"Feature","properties":{"name":"Lomé","iso3":"TGO","population":1452000},"geometry":{"type":"Point","coordinates":[1.2208,6.1339]}},{"type":"Feature","properties":{"name":"Tunis","iso3":"TUN","population":2412500},"geometry":{"type":"Point","coordinates":[10.1797,36.8028]}},{"type":"Feature","properties":{"name":"Lusaka","iso3":"ZMB","population":1328000},"geometry":{"type":"Point","coordinates":[28.2814,-15.4147]}},{"type":"Feature","properties":{"name":"Harare","iso3":"ZWE","population":1572000},"geometry":{"type":"Point","coordinates":[31.0428,-17.8158]}},{"type":"Feature","properties":{"name":"Bulawayo","iso3":"ZWE","population":699385},"geometry":{"type":"Point","coordinates":[28.58,-20.17]}},{"type":"Feature","properties":{"name":"Kampala","iso3":"UGA","population":1420000},"geometry":{"type":"Point","coordinates":[32.5814,0.3186]}},{"type":"Feature","properties":{"name":"Zinder","iso3":"NER","population":230358},"geometry":{"type":"Point","coordinates":[8.9833,13.8]}},{"type":"Feature","properties":{"name":"Niamey","iso3":"NER","population":915000},"geometry":{"type":"Point","coordinates":[2.1147,13.5187]}},{"type":"Feature","properties":{"name":"Port Sudan","iso3":"SDN","population":489725},"geometry":{"type":"Point","coordinates":[37.2164,19.6158]}},{"type":"Feature","properties":{"name":"Freetown","iso3":"SLE","population":827000},"geometry":{"type":"Point","coordinates":[-13.2362,8.472]}},{"type":"Feature","properties":{"name":"Agadez","iso3":"NER","population":117770},"geometry":{"type":"Point","coordinates":[7.9828,16.9959]}},{"type":"Feature","properties":{"name":"Nyala","iso3":"SDN","population":392373},"geometry":{"type":"Point","coordinates":[24.89,12.06]}},{"type":"Feature","properties":{"name":"Wau","iso3":"SSD","population":127384},"geometry":{"type":"Point","coordinates":[27.99,7.7]}},{"type":"Feature","properties":{"name":"Dongola","iso3":"SDN","population":26404},"geometry":{"type":"Point","coordinates":[30.4833,19.1666]}},{"type":"Feature","properties":{"name":"Kassala","iso3":"SDN","population":401477},"geometry":{"type":"Point","coordinates":[36.39,15.46]}},{"type":"Feature","properties":{"name":"Nacala","iso3":"MOZ","population":224795},"geometry":{"type":"Point","coordinates":[40.715,-14.5186]}},{"type":"Feature","properties":{"name":"Bloemfontein","iso3":"ZAF","population":463064},"geometry":{"type":"Point","coordinates":[26.2299,-29.12]}},{"type":"Feature","properties":{"name":"Pretoria","iso3":"ZAF","population":1338000},"geometry":{"type":"Point","coordinates":[28.2275,-25.705]}},{"type":"Feature","properties":{"name":"Fez","iso3":"MAR","population":1002000},"geometry":{"type":"Point","coordinates":[-5.0023,34.0565]}},{"type":"Feature","properties":{"name":"Rabat","iso3":"MAR","population":1705000},"geometry":{"type":"Point","coordinates":[-6.8364,34.0253]}},{"type":"Feature","properties":{"name":"Marrakesh","iso3":"MAR","population":872000},"geometry":{"type":"Point","coordinates":[-8.0019,31.6319]}},{"type":"Feature","properties":{"name":"Beira","iso3":"MOZ","population":530604},"geometry":{"type":"Point","coordinates":[34.87,-19.82]}},{"type":"Feature","properties":{"name":"Port Elizabeth","iso3":"ZAF","population":1021000},"geometry":{"type":"Point","coordinates":[25.5981,-33.9681]}},{"type":"Feature","properties":{"name":"Maputo","iso3":"MOZ","population":1446000},"geometry":{"type":"Point","coordinates":[32.5872,-25.9533]}},{"type":"Feature","properties":{"name":"Mogadishu","iso3":"SOM","population":1100000},"geometry":{"type":"Point","coordinates":[45.3647,2.0686]}},{"type":"Feature","properties":{"name":"Enugu","iso3":"NGA","population":688862},"geometry":{"type":"Point","coordinates":[7.5,6.45]}},{"type":"Feature","properties":{"name":"Sokoto","iso3":"NGA","population":732178},"geometry":{"type":"Point","coordinates":[5.24,13.06]}},{"type":"Feature","properties":{"name":"Mbeya","iso3":"TZA","population":291649},"geometry":{"type":"Point","coordinates":[33.43,-8.89]}},{"type":"Feature","properties":{"name":"Windhoek","iso3":"NAM","population":268132},"geometry":{"type":"Point","coordinates":[17.0835,-22.57]}},{"type":"Feature","properties":{"name":"Grootfontein","iso3":"NAM","population":24099},"geometry":{"type":"Point","coordinates":[18.1166,-19.5666]}},{"type":"Feature","properties":{"name":"Zanzibar","iso3":"TZA","population":403658},"geometry":{"type":"Point","coordinates":[39.2,-6.16]}},{"type":"Feature","properties":{"name":"Abuja","iso3":"NGA","population":1576000},"geometry":{"type":"Point","coordinates":[7.4895,9.0546]}},{"type":"Feature","properties":{"name":"Bissau","iso3":"GNB","population":403339},"geometry":{"type":"Point","coordinates":[-15.5984,11.865]}},{"type":"Feature","properties":{"name":"Mombasa","iso3":"KEN","population":882000},"geometry":{"type":"Point","coordinates":[39.688,-4.0381]}},{"type":"Feature","properties":{"name":"Maseru","iso3":"LSO","population":361324},"geometry":{"type":"Point","coordinates":[27.4833,-29.3167]}},{"type":"Feature","properties":{"name":"Antananarivo","iso3":"MDG","population":1697000},"geometry":{"type":"Point","coordinates":[47.5147,-18.9147]}},{"type":"Feature","properties":{"name":"Bumba","iso3":"COD","population":160539},"geometry":{"type":"Point","coordinates":[22.46,2.19]}},{"type":"Feature","properties":{"name":"N'Djamena","iso3":"TCD","population":989000},"geometry":{"type":"Point","coordinates":[15.0472,12.115]}},{"type":"Feature","properties":{"name":"Abéché","iso3":"TCD","population":158317},"geometry":{"type":"Point","coordinates":[20.83,13.84]}},{"type":"Feature","properties":{"name":"Malabo","iso3":"GNQ","population":155963},"geometry":{"type":"Point","coordinates":[8.7833,3.75]}},{"type":"Feature","properties":{"name":"Luxor","iso3":"EGY","population":609248},"geometry":{"type":"Point","coordinates":[32.65,25.7]}},{"type":"Feature","properties":{"name":"Asmara","iso3":"ERI","population":620802},"geometry":{"type":"Point","coordinates":[38.9333,15.3333]}},{"type":"Feature","properties":{"name":"Kikwit","iso3":"COD","population":637736},"geometry":{"type":"Point","coordinates":[18.85,-5.03]}},{"type":"Feature","properties":{"name":"Matadi","iso3":"COD","population":245862},"geometry":{"type":"Point","coordinates":[13.45,-5.8166]}},{"type":"Feature","properties":{"name":"Kolwezi","iso3":"COD","population":418000},"geometry":{"type":"Point","coordinates":[25.4724,-10.7167]}},{"type":"Feature","properties":{"name":"Lubumbashi","iso3":"COD","population":1352000},"geometry":{"type":"Point","coordinates":[27.4781,-11.6781]}},{"type":"Feature","properties":{"name":"Lilongwe","iso3":"MWI","population":646750},"geometry":{"type":"Point","coordinates":[33.7833,-13.9833]}},{"type":"Feature","properties":{"name":"Libreville","iso3":"GAB","population":578156},"geometry":{"type":"Point","coordinates":[9.458,0.3854]}},{"type":"Feature","properties":{"name":"Port-Gentil","iso3":"GAB","population":116836},"geometry":{"type":"Point","coordinates":[8.78,-0.72]}},{"type":"Feature","properties":{"name":"Timbuktu","iso3":"MLI","population":68872},"geometry":{"type":"Point","coordinates":[-3.0166,16.7666]}},{"type":"Feature","properties":{"name":"Nouakchott","iso3":"MRT","population":742144},"geometry":{"type":"Point","coordinates":[-15.9753,18.0864]}},{"type":"Feature","properties":{"name":"Bamako","iso3":"MLI","population":1494000},"geometry":{"type":"Point","coordinates":[-8.002,12.652]}},{"type":"Feature","properties":{"name":"Atar","iso3":"MRT","population":44265},"geometry":{"type":"Point","coordinates":[-13.05,20.5166]}},{"type":"Feature","properties":{"name":"Djenné","iso3":"MLI","population":32944},"geometry":{"type":"Point","coordinates":[-4.55,13.9]}},{"type":"Feature","properties":{"name":"Sabha","iso3":"LBY","population":100249},"geometry":{"type":"Point","coordinates":[14.4333,27.0333]}},{"type":"Feature","properties":{"name":"Banghazi","iso3":"LBY","population":1180000},"geometry":{"type":"Point","coordinates":[20.0648,32.1187]}},{"type":"Feature","properties":{"name":"Gondar","iso3":"ETH","population":156230},"geometry":{"type":"Point","coordinates":[37.46,12.61]}},{"type":"Feature","properties":{"name":"Brazzaville","iso3":"COG","population":1355000},"geometry":{"type":"Point","coordinates":[15.2827,-4.2572]}},{"type":"Feature","properties":{"name":"Conakry","iso3":"GIN","population":1494000},"geometry":{"type":"Point","coordinates":[-13.6822,9.5335]}},{"type":"Feature","properties":{"name":"Yamoussoukro","iso3":"CIV","population":206499},"geometry":{"type":"Point","coordinates":[-5.2755,6.8184]}},{"type":"Feature","properties":{"name":"N'Délé","iso3":"CAF","population":11764},"geometry":{"type":"Point","coordinates":[20.653,8.4091]}},{"type":"Feature","properties":{"name":"Obo","iso3":"CAF","population":12887},"geometry":{"type":"Point","coordinates":[26.5,5.4]}},{"type":"Feature","properties":{"name":"Bangui","iso3":"CAF","population":831925},"geometry":{"type":"Point","coordinates":[18.5583,4.3666]}},{"type":"Feature","properties":{"name":"Maroua","iso3":"CMR","population":319941},"geometry":{"type":"Point","coordinates":[14.3247,10.5956]}},{"type":"Feature","properties":{"name":"Yaoundé","iso3":"CMR","population":1611000},"geometry":{"type":"Point","coordinates":[11.5147,3.8686]}},{"type":"Feature","properties":{"name":"Menongue","iso3":"AGO","population":13030},"geometry":{"type":"Point","coordinates":[17.7,-14.6666]}},{"type":"Feature","properties":{"name":"Huambo","iso3":"AGO","population":1100000},"geometry":{"type":"Point","coordinates":[15.7581,-12.748]}},{"type":"Feature","properties":{"name":"Oran","iso3":"DZA","population":798000},"geometry":{"type":"Point","coordinates":[-0.6219,35.7119]}},{"type":"Feature","properties":{"name":"Cotonou","iso3":"BEN","population":762000},"geometry":{"type":"Point","coordinates":[2.4044,6.363]}},{"type":"Feature","properties":{"name":"Tamanrasset","iso3":"DZA","population":76000},"geometry":{"type":"Point","coordinates":[5.5228,22.785]}},{"type":"Feature","properties":{"name":"Ghardaia","iso3":"DZA","population":125480},"geometry":{"type":"Point","coordinates":[3.67,32.49]}},{"type":"Feature","properties":{"name":"Gaborone","iso3":"BWA","population":208411},"geometry":{"type":"Point","coordinates":[25.9119,-24.6463]}},{"type":"Feature","properties":{"name":"Ouagadougou","iso3":"BFA","population":1149000},"geometry":{"type":"Point","coordinates":[-1.5267,12.3723]}},{"type":"Feature","properties":{"name":"Victoria","iso3":"SYC","population":33576},"geometry":{"type":"Point","coordinates":[55.45,-4.6166]}},{"type":"Feature","properties":{"name":"São Tomé","iso3":"STP","population":88219},"geometry":{"type":"Point","coordinates":[6.7296,0.3375]}},{"type":"Feature","properties":{"name":"Praia","iso3":"CPV","population":113364},"geometry":{"type":"Point","coordinates":[-23.5167,14.9167]}},{"type":"Feature","properties":{"name":"Khartoum","iso3":"SDN","population":4754000},"geometry":{"type":"Point","coordinates":[32.5322,15.59]}},{"type":"Feature","properties":{"name":"Durban","iso3":"ZAF","population":2729000},"geometry":{"type":"Point","coordinates":[31.0109,-29.8607]}},{"type":"Feature","properties":{"name":"Kano","iso3":"NGA","population":3140000},"geometry":{"type":"Point","coordinates":[8.5181,12.0019]}},{"type":"Feature","properties":{"name":"Dar es Salaam","iso3":"TZA","population":2930000},"geometry":{"type":"Point","coordinates":[39.2664,-6.7981]}},{"type":"Feature","properties":{"name":"Monrovia","iso3":"LBR","population":1041000},"geometry":{"type":"Point","coordinates":[-10.7997,6.3146]}},{"type":"Feature","properties":{"name":"Alexandria","iso3":"EGY","population":4165000},"geometry":{"type":"Point","coordinates":[29.948,31.202]}},{"type":"Feature","properties":{"name":"Accra","iso3":"GHA","population":2121000},"geometry":{"type":"Point","coordinates":[-0.2187,5.552]}},{"type":"Feature","properties":{"name":"Tripoli","iso3":"LBY","population":2189000},"geometry":{"type":"Point","coordinates":[13.18,32.8925]}},{"type":"Feature","properties":{"name":"Abidjan","iso3":"CIV","population":3802000},"geometry":{"type":"Point","coordinates":[-4.0202,5.3231]}},{"type":"Feature","properties":{"name":"Luanda","iso3":"AGO","population":5172900},"geometry":{"type":"Point","coordinates":[13.2325,-8.8363]}},{"type":"Feature","properties":{"name":"Algiers","iso3":"DZA","population":3354000},"geometry":{"type":"Point","coordinates":[3.0486,36.765]}},{"type":"Feature","properties":{"name":"Dakar","iso3":"SEN","population":2604000},"geometry":{"type":"Point","coordinates":[-17.4751,14.7178]}},{"type":"Feature","properties":{"name":"Johannesburg","iso3":"ZAF","population":3435000},"geometry":{"type":"Point","coordinates":[28.0281,-26.1681]}},{"type":"Feature","properties":{"name":"Casablanca","iso3":"MAR","population":3181000},"geometry":{"type":"Point","coordinates":[-7.6183,33.6019]}},{"type":"Feature","properties":{"name":"Kinshasa","iso3":"COD","population":7843000},"geometry":{"type":"Point","coordinates":[15.313,-4.3278]}},{"type":"Feature","properties":{"name":"Addis Ababa","iso3":"ETH","population":3100000},"geometry":{"type":"Point","coordinates":[38.6981,9.0353]}},{"type":"Feature","properties":{"name":"Cape Town","iso3":"ZAF","population":3215000},"geometry":{"type":"Point","coordinates":[18.433,-33.9181]}},{"type":"Feature","properties":{"name":"Lagos","iso3":"NGA","population":9466000},"geometry":{"type":"Point","coordinates":[3.3896,6.4452]}},{"type":"Feature","properties":{"name":"Nairobi","iso3":"KEN","population":3010000},"geometry":{"type":"Point","coordinates":[36.8147,-1.2814]}},{"type":"Feature","properties":{"name":"Cairo","iso3":"EGY","population":11893000},"geometry":{"type":"Point","coordinates":[31.248,30.0519]}}]}