{"type":"FeatureCollection","name":"africa_datacenters","features":[{"type":"Feature","properties":{"name":"Teraco JB1","city":"Johannesburg","country":"South Africa","operator":"Teraco","source":"curated","color":"#8b5cf6","size":11,"type":"data_center"},"geometry":{"type":"Point","coordinates":[28.0579,-26.1471]}},{"type":"Feature","properties":{"name":"Teraco CT1","city":"Cape Town","country":"South Africa","operator":"Teraco","source":"curated","color":"#8b5cf6","size":11,"type":"data_center"},"geometry":{"type":"Point","coordinates":[18.5186,-33.9307]}},{"type":"Feature","properties":{"name":"Teraco DB1","city":"Durban","country":"South Africa","operator":"Teraco","source":"curated","color":"#8b5cf6","size":11,"type":"data_center"},"geometry":{"type":"Point","coordinates":[31.0218,-29.8587]}},{"type":"Feature","properties":{"name":"Africa Data Centres JHB1","city":"Johannesburg","country":"South Africa","operator":"Africa Data Centres","source":"curated","color":"#8b5cf6","size":11,"type":"data_center"},"geometry":{"type":"Point","coordinates":[28.234,-26.135]}},{"type":"Feature","properties":{"name":"Africa Data Centres CPT1","city":"Cape Town","country":"South Africa","operator":"Africa Data Centres","source":"curated","color":"#8b5cf6","size":11,"type":"data_center"},"geometry":{"type":"Point","coordinates":[18.424,-33.925]}},{"type":"Feature","properties":{"name":"Africa Data Centres NBO1","city":"Nairobi","country":"Kenya","operator":"Africa Data Centres","source":"curated","color":"#8b5cf6","size":11,"type":"data_center"},"geometry":{"type":"Point","coordinates":[36.8314,-1.3189]}},{"type":"Feature","properties":{"name":"Africa Data Centres LOS1","city":"Lagos","country":"Nigeria","operator":"Africa Data Centres","source":"curated","color":"#8b5cf6","size":11,"type":"data_center"},"geometry":{"type":"Point","coordinates":[3.3941,6.4454]}},{"type":"Feature","properties":{"name":"Africa Data Centres ACC1","city":"Accra","country":"Ghana","operator":"Africa Data Centres","source":"curated","color":"#8b5cf6","size":11,"type":"data_center"},"geometry":{"type":"Point","coordinates":[-0.187,5.6037]}},{"type":"Feature","properties":{"name":"Equinix LG1","city":"Lagos","country":"Nigeria","operator":"Equinix","source":"curated","color":"#8b5cf6","size":11,"type":"data_center"},"geometry":{"type":"Point","coordinates":[3.3792,6.5244]}},{"type":"Feature","properties":{"name":"Equinix LG2","city":"Lagos","country":"Nigeria","operator":"Equinix","source":"curated","color":"#8b5cf6","size":11,"type":"data_center"},"geometry":{"type":"Point","coordinates":[3.38,6.528]}},{"type":"Feature","properties":{"name":"Equinix JN1","city":"Johannesburg","country":"South Africa","operator":"Equinix","source":"curated","color":"#8b5cf6","size":11,"type":"data_center"},"geometry":{"type":"Point","coordinates":[28.0473,-26.2041]}},{"type":"Feature","properties":{"name":"iColo NBO1","city":"Nairobi","country":"Kenya","operator":"iColo (Digital Realty)","source":"curated","color":"#8b5cf6","size":11,"type":"data_center"},"geometry":{"type":"Point","coordinates":[36.8219,-1.2921]}},{"type":"Feature","properties":{"name":"iColo MBA1","city":"Mombasa","country":"Kenya","operator":"iColo (Digital Realty)","source":"curated","color":"#8b5cf6","size":11,"type":"data_center"},"geometry":{"type":"Point","coordinates":[39.6682,-4.0435]}},{"type":"Feature","properties":{"name":"PAIX Accra","city":"Accra","country":"Ghana","operator":"PAIX","source":"curated","color":"#8b5cf6","size":11,"type":"data_center"},"geometry":{"type":"Point","coordinates":[-0.19,5.62]}},{"type":"Feature","properties":{"name":"Rack Centre LGS1","city":"Lagos","country":"Nigeria","operator":"Rack Centre","source":"curated","color":"#8b5cf6","size":11,"type":"data_center"},"geometry":{"type":"Point","coordinates":[3.3515,6.6018]}},{"type":"Feature","properties":{"name":"MainOne MDX-i","city":"Lagos","country":"Nigeria","operator":"MainOne","source":"curated","color":"#8b5cf6","size":11,"type":"data_center"},"geometry":{"type":"Point","coordinates":[3.455,6.435]}},{"type":"Feature","properties":{"name":"Raxio Kampala","city":"Kampala","country":"Uganda","operator":"Raxio","source":"curated","color":"#8b5cf6","size":11,"type":"data_center"},"geometry":{"type":"Point","coordinates":[32.5825,0.3476]}},{"type":"Feature","properties":{"name":"Raxio Addis Ababa","city":"Addis Ababa","country":"Ethiopia","operator":"Raxio","source":"curated","color":"#8b5cf6","size":11,"type":"data_center"},"geometry":{"type":"Point","coordinates":[38.7469,9.032]}},{"type":"Feature","properties":{"name":"Raxio Kinshasa","city":"Kinshasa","country":"DRC","operator":"Raxio","source":"curated","color":"#8b5cf6","size":11,"type":"data_center"},"geometry":{"type":"Point","coordinates":[15.3136,-4.3276]}},{"type":"Feature","properties":{"name":"N+ONE Casablanca","city":"Casablanca","country":"Morocco","operator":"N+ONE","source":"curated","color":"#8b5cf6","size":11,"type":"data_center"},"geometry":{"type":"Point","coordinates":[-7.5898,33.5731]}},{"type":"Feature","properties":{"name":"Vantage Johannesburg","city":"Johannesburg","country":"South Africa","operator":"Vantage","source":"curated","color":"#8b5cf6","size":11,"type":"data_center"},"geometry":{"type":"Point","coordinates":[28.118,-26.078]}},{"type":"Feature","properties":{"name":"Open Access Lagos","city":"Lagos","country":"Nigeria","operator":"Open Access","source":"curated","color":"#8b5cf6","size":11,"type":"data_center"},"geometry":{"type":"Point","coordinates":[3.38,6.51]}},{"type":"Feature","properties":{"name":"Orange Abidjan","city":"Abidjan","country":"Côte d’Ivoire","operator":"Orange","source":"curated","color":"#8b5cf6","size":11,"type":"data_center"},"geometry":{"type":"Point","coordinates":[-4.0267,5.3364]}},{"type":"Feature","properties":{"name":"Orange Dakar","city":"Dakar","country":"Senegal","operator":"Orange","source":"curated","color":"#8b5cf6","size":11,"type":"data_center"},"geometry":{"type":"Point","coordinates":[-17.4467,14.6928]}},{"type":"Feature","properties":{"name":"Liquid Intelligent Harare","city":"Harare","country":"Zimbabwe","operator":"Liquid Intelligent","source":"curated","color":"#8b5cf6","size":11,"type":"data_center"},"geometry":{"type":"Point","coordinates":[31.0522,-17.8292]}},{"type":"Feature","properties":{"name":"Liquid Intelligent Nairobi","city":"Nairobi","country":"Kenya","operator":"Liquid Intelligent","source":"curated","color":"#8b5cf6","size":11,"type":"data_center"},"geometry":{"type":"Point","coordinates":[36.8172,-1.2864]}},{"type":"Feature","properties":{"name":"WIOCC Mombasa","city":"Mombasa","country":"Kenya","operator":"WIOCC","source":"curated","color":"#8b5cf6","size":11,"type":"data_center"},"geometry":{"type":"Point","coordinates":[39.67,-4.04]}},{"type":"Feature","properties":{"name":"Telecom Egypt Smart Village","city":"Cairo","country":"Egypt","operator":"Telecom Egypt","source":"curated","color":"#8b5cf6","size":11,"type":"data_center"},"geometry":{"type":"Point","coordinates":[31.019,30.0727]}},{"type":"Feature","properties":{"name":"Paratus Windhoek","city":"Windhoek","country":"Namibia","operator":"Paratus","source":"curated","color":"#8b5cf6","size":11,"type":"data_center"},"geometry":{"type":"Point","coordinates":[17.0658,-22.5609]}},{"type":"Feature","properties":{"name":"Onix Tunis","city":"Tunis","country":"Tunisia","operator":"Onix","source":"curated","color":"#8b5cf6","size":11,"type":"data_center"},"geometry":{"type":"Point","coordinates":[10.1815,36.8065]}}]}