{"type":"FeatureCollection","features":[{"type":"Feature","properties":{"name":"Lake Abaya","scalerank":5},"geometry":{"type":"Polygon","coordinates":[[[37.964,6.5933],[38.0111,6.6221],[38.0243,6.585],[38.0555,6.5612],[38.0744,6.5547],[38.0918,6.5594],[38.1103,6.5868],[38.1389,6.5945],[38.15,6.5503],[38.1362,6.5112],[38.1085,6.487],[38.1224,6.4499],[38.0944,6.4499],[38.0832,6.4002],[38.0361,6.3704],[38.0073,6.3151],[38.0029,6.2556],[37.9725,6.2309],[37.9387,6.2165],[37.9143,6.1753],[37.8845,6.145],[37.8627,6.1099],[37.8501,6.0499],[37.8365,6.059],[37.8333,6.089],[37.8201,6.0711],[37.8139,6.0443],[37.75,6.0222],[37.7279,5.9998],[37.7055,6.011],[37.6852,6.0101],[37.6808,6.0266],[37.6932,6.0587],[37.6944,6.094],[37.7073,6.117],[37.7556,6.1444],[37.7576,6.1576],[37.7674,6.1676],[37.8042,6.1779],[37.8277,6.2],[37.8277,6.1888],[37.8498,6.1835],[37.8445,6.1444],[37.8757,6.1985],[37.8777,6.2612],[37.8966,6.2757],[37.8833,6.3057],[37.8866,6.3457],[37.8542,6.4473],[37.8722,6.5112],[37.9066,6.5156],[37.964,6.5933]]]}},{"type":"Feature","properties":{"name":"Lake Assal","scalerank":5},"geometry":{"type":"Polygon","coordinates":[[[42.4489,11.6746],[42.4113,11.6246],[42.3845,11.6923],[42.4221,11.7111],[42.4489,11.6746]]]}},{"type":"Feature","properties":{"name":null,"scalerank":3},"geometry":{"type":"Polygon","coordinates":[[[35.3244,-14.5921],[35.3262,-14.628],[35.2982,-14.6681],[35.2844,-14.6751],[35.2844,-14.696],[35.2732,-14.7113],[35.2712,-14.7322],[35.2779,-14.7575],[35.2164,-14.7143],[35.1908,-14.6854],[35.202,-14.6545],[35.1914,-14.6095],[35.1934,-14.558],[35.2138,-14.517],[35.2573,-14.5044],[35.3244,-14.5921]]]}},{"type":"Feature","properties":{"name":"Lake Malawi","scalerank":0},"geometry":{"type":"Polygon","coordinates":[[[35.2226,-14.3808],[35.1746,-14.3398],[35.1437,-14.2972],[35.1269,-14.2916],[35.0981,-14.2568],[35.0651,-14.1862],[35.0407,-14.165],[35.0177,-14.1685],[34.9965,-14.1473],[34.9641,-14.1553],[34.9418,-14.1276],[34.9332,-14.0861],[34.9421,-14.0517],[34.8935,-14.011],[34.8632,-14.0025],[34.844,-14.0154],[34.8402,-14.0411],[34.8626,-14.0935],[34.822,-14.1414],[34.8122,-14.1685],[34.8308,-14.198],[34.829,-14.2062],[34.8137,-14.218],[34.8058,-14.238],[34.7902,-14.2477],[34.7092,-14.2748],[34.6948,-14.2648],[34.6986,-14.2241],[34.6818,-14.2094],[34.6342,-14.1977],[34.6168,-14.1853],[34.5868,-14.1197],[34.5511,-14.079],[34.5291,-13.9786],[34.5341,-13.953],[34.5826,-13.893],[34.6,-13.8465],[34.5926,-13.8123],[34.6203,-13.7844],[34.6188,-13.7379],[34.6347,-13.7034],[34.5511,-13.6136],[34.5305,-13.5739],[34.5173,-13.5651],[34.5017,-13.5636],[34.4519,-13.5783],[34.4381,-13.5742],[34.4007,-13.5292],[34.3251,-13.3958],[34.3124,-13.3631],[34.3089,-13.3299],[34.343,-13.2719],[34.348,-13.2439],[34.3386,-13.1747],[34.3368,-13.0123],[34.3251,-12.9619],[34.3342,-12.9151],[34.3313,-12.901],[34.3156,-12.9284],[34.3056,-12.9095],[34.3112,-12.8733],[34.2697,-12.8292],[34.2635,-12.8083],[34.2771,-12.7597],[34.2759,-12.7382],[34.2382,-12.722],[34.2229,-12.7046],[34.202,-12.6676],[34.1864,-12.6216],[34.1847,-12.5469],[34.2056,-12.5086],[34.1711,-12.397],[34.1479,-12.3823],[34.1084,-12.3856],[34.0855,-12.3803],[34.0807,-12.3555],[34.0628,-12.3485],[34.0395,-12.2705],[34.0301,-12.188],[34.069,-12.002],[34.0816,-11.9858],[34.1953,-11.8999],[34.1829,-11.8795],[34.1908,-11.8204],[34.202,-11.798],[34.2465,-11.7668],[34.2574,-11.743],[34.3156,-11.6923],[34.3242,-11.6723],[34.3251,-11.6399],[34.3148,-11.599],[34.3033,-11.5787],[34.3036,-11.5496],[34.2842,-11.4786],[34.2774,-11.3535],[34.2574,-11.2967],[34.2323,-11.2723],[34.2318,-11.221],[34.215,-11.1857],[34.222,-11.1604],[34.2497,-11.1121],[34.2356,-11.0933],[34.2291,-11.0603],[34.2329,-10.9343],[34.2159,-10.7418],[34.202,-10.6877],[34.2091,-10.6255],[34.1832,-10.5779],[34.1914,-10.5605],[34.2294,-10.5328],[34.2209,-10.4775],[34.2265,-10.4684],[34.2432,-10.4542],[34.2647,-10.4513],[34.2709,-10.4407],[34.2471,-10.378],[34.1926,-10.3082],[34.1811,-10.2791],[34.1334,-10.242],[34.0778,-10.1867],[33.9954,-10.0689],[33.9662,-10.0018],[33.9527,-9.8896],[33.9309,-9.882],[33.9074,-9.8272],[33.8997,-9.7581],[33.9044,-9.7254],[33.9513,-9.6736],[33.9626,-9.6121],[33.9645,-9.5947],[33.9459,-9.55],[33.9607,-9.5249],[34.0127,-9.4775],[34.0475,-9.49],[34.0785,-9.5102],[34.1619,-9.5936],[34.1903,-9.6065],[34.2881,-9.7085],[34.3179,-9.7192],[34.3317,-9.7692],[34.3823,-9.8197],[34.4833,-9.9462],[34.5247,-10.0088],[34.5378,-10.0539],[34.5247,-10.0948],[34.5324,-10.1289],[34.5656,-10.2027],[34.5856,-10.29],[34.5651,-10.4098],[34.593,-10.4817],[34.5815,-10.5137],[34.5811,-10.5397],[34.6004,-10.5781],[34.6244,-10.5834],[34.6263,-10.6143],[34.66,-10.6655],[34.6609,-10.6873],[34.6476,-10.7084],[34.6724,-10.7395],[34.675,-10.7524],[34.6567,-10.7699],[34.6606,-10.796],[34.6476,-10.8586],[34.6455,-10.9132],[34.6271,-10.9541],[34.5979,-10.991],[34.593,-11.0162],[34.6135,-11.1022],[34.6211,-11.1197],[34.6687,-11.1601],[34.6818,-11.1851],[34.6999,-11.1895],[34.7141,-11.2027],[34.7283,-11.2537],[34.7575,-11.2776],[34.7575,-11.2838],[34.737,-11.2968],[34.7656,-11.3451],[34.7849,-11.3335],[34.8005,-11.3319],[34.8679,-11.3588],[34.8866,-11.3754],[34.8979,-11.4033],[34.9171,-11.4188],[34.9257,-11.4459],[34.9445,-11.4644],[34.9607,-11.4985],[34.9668,-11.6705],[34.9556,-11.7394],[34.9559,-11.8136],[34.9079,-11.9137],[34.8876,-12.0058],[34.8693,-12.0426],[34.8193,-12.0626],[34.8049,-12.0985],[34.7678,-12.1159],[34.6948,-12.188],[34.7104,-12.208],[34.716,-12.2366],[34.7001,-12.3181],[34.7092,-12.407],[34.6886,-12.4274],[34.7269,-12.5092],[34.7654,-12.5666],[34.7737,-12.6078],[34.7987,-12.6399],[34.8122,-12.6949],[34.8255,-12.7149],[34.784,-12.798],[34.7775,-12.8459],[34.7569,-12.8936],[34.7548,-12.9219],[34.7634,-12.9634],[34.8064,-13.0485],[34.8158,-13.0847],[34.7972,-13.1365],[34.8122,-13.2363],[34.7946,-13.2807],[34.7946,-13.3157],[34.8261,-13.3531],[34.8593,-13.374],[34.8629,-13.3829],[34.8593,-13.4005],[34.8661,-13.4703],[34.8526,-13.5374],[34.8593,-13.6027],[34.8523,-13.6669],[34.8573,-13.6931],[34.8799,-13.7161],[34.8988,-13.7249],[35.0171,-13.7234],[35.0548,-13.7305],[35.0689,-13.7493],[35.086,-13.8123],[35.1134,-13.8494],[35.1346,-13.971],[35.1814,-14.0517],[35.1767,-14.1005],[35.2164,-14.1647],[35.2305,-14.2306],[35.2879,-14.3363],[35.2823,-14.3637],[35.2676,-14.3875],[35.2361,-14.4014],[35.2226,-14.3808]],[[34.7024,-12.0779],[34.7178,-12.0906],[34.7398,-12.0888],[34.7442,-12.0762],[34.741,-12.0523],[34.7569,-12.0438],[34.7289,-12.0303],[34.7183,-12.0388],[34.7024,-12.0779]]]}},{"type":"Feature","properties":{"name":"Lake Bangweulu","scalerank":4},"geometry":{"type":"Polygon","coordinates":[[[30.0368,-10.9761],[30.0424,-10.9994],[30.015,-11.0371],[29.9882,-11.123],[29.9667,-11.1395],[29.9826,-11.0792],[29.9767,-11.0712],[29.9349,-11.0895],[29.9114,-11.1071],[29.8981,-11.126],[29.8996,-11.146],[29.9258,-11.1713],[29.9502,-11.2311],[29.9479,-11.2764],[29.9017,-11.3141],[29.8796,-11.3615],[29.8504,-11.3723],[29.8237,-11.4194],[29.8128,-11.4268],[29.7533,-11.4053],[29.7277,-11.4133],[29.7071,-11.4345],[29.693,-11.4274],[29.6791,-11.4345],[29.6044,-11.4091],[29.5655,-11.3841],[29.5475,-11.342],[29.5487,-11.3108],[29.5988,-11.1907],[29.665,-11.106],[29.6994,-11.0433],[29.6261,-11.1277],[29.5587,-11.2549],[29.5028,-11.2428],[29.4798,-11.181],[29.5019,-11.1634],[29.5134,-11.1645],[29.5216,-11.1737],[29.5225,-11.1913],[29.5107,-11.2208],[29.514,-11.2358],[29.5522,-11.1681],[29.5923,-11.1504],[29.6314,-11.0951],[29.6447,-11.0556],[29.6662,-11.0235],[29.7097,-10.982],[29.7203,-10.9614],[29.7053,-10.9502],[29.7215,-10.9308],[29.7403,-10.9234],[29.7339,-10.9479],[29.7412,-10.9479],[29.7548,-10.9199],[29.7618,-10.9199],[29.7324,-10.9767],[29.7277,-10.9956],[29.7339,-10.9956],[29.7777,-10.9167],[29.7957,-10.9061],[29.7957,-10.9137],[29.773,-10.9396],[29.7206,-11.025],[29.7133,-11.0509],[29.7618,-10.9956],[29.7839,-10.9367],[29.8175,-10.9052],[29.8369,-10.8755],[29.8808,-10.8719],[29.9108,-10.8484],[29.9255,-10.8448],[29.927,-10.8587],[29.9387,-10.8731],[29.9667,-10.8931],[29.9909,-10.9273],[30.0212,-10.9479],[30.0076,-10.9614],[30.015,-10.9817],[30.0282,-10.9744],[30.0368,-10.9761]]]}},{"type":"Feature","properties":{"name":"Lac Moeru","scalerank":3},"geometry":{"type":"Polygon","coordinates":[[[29.1434,-8.6412],[29.1493,-8.6577],[29.1469,-8.6757],[29.0863,-8.8267],[29.0462,-8.8944],[29.0236,-8.9606],[29.0077,-8.9883],[28.9535,-9.0236],[28.9197,-9.0369],[28.8908,-9.0975],[28.8302,-9.1526],[28.816,-9.1946],[28.7742,-9.2279],[28.7545,-9.2653],[28.7183,-9.3036],[28.7124,-9.3327],[28.7239,-9.3474],[28.7271,-9.3645],[28.7142,-9.3978],[28.7142,-9.4137],[28.7327,-9.4195],[28.7204,-9.4454],[28.7024,-9.4378],[28.665,-9.3992],[28.6474,-9.406],[28.625,-9.391],[28.5211,-9.4263],[28.5267,-9.4104],[28.5243,-9.3919],[28.5155,-9.3783],[28.5005,-9.378],[28.5005,-9.3645],[28.4831,-9.3866],[28.4825,-9.4446],[28.459,-9.4675],[28.5261,-9.4814],[28.5279,-9.509],[28.5037,-9.5034],[28.4248,-9.5293],[28.3972,-9.5279],[28.3574,-9.5146],[28.33,-9.5285],[28.315,-9.522],[28.3292,-9.509],[28.3224,-9.4958],[28.3259,-9.4875],[28.3462,-9.4708],[28.3521,-9.4578],[28.3401,-9.398],[28.315,-9.3613],[28.3292,-9.3377],[28.3189,-9.3168],[28.3262,-9.285],[28.315,-9.2756],[28.3395,-9.2329],[28.3451,-9.2073],[28.3256,-9.1708],[28.3209,-9.1487],[28.3292,-9.1037],[28.3418,-9.0825],[28.4013,-9.0395],[28.4231,-9.0124],[28.4663,-8.9883],[28.5414,-8.8785],[28.6138,-8.8131],[28.6659,-8.7478],[28.7572,-8.6554],[28.869,-8.4949],[28.8908,-8.4811],[28.9091,-8.4832],[28.9385,-8.5082],[28.9797,-8.5197],[29.1066,-8.6021],[29.1434,-8.6412]]]}},{"type":"Feature","properties":{"name":"Lake Rukwa","scalerank":5},"geometry":{"type":"MultiPolygon","coordinates":[[[[31.9216,-7.5671],[31.9195,-7.5668],[31.9222,-7.5668],[31.9216,-7.5671]]],[[[32.533,-8.0496],[32.5389,-8.1223],[32.4732,-8.0849],[32.3943,-8.0613],[32.3249,-8.0078],[32.261,-7.9945],[32.1903,-7.9563],[32.1135,-7.9348],[32.0373,-7.9616],[31.9666,-8.0028],[31.913,-7.966],[31.873,-7.8989],[31.8456,-7.8326],[31.8306,-7.8147],[31.8389,-7.7999],[31.8112,-7.7723],[31.7785,-7.7034],[31.7965,-7.6369],[31.9216,-7.5671],[31.959,-7.5695],[32.0723,-7.6498],[32.1256,-7.7202],[32.1906,-7.7776],[32.2716,-7.8282],[32.3402,-7.8941],[32.4026,-7.9695],[32.472,-8.0001],[32.533,-8.0496]]]]}},{"type":"Feature","properties":{"name":"Lake Tanganyika","scalerank":0},"geometry":{"type":"Polygon","coordinates":[[[30.8098,-8.5847],[30.7951,-8.5597],[30.7344,-8.5565],[30.7144,-8.5282],[30.6832,-8.525],[30.6844,-8.4843],[30.6761,-8.4811],[30.6382,-8.4867],[30.632,-8.5011],[30.6579,-8.5011],[30.6435,-8.5241],[30.6034,-8.5582],[30.5481,-8.5818],[30.5319,-8.583],[30.5295,-8.578],[30.5699,-8.5488],[30.5622,-8.5353],[30.574,-8.5158],[30.5669,-8.5023],[30.5498,-8.4976],[30.5122,-8.5141],[30.4874,-8.5167],[30.4704,-8.5085],[30.4736,-8.4867],[30.4462,-8.4667],[30.4421,-8.4334],[30.4518,-8.396],[30.4668,-8.3645],[30.4869,-8.3413],[30.5145,-8.3233],[30.5699,-8.303],[30.5607,-8.2907],[30.5613,-8.2801],[30.5699,-8.2547],[30.5699,-8.2029],[30.5843,-8.1402],[30.5425,-8.0896],[30.5148,-8.039],[30.4975,-8.0269],[30.4524,-8.0151],[30.4601,-8.0007],[30.4186,-7.9598],[30.4103,-7.9412],[30.3809,-7.9345],[30.3715,-7.9068],[30.3532,-7.89],[30.3288,-7.8818],[30.3029,-7.8847],[30.2687,-7.8362],[30.2614,-7.7817],[30.267,-7.7652],[30.2637,-7.7452],[30.2555,-7.7275],[30.2322,-7.711],[30.1996,-7.601],[30.1987,-7.578],[30.2184,-7.543],[30.204,-7.4508],[30.1878,-7.4049],[30.1831,-7.369],[30.128,-7.2486],[30.1139,-7.2301],[29.9747,-7.1108],[29.9267,-7.0917],[29.8251,-7.0682],[29.7895,-7.0473],[29.7621,-7.0202],[29.7221,-6.9581],[29.6776,-6.9107],[29.6382,-6.8391],[29.549,-6.7711],[29.4987,-6.7029],[29.4737,-6.6098],[29.4904,-6.5689],[29.4872,-6.5136],[29.4425,-6.518],[29.418,-6.4824],[29.3918,-6.3899],[29.3659,-6.3325],[29.3668,-6.3214],[29.3512,-6.3105],[29.34,-6.2863],[29.3224,-6.1989],[29.2785,-6.168],[29.2726,-6.1259],[29.2667,-6.1194],[29.1978,-6.0782],[29.1858,-5.9796],[29.1864,-5.9301],[29.179,-5.9178],[29.2355,-5.8901],[29.3206,-5.8159],[29.3568,-5.7465],[29.3353,-5.7465],[29.3494,-5.7273],[29.3362,-5.6902],[29.3421,-5.6652],[29.3321,-5.6337],[29.3441,-5.6258],[29.3589,-5.637],[29.37,-5.6373],[29.3727,-5.6096],[29.2579,-5.4106],[29.1772,-5.292],[29.1448,-5.2113],[29.1272,-5.1301],[29.1075,-5.1027],[29.0963,-5.068],[29.1178,-5.012],[29.1057,-4.9793],[29.0989,-4.7704],[29.1128,-4.6146],[29.1381,-4.5684],[29.1487,-4.5134],[29.1584,-4.5001],[29.174,-4.5007],[29.2014,-4.516],[29.2061,-4.4963],[29.1999,-4.4168],[29.2176,-4.37],[29.2594,-4.1192],[29.2405,-4.0471],[29.234,-4.0471],[29.2134,-4.1257],[29.1928,-4.1693],[29.1814,-4.2278],[29.1581,-4.2711],[29.1516,-4.3306],[29.1381,-4.3485],[29.1131,-4.3406],[29.0839,-4.3194],[29.0418,-4.307],[29.0486,-4.307],[29.0536,-4.2841],[29.0683,-4.2596],[29.1048,-4.224],[29.1036,-4.1766],[29.0827,-4.1498],[29.0963,-4.1186],[29.0886,-4.0409],[29.1022,-3.987],[29.1048,-3.9388],[29.0963,-3.9173],[29.1048,-3.8984],[29.1051,-3.8675],[29.1242,-3.8304],[29.0963,-3.7733],[29.1304,-3.7003],[29.1516,-3.68],[29.1345,-3.4269],[29.1425,-3.3839],[29.1652,-3.3506],[29.2061,-3.3344],[29.2532,-3.333],[29.2967,-3.3406],[29.3291,-3.3621],[29.3433,-3.4033],[29.3368,-3.7627],[29.37,-3.8552],[29.3733,-3.8873],[29.3868,-3.9067],[29.4074,-3.9214],[29.416,-3.9458],[29.4348,-3.965],[29.4389,-3.9753],[29.4321,-4.013],[29.494,-4.1066],[29.501,-4.1631],[29.5364,-4.2008],[29.5537,-4.2664],[29.5914,-4.3294],[29.6544,-4.3992],[29.6497,-4.5095],[29.6026,-4.7606],[29.6035,-4.8422],[29.6208,-4.8728],[29.5932,-4.8975],[29.5932,-4.9043],[29.6517,-4.9167],[29.6644,-4.9237],[29.6827,-4.9484],[29.7359,-4.969],[29.7618,-4.9991],[29.7816,-5.0064],[29.7754,-5.0264],[29.8163,-5.0971],[29.8231,-5.1436],[29.8095,-5.1704],[29.7957,-5.1772],[29.7957,-5.1836],[29.8095,-5.1878],[29.8139,-5.2063],[29.7998,-5.2334],[29.8066,-5.2537],[29.8025,-5.2666],[29.7919,-5.2619],[29.7816,-5.2666],[29.7842,-5.3288],[29.7533,-5.3856],[29.7412,-5.4312],[29.7501,-5.4636],[29.7704,-5.4915],[29.836,-5.5598],[29.9432,-5.7962],[29.9529,-5.8418],[29.9461,-5.9178],[29.8996,-5.9354],[29.8266,-6.0002],[29.7889,-5.9861],[29.7713,-5.9976],[29.7345,-6.0449],[29.7277,-6.065],[29.7253,-6.1285],[29.7321,-6.1957],[29.7283,-6.2186],[29.7118,-6.2466],[29.7268,-6.2645],[29.7504,-6.2713],[29.768,-6.3013],[29.8566,-6.4111],[29.9049,-6.4521],[29.9402,-6.47],[29.9523,-6.4838],[29.9529,-6.5074],[30.0297,-6.4653],[30.0721,-6.4532],[30.1174,-6.4521],[30.1586,-6.4688],[30.1737,-6.4844],[30.1901,-6.5236],[30.2923,-6.6207],[30.3358,-6.6463],[30.3582,-6.699],[30.3956,-6.747],[30.4015,-6.7829],[30.4186,-6.8221],[30.4842,-6.8957],[30.5078,-6.911],[30.5145,-6.9245],[30.5646,-6.9563],[30.5766,-6.9766],[30.5766,-7.0175],[30.556,-7.0411],[30.5599,-7.1017],[30.546,-7.11],[30.5184,-7.11],[30.501,-7.0982],[30.4942,-7.11],[30.5216,-7.1326],[30.5319,-7.1503],[30.5325,-7.1947],[30.5513,-7.2047],[30.6043,-7.3319],[30.6108,-7.3708],[30.5937,-7.4458],[30.6049,-7.4544],[30.5834,-7.5079],[30.6281,-7.5892],[30.6449,-7.596],[30.6661,-7.6439],[30.7144,-7.6719],[30.7335,-7.714],[30.7447,-7.7202],[30.7995,-7.8744],[30.8336,-7.91],[30.841,-7.9451],[30.8716,-7.9733],[30.9028,-8.019],[30.9157,-8.0937],[30.926,-8.1105],[30.9467,-8.097],[30.9549,-8.1114],[30.9646,-8.1482],[30.9596,-8.1653],[30.954,-8.1514],[30.9467,-8.1514],[30.9428,-8.1658],[30.9558,-8.2053],[30.9673,-8.2206],[30.9711,-8.2621],[31.0082,-8.2818],[31.0426,-8.3372],[31.0497,-8.3298],[31.0673,-8.3569],[31.1271,-8.394],[31.1453,-8.4261],[31.1345,-8.4882],[31.1353,-8.5253],[31.166,-8.5465],[31.1657,-8.5868],[31.171,-8.5986],[31.1945,-8.6121],[31.1998,-8.628],[31.1869,-8.6586],[31.1998,-8.6892],[31.1942,-8.7237],[31.186,-8.7396],[31.1733,-8.7481],[31.1554,-8.7266],[31.1492,-8.7081],[31.143,-8.7101],[31.1212,-8.7381],[31.1074,-8.7434],[31.1035,-8.7687],[31.0435,-8.8011],[31.0252,-8.799],[30.858,-8.6177],[30.8098,-8.5847]]]}},{"type":"Feature","properties":{"name":"Lake Kariba","scalerank":5},"geometry":{"type":"Polygon","coordinates":[[[28.9915,-16.6041],[29.0006,-16.6147],[28.9565,-16.6238],[28.9297,-16.6453],[28.9335,-16.6503],[28.9523,-16.6494],[28.9306,-16.675],[28.925,-16.7121],[28.892,-16.668],[28.8805,-16.6624],[28.8493,-16.6833],[28.844,-16.6974],[28.8602,-16.7042],[28.869,-16.7207],[28.864,-16.7536],[28.8425,-16.7772],[28.8022,-16.766],[28.806,-16.7839],[28.781,-16.814],[28.716,-16.8078],[28.7033,-16.7786],[28.6853,-16.7625],[28.7127,-16.7245],[28.6904,-16.7236],[28.6933,-16.6886],[28.6786,-16.6768],[28.6544,-16.6827],[28.6377,-16.7159],[28.6173,-16.7121],[28.6076,-16.7198],[28.5817,-16.7192],[28.5891,-16.7383],[28.5544,-16.7345],[28.5488,-16.7245],[28.5346,-16.7312],[28.5414,-16.7457],[28.5211,-16.7586],[28.5011,-16.7566],[28.4837,-16.7733],[28.459,-16.814],[28.4419,-16.814],[28.4407,-16.8275],[28.4637,-16.8484],[28.4731,-16.8952],[28.4569,-16.8846],[28.4499,-16.849],[28.3845,-16.8293],[28.3695,-16.7898],[28.3895,-16.7689],[28.3907,-16.7586],[28.3795,-16.7486],[28.3651,-16.753],[28.353,-16.7675],[28.3489,-16.7866],[28.3339,-16.7819],[28.3236,-16.7886],[28.315,-16.8172],[28.2609,-16.8275],[28.2597,-16.8075],[28.2267,-16.8116],[28.1166,-16.8461],[28.0919,-16.9002],[28.1099,-16.9093],[28.0751,-16.9317],[28.0501,-16.9868],[28.0725,-16.9915],[28.1237,-16.9776],[28.0901,-17.0018],[28.1013,-17.0177],[28.0963,-17.0256],[28.1034,-17.0256],[28.1034,-17.033],[28.0657,-17.0445],[28.0531,-17.0589],[28.048,-17.081],[28.0216,-17.0515],[28.0101,-17.0536],[28.0042,-17.0339],[27.9583,-17.0224],[27.9562,-17.0397],[27.9612,-17.0392],[27.963,-17.048],[27.953,-17.055],[27.935,-17.0465],[27.9262,-17.0495],[27.9321,-17.0671],[27.9076,-17.1048],[27.8705,-17.1239],[27.8285,-17.1354],[27.8494,-17.1634],[27.8352,-17.1678],[27.8078,-17.1428],[27.7955,-17.1454],[27.7602,-17.1696],[27.6939,-17.2008],[27.7122,-17.2037],[27.6842,-17.239],[27.6633,-17.2305],[27.6624,-17.2437],[27.6745,-17.2732],[27.6445,-17.2938],[27.653,-17.3159],[27.6298,-17.3347],[27.6118,-17.3632],[27.5756,-17.4781],[27.5688,-17.4781],[27.5718,-17.443],[27.5621,-17.4371],[27.5544,-17.4954],[27.547,-17.5028],[27.4596,-17.5148],[27.4587,-17.5328],[27.4249,-17.5743],[27.4408,-17.5731],[27.4726,-17.5463],[27.4508,-17.579],[27.4334,-17.5887],[27.4181,-17.5811],[27.4105,-17.5878],[27.389,-17.5731],[27.3507,-17.6008],[27.2141,-17.7436],[27.2121,-17.7559],[27.2321,-17.7659],[27.2324,-17.7804],[27.2153,-17.7742],[27.2009,-17.7774],[27.1591,-17.808],[27.1711,-17.841],[27.1567,-17.8637],[27.0975,-17.9114],[27.0952,-17.9305],[27.0843,-17.9246],[27.0755,-17.9281],[27.0613,-17.9523],[27.0784,-17.9567],[27.0884,-17.9714],[27.0678,-17.9646],[27.0543,-17.9782],[27.0399,-17.9741],[27.0257,-17.9838],[27.0207,-17.9714],[27.0234,-17.9482],[27.0546,-17.919],[27.0613,-17.8958],[27.0802,-17.9019],[27.0808,-17.8828],[27.0999,-17.8757],[27.1049,-17.8696],[27.102,-17.8622],[27.1335,-17.8351],[27.1361,-17.8207],[27.1002,-17.841],[27.0884,-17.841],[27.0808,-17.8328],[27.0952,-17.8071],[27.0884,-17.8071],[27.0884,-17.8007],[27.109,-17.7939],[27.0884,-17.7804],[27.1396,-17.7283],[27.1635,-17.6873],[27.1776,-17.6909],[27.1829,-17.6806],[27.1776,-17.6706],[27.2041,-17.6464],[27.2279,-17.6373],[27.2297,-17.6164],[27.2462,-17.6152],[27.2462,-17.5946],[27.2653,-17.6079],[27.2862,-17.6043],[27.2971,-17.5581],[27.308,-17.5531],[27.3422,-17.5669],[27.3489,-17.5531],[27.3336,-17.5452],[27.3348,-17.5369],[27.3466,-17.534],[27.3628,-17.5402],[27.371,-17.5257],[27.3704,-17.4848],[27.3795,-17.456],[27.3495,-17.4516],[27.3219,-17.4645],[27.3124,-17.4539],[27.3145,-17.4401],[27.3227,-17.4283],[27.3448,-17.4159],[27.3866,-17.3653],[27.4493,-17.3114],[27.4311,-17.3073],[27.4384,-17.2938],[27.4175,-17.2767],[27.4322,-17.2667],[27.4726,-17.2623],[27.5173,-17.2249],[27.5141,-17.2037],[27.5203,-17.1804],[27.5244,-17.1707],[27.5482,-17.1634],[27.5482,-17.1325],[27.5688,-17.1219],[27.5788,-17.091],[27.603,-17.081],[27.6365,-17.0392],[27.6589,-17.0618],[27.6601,-17.0718],[27.6501,-17.0877],[27.6824,-17.0795],[27.7122,-17.0595],[27.6866,-17.0386],[27.6574,-17.0256],[27.6719,-17.0112],[27.7137,-17.0009],[27.7328,-16.985],[27.7372,-16.97],[27.7301,-16.9579],[27.7142,-16.9506],[27.6916,-16.9506],[27.7257,-16.9158],[27.7328,-16.9158],[27.7431,-16.9349],[27.7716,-16.9314],[27.822,-16.9093],[27.8635,-16.8996],[27.87,-16.892],[27.8152,-16.8752],[27.7769,-16.8461],[27.7881,-16.8375],[27.7878,-16.814],[27.7943,-16.8048],[27.8602,-16.8172],[27.87,-16.8104],[27.8717,-16.7889],[27.8561,-16.7722],[27.9041,-16.7722],[27.9197,-16.7642],[27.925,-16.766],[27.925,-16.7798],[27.9176,-16.8001],[27.9633,-16.7907],[27.973,-16.8001],[27.9742,-16.8163],[27.9662,-16.8357],[27.9798,-16.8481],[28.0065,-16.8537],[28.0401,-16.8472],[28.0707,-16.831],[28.0896,-16.8072],[28.0766,-16.8031],[28.0692,-16.8072],[28.0639,-16.7963],[28.076,-16.7834],[28.0822,-16.7445],[28.0972,-16.7413],[28.1305,-16.7586],[28.1402,-16.7195],[28.1652,-16.7121],[28.2008,-16.6892],[28.2052,-16.6768],[28.1758,-16.6909],[28.1787,-16.6547],[28.1652,-16.6359],[28.1858,-16.6306],[28.1991,-16.6362],[28.2194,-16.6624],[28.2255,-16.6494],[28.2444,-16.6571],[28.2464,-16.6079],[28.2653,-16.6179],[28.3289,-16.5941],[28.3227,-16.5791],[28.305,-16.5646],[28.2809,-16.5602],[28.2809,-16.5532],[28.295,-16.5532],[28.295,-16.5464],[28.2738,-16.5396],[28.2935,-16.5361],[28.3112,-16.5376],[28.3242,-16.5461],[28.3336,-16.5655],[28.3633,-16.5532],[28.3718,-16.5555],[28.3733,-16.5667],[28.3633,-16.5729],[28.3975,-16.6011],[28.4337,-16.5576],[28.439,-16.5429],[28.4802,-16.5317],[28.4869,-16.5122],[28.5052,-16.5205],[28.5108,-16.5602],[28.5479,-16.5423],[28.5626,-16.5464],[28.5755,-16.5258],[28.5532,-16.5261],[28.5346,-16.5178],[28.6209,-16.5011],[28.6615,-16.4781],[28.6803,-16.4813],[28.6853,-16.5178],[28.6983,-16.5326],[28.728,-16.5308],[28.7401,-16.5396],[28.7807,-16.5302],[28.8472,-16.5346],[28.8908,-16.5602],[28.884,-16.567],[28.8581,-16.5596],[28.8364,-16.567],[28.879,-16.5829],[28.9126,-16.5749],[28.9523,-16.5532],[28.9597,-16.5602],[28.9388,-16.5941],[28.9915,-16.6041]]]}},{"type":"Feature","properties":{"name":"Lac Tumba","scalerank":5},"geometry":{"type":"Polygon","coordinates":[[[18.0773,-0.9416],[18.0335,-0.9769],[18.0164,-0.9725],[18.0123,-0.9604],[18.0226,-0.9292],[18.0114,-0.9277],[18.0093,-0.8962],[17.9611,-0.8877],[17.9475,-0.8603],[17.919,-0.8318],[17.909,-0.7979],[17.9143,-0.7917],[17.9475,-0.7988],[17.9408,-0.7752],[17.9402,-0.7226],[17.9263,-0.7025],[17.9128,-0.7231],[17.8881,-0.7161],[17.8354,-0.724],[17.8098,-0.7164],[17.8171,-0.7096],[17.7992,-0.679],[17.7986,-0.6628],[17.8098,-0.6481],[17.8318,-0.6766],[17.8728,-0.6749],[17.9717,-0.6366],[18.0258,-0.6339],[18.042,-0.6569],[18.0773,-0.6616],[18.1189,-0.6958],[18.1189,-0.7164],[18.1088,-0.7223],[18.125,-0.747],[18.1121,-0.7564],[18.0915,-0.7505],[18.095,-0.7885],[18.0985,-0.7988],[18.1318,-0.8262],[18.1297,-0.8403],[18.1053,-0.8468],[18.0985,-0.8842],[18.1209,-0.9065],[18.125,-0.9354],[18.1627,-0.9839],[18.1318,-1.0037],[18.1247,-0.9901],[18.1144,-0.9872],[18.0729,-0.9972],[18.0732,-0.9769],[18.0847,-0.9527],[18.0773,-0.9416]]]}},{"type":"Feature","properties":{"name":"Lake Chad","scalerank":1},"geometry":{"type":"Polygon","coordinates":[[[14.7451,13.0758],[14.7681,13.0699],[14.6986,13.039],[14.6907,13.0095],[14.6786,12.9954],[14.6813,12.9777],[14.6371,12.973],[14.6195,12.9901],[14.5988,12.9963],[14.5715,12.9716],[14.5606,12.9845],[14.5509,12.986],[14.5091,12.978],[14.479,12.9524],[14.4734,12.9371],[14.462,12.9574],[14.4487,12.9265],[14.4325,12.9362],[14.4234,12.9309],[14.3984,12.9071],[14.4102,12.8944],[14.4066,12.8821],[14.3875,12.8824],[14.3725,12.873],[14.343,12.8791],[14.3186,12.8703],[14.3104,12.885],[14.2689,12.8883],[14.288,12.9042],[14.2733,12.9383],[14.2936,12.9468],[14.2718,12.9739],[14.2709,12.9848],[14.2474,12.9992],[14.2577,13.0098],[14.2939,13.0195],[14.2904,13.0422],[14.2739,13.0581],[14.3248,13.0572],[14.3024,13.109],[14.2789,13.1361],[14.3068,13.1267],[14.3628,13.0678],[14.3807,13.0637],[14.3713,13.1026],[14.3448,13.1187],[14.3004,13.1726],[14.3372,13.1591],[14.3563,13.1588],[14.3636,13.1629],[14.3642,13.1803],[14.374,13.1938],[14.4375,13.2235],[14.469,13.2144],[14.4643,13.2306],[14.5132,13.2512],[14.5367,13.2536],[14.6077,13.1929],[14.6142,13.2026],[14.6097,13.2174],[14.6318,13.2124],[14.6512,13.2159],[14.6674,13.2056],[14.6736,13.1885],[14.6668,13.177],[14.671,13.1644],[14.7028,13.1349],[14.7187,13.1279],[14.7187,13.0987],[14.7451,13.0758]]]}},{"type":"Feature","properties":{"name":"Lake Manyara","scalerank":5},"geometry":{"type":"Polygon","coordinates":[[[35.7389,-3.7613],[35.7471,-3.6527],[35.7371,-3.6244],[35.7389,-3.5944],[35.7666,-3.5667],[35.7666,-3.5334],[35.7845,-3.4737],[35.8113,-3.4278],[35.839,-3.4216],[35.8622,-3.4042],[35.8778,-3.4122],[35.8949,-3.459],[35.8817,-3.542],[35.859,-3.6005],[35.8693,-3.6609],[35.8652,-3.68],[35.8558,-3.7],[35.839,-3.6945],[35.8196,-3.7304],[35.7828,-3.7642],[35.7389,-3.7613]]]}},{"type":"Feature","properties":{"name":"Lake Kivu","scalerank":4},"geometry":{"type":"Polygon","coordinates":[[[29.3497,-2.0389],[29.3156,-2.0596],[29.3224,-2.0802],[29.3156,-2.1011],[29.3044,-2.0793],[29.2882,-2.0731],[29.2773,-2.0984],[29.2747,-2.1276],[29.2682,-2.1276],[29.2632,-2.1184],[29.2682,-2.0799],[29.2544,-2.0872],[29.2485,-2.0996],[29.2479,-2.1317],[29.272,-2.1526],[29.2747,-2.1693],[29.2523,-2.1482],[29.2243,-2.1496],[29.2061,-2.1682],[29.2137,-2.1973],[29.1937,-2.1947],[29.1831,-2.2059],[29.1858,-2.245],[29.1999,-2.2376],[29.1964,-2.2521],[29.1852,-2.2565],[29.1584,-2.245],[29.1169,-2.3265],[29.1242,-2.2859],[29.1169,-2.2859],[29.0963,-2.3209],[29.093,-2.313],[29.0827,-2.3133],[29.0816,-2.3318],[29.0577,-2.3851],[29.0418,-2.3954],[29.0621,-2.3548],[29.0527,-2.3404],[29.0471,-2.2924],[29.028,-2.2859],[29.0142,-2.3003],[28.9965,-2.3536],[28.9676,-2.3751],[28.9241,-2.3919],[28.9046,-2.409],[28.8873,-2.4619],[28.874,-2.4775],[28.8425,-2.4705],[28.8349,-2.429],[28.8417,-2.3733],[28.8555,-2.3604],[28.9597,-2.3104],[28.9724,-2.2641],[28.9729,-2.245],[28.9114,-2.3112],[28.884,-2.3265],[28.9191,-2.2789],[28.9258,-2.2527],[28.912,-2.2241],[28.8973,-2.2341],[28.8908,-2.2521],[28.8767,-2.245],[28.8634,-2.2588],[28.8705,-2.2241],[28.8596,-2.2176],[28.8581,-2.207],[28.8767,-2.1829],[28.8634,-2.1693],[28.889,-2.1646],[28.8979,-2.1499],[28.8882,-2.1381],[28.8567,-2.142],[28.8835,-2.1146],[28.9314,-2.0858],[28.9671,-2.0534],[28.9491,-1.9874],[28.9423,-1.9839],[28.92,-1.9833],[28.9049,-2.0148],[28.9167,-2.0236],[28.8908,-2.0534],[28.8911,-2.0289],[28.884,-2.0116],[28.912,-1.9633],[28.9282,-1.9677],[28.9464,-1.9439],[28.9938,-1.8335],[29.0242,-1.8029],[29.028,-1.7858],[29.0144,-1.7926],[29.0144,-1.7516],[29.0315,-1.7543],[29.0477,-1.7396],[29.0927,-1.671],[29.0975,-1.6495],[29.0827,-1.6145],[29.0206,-1.6901],[29.0144,-1.6901],[29.028,-1.6295],[29.0427,-1.5992],[29.0592,-1.5865],[29.0766,-1.5892],[29.1072,-1.6177],[29.1501,-1.6318],[29.2061,-1.676],[29.2546,-1.6966],[29.2479,-1.7207],[29.2682,-1.7305],[29.272,-1.7411],[29.2705,-1.7675],[29.2614,-1.779],[29.277,-1.799],[29.2797,-1.8485],[29.2882,-1.8676],[29.2758,-1.8873],[29.285,-1.908],[29.3091,-1.9327],[29.3118,-1.9256],[29.3315,-1.9712],[29.3377,-1.9768],[29.3497,-1.9701],[29.3465,-1.9889],[29.3639,-2.0357],[29.3612,-2.0513],[29.3556,-2.0513],[29.3497,-2.0389]],[[29.1169,-1.9433],[29.1151,-1.928],[29.1069,-1.9188],[29.0969,-1.9186],[29.0901,-1.9291],[29.076,-1.9156],[29.0509,-1.9515],[29.0442,-1.9715],[29.0418,-1.998],[29.0574,-1.9913],[29.0618,-2.0004],[29.056,-2.0322],[29.028,-2.0875],[29.0144,-2.1487],[28.9856,-2.1861],[28.9803,-2.2035],[29.0077,-2.1973],[29.0041,-2.2117],[29.0144,-2.2241],[29.028,-2.2173],[29.0153,-2.2347],[29.0144,-2.2588],[29.0362,-2.2621],[29.0686,-2.2459],[29.0939,-2.2203],[29.0895,-2.1741],[29.1095,-2.134],[29.1072,-2.1181],[29.076,-2.0669],[29.0889,-2.064],[29.093,-2.0454],[29.1136,-2.0357],[29.0963,-1.9571],[29.1169,-1.9433]]]}},{"type":"Feature","properties":{"name":"Lake Victoria","scalerank":0},"geometry":{"type":"Polygon","coordinates":[[[33.9183,-1.53],[33.8794,-1.5182],[33.8417,-1.5182],[33.8246,-1.5123],[33.8102,-1.4823],[33.7976,-1.4705],[33.7932,-1.4817],[33.7558,-1.4767],[33.7257,-1.4911],[33.681,-1.4664],[33.6675,-1.4643],[33.6539,-1.4705],[33.6474,-1.4823],[33.6527,-1.492],[33.6678,-1.5114],[33.6825,-1.5088],[33.6813,-1.535],[33.6713,-1.5491],[33.6265,-1.5556],[33.6124,-1.5662],[33.6274,-1.5727],[33.6466,-1.5662],[33.6539,-1.5842],[33.6745,-1.5803],[33.6869,-1.5977],[33.6878,-1.6154],[33.6678,-1.628],[33.6842,-1.6339],[33.7019,-1.628],[33.7093,-1.6368],[33.7087,-1.6601],[33.6878,-1.6754],[33.5432,-1.6754],[33.5506,-1.6901],[33.5783,-1.7101],[33.5989,-1.7381],[33.6056,-1.7305],[33.6466,-1.7619],[33.6413,-1.7752],[33.6177,-1.7755],[33.6124,-1.7687],[33.5783,-1.7584],[33.5674,-1.7655],[33.5688,-1.7799],[33.5571,-1.8035],[33.527,-1.8132],[33.5053,-1.8355],[33.4926,-1.8397],[33.4508,-1.8373],[33.4405,-1.8255],[33.4479,-1.7996],[33.3884,-1.7987],[33.3651,-1.8043],[33.3313,-1.8373],[33.3113,-1.8835],[33.3107,-1.9056],[33.283,-1.9224],[33.3142,-1.9445],[33.3925,-1.8971],[33.4276,-1.895],[33.4379,-1.8803],[33.4617,-1.8815],[33.4552,-1.8935],[33.4903,-1.9268],[33.4617,-1.9498],[33.5441,-1.9633],[33.5368,-1.9701],[33.5471,-1.9754],[33.558,-1.9701],[33.5733,-1.9871],[33.5506,-2.0289],[33.4964,-2.0254],[33.4314,-1.9813],[33.3999,-1.9721],[33.3722,-1.998],[33.4002,-2.0389],[33.386,-2.0428],[33.3796,-2.0534],[33.3404,-2.0189],[33.3242,-2.0166],[33.3245,-2.0457],[33.3178,-2.0457],[33.2969,-2.0113],[33.2815,-2.0004],[33.2698,-2.0116],[33.2848,-2.0189],[33.2924,-2.0316],[33.286,-2.0563],[33.2562,-2.0457],[33.2188,-2.0428],[33.2147,-2.0534],[33.2215,-2.0799],[33.2077,-2.1149],[33.2215,-2.142],[33.2395,-2.1217],[33.2595,-2.1111],[33.2824,-2.1111],[33.3366,-2.1358],[33.3581,-2.1676],[33.4002,-2.1558],[33.4493,-2.1511],[33.5094,-2.1532],[33.5662,-2.1632],[33.6056,-2.1829],[33.6421,-2.1467],[33.6666,-2.1376],[33.7493,-2.0858],[33.7864,-2.0949],[33.8158,-2.1231],[33.8314,-2.1626],[33.8246,-2.1973],[33.8385,-2.2206],[33.7599,-2.2697],[33.7154,-2.2791],[33.6678,-2.3133],[33.6486,-2.3083],[33.5974,-2.3566],[33.5323,-2.3786],[33.51,-2.4054],[33.5114,-2.4143],[33.527,-2.426],[33.53,-2.4402],[33.5153,-2.4487],[33.4935,-2.4484],[33.4758,-2.4357],[33.4075,-2.4672],[33.4617,-2.5017],[33.4508,-2.527],[33.4399,-2.5311],[33.4276,-2.5249],[33.422,-2.5323],[33.4276,-2.5529],[33.3999,-2.552],[33.3928,-2.5288],[33.3572,-2.5314],[33.3448,-2.5249],[33.3534,-2.5043],[33.3445,-2.4955],[33.3342,-2.5023],[33.3298,-2.5167],[33.3107,-2.5052],[33.2339,-2.5179],[33.2077,-2.5129],[33.1732,-2.4881],[33.17,-2.469],[33.147,-2.4628],[33.1385,-2.4525],[33.1191,-2.4163],[33.1194,-2.4001],[33.0805,-2.3889],[32.9993,-2.3804],[32.9628,-2.3884],[32.9265,-2.4093],[32.903,-2.4384],[32.9068,-2.4705],[32.8815,-2.4672],[32.8747,-2.4773],[32.878,-2.5076],[32.9015,-2.5326],[32.9068,-2.5497],[32.8656,-2.6015],[32.8697,-2.6344],[32.9095,-2.6792],[32.8992,-2.6901],[32.8809,-2.691],[32.8794,-2.7045],[32.9068,-2.731],[32.9204,-2.759],[32.9477,-2.7725],[32.9548,-2.7863],[32.9357,-2.8022],[32.9271,-2.8205],[32.9686,-2.8205],[32.9686,-2.8411],[32.9919,-2.8496],[33.0101,-2.8455],[33.0278,-2.8611],[33.0234,-2.8826],[32.9916,-2.8782],[32.9339,-2.8517],[32.9177,-2.8405],[32.908,-2.8246],[32.9068,-2.7999],[32.8992,-2.7999],[32.8909,-2.822],[32.8412,-2.8514],[32.8253,-2.8885],[32.825,-2.9229],[32.8094,-2.9609],[32.7629,-3.0121],[32.7555,-3.0121],[32.7455,-2.985],[32.7591,-2.9538],[32.7623,-2.9282],[32.7696,-2.9182],[32.7967,-2.9167],[32.7967,-2.91],[32.7455,-2.8773],[32.7284,-2.8826],[32.7205,-2.8696],[32.7817,-2.8367],[32.8474,-2.8243],[32.8447,-2.7931],[32.873,-2.7289],[32.8621,-2.7175],[32.8341,-2.7142],[32.8229,-2.7054],[32.827,-2.6924],[32.8447,-2.6765],[32.8256,-2.6656],[32.8106,-2.6689],[32.7967,-2.635],[32.8173,-2.6424],[32.8215,-2.6233],[32.8162,-2.5897],[32.8376,-2.5871],[32.8291,-2.5673],[32.8106,-2.5664],[32.8123,-2.55],[32.8309,-2.5302],[32.8376,-2.512],[32.8053,-2.4852],[32.7623,-2.4996],[32.7346,-2.5326],[32.7346,-2.4914],[32.7284,-2.4846],[32.6734,-2.5182],[32.6949,-2.4734],[32.6696,-2.434],[32.6596,-2.3804],[32.6351,-2.4222],[32.6248,-2.4672],[32.5495,-2.5385],[32.5247,-2.5529],[32.5021,-2.5461],[32.5162,-2.5182],[32.5486,-2.4823],[32.5506,-2.4357],[32.5436,-2.4357],[32.5094,-2.4705],[32.4921,-2.4558],[32.4753,-2.4628],[32.4338,-2.4566],[32.4411,-2.4357],[32.3714,-2.4322],[32.3581,-2.4163],[32.3611,-2.4037],[32.3202,-2.3539],[32.324,-2.3339],[32.339,-2.3348],[32.3443,-2.3413],[32.3611,-2.3289],[32.3287,-2.3156],[32.3099,-2.2718],[32.2586,-2.2839],[32.2419,-2.2791],[32.2277,-2.2521],[32.2189,-2.2509],[32.2139,-2.2624],[32.2239,-2.2727],[32.2215,-2.3209],[32.203,-2.3215],[32.1774,-2.3704],[32.1594,-2.3884],[32.1329,-2.3887],[32.1191,-2.371],[32.0776,-2.3675],[32.0664,-2.3857],[32.0679,-2.4246],[32.0979,-2.4357],[32.1079,-2.4599],[32.1668,-2.4964],[32.1736,-2.512],[32.1624,-2.5208],[32.1568,-2.5508],[32.1382,-2.5603],[32.1321,-2.5326],[32.1194,-2.5364],[32.1082,-2.5308],[32.1017,-2.5211],[32.1044,-2.512],[32.0867,-2.5032],[32.0699,-2.5052],[32.0749,-2.5155],[32.0699,-2.5249],[32.0296,-2.4705],[32.0228,-2.5052],[32.0161,-2.5052],[32.0072,-2.487],[31.994,-2.4908],[31.9858,-2.5079],[31.9919,-2.5288],[31.9919,-2.5838],[31.9828,-2.5909],[31.9484,-2.5882],[31.9342,-2.5944],[31.9357,-2.608],[31.9654,-2.6271],[31.9772,-2.6595],[31.9949,-2.6765],[31.9949,-2.7107],[32.0228,-2.7416],[32.0155,-2.7601],[31.999,-2.7684],[31.9808,-2.7657],[31.9684,-2.7522],[31.9599,-2.6957],[31.9372,-2.6901],[31.9387,-2.6618],[31.9319,-2.6486],[31.9063,-2.6559],[31.9045,-2.6347],[31.8995,-2.635],[31.8933,-2.6409],[31.9063,-2.7107],[31.8721,-2.7175],[31.8745,-2.7024],[31.858,-2.678],[31.8321,-2.6913],[31.8242,-2.7074],[31.8448,-2.7863],[31.8253,-2.8143],[31.7965,-2.834],[31.7829,-2.8149],[31.7894,-2.7257],[31.7865,-2.7186],[31.7597,-2.716],[31.7759,-2.6689],[31.7735,-2.6542],[31.785,-2.643],[31.8159,-2.64],[31.8171,-2.62],[31.8242,-2.615],[31.8556,-2.6174],[31.8583,-2.6009],[31.7547,-2.62],[31.7485,-2.6115],[31.7485,-2.5567],[31.7432,-2.547],[31.7197,-2.5391],[31.7144,-2.5217],[31.7179,-2.5076],[31.7553,-2.5052],[31.7712,-2.4979],[31.7965,-2.4628],[31.7894,-2.4408],[31.7962,-2.4249],[31.7759,-2.4163],[31.7594,-2.3931],[31.7553,-2.3613],[31.7712,-2.3636],[31.7723,-2.3574],[31.7485,-2.3413],[31.7553,-2.3265],[31.7252,-2.3204],[31.6593,-2.3613],[31.6337,-2.3563],[31.6319,-2.3236],[31.6528,-2.2883],[31.6522,-2.2588],[31.6723,-2.1994],[31.6693,-2.19],[31.6937,-2.142],[31.6805,-2.1149],[31.7008,-2.0766],[31.6864,-2.0596],[31.707,-2.0048],[31.6893,-2.006],[31.6661,-2.0254],[31.6352,-2.0254],[31.6213,-2.0407],[31.611,-2.0389],[31.6125,-2.0036],[31.6308,-1.948],[31.6737,-1.895],[31.6843,-1.8673],[31.6937,-1.7996],[31.7117,-1.7555],[31.7205,-1.676],[31.7541,-1.6198],[31.7609,-1.5965],[31.7417,-1.5662],[31.7526,-1.5376],[31.7488,-1.4938],[31.7553,-1.4658],[31.7965,-1.4841],[31.8012,-1.4708],[31.8053,-1.412],[31.8209,-1.3475],[31.8509,-1.278],[31.8586,-1.1823],[31.8701,-1.15],[31.8509,-1.1135],[31.8512,-1.0752],[31.8448,-1.059],[31.8739,-1.0246],[31.8618,-1.0187],[31.84,-1.0243],[31.8374,-0.9951],[31.8242,-0.9839],[31.8138,-1.0399],[31.7815,-1.0552],[31.7685,-1.0475],[31.767,-1.0296],[31.7879,-0.9887],[31.77,-0.9645],[31.7691,-0.8638],[31.7606,-0.8465],[31.7008,-0.8394],[31.699,-0.7994],[31.7179,-0.757],[31.7553,-0.7164],[31.7788,-0.6693],[31.7982,-0.6525],[31.7847,-0.6163],[31.7929,-0.576],[31.8277,-0.5227],[31.8468,-0.4715],[31.913,-0.4358],[31.9263,-0.4223],[31.9613,-0.3778],[31.9775,-0.3381],[31.9978,-0.3146],[32.019,-0.306],[32.0296,-0.3257],[32.0373,-0.3257],[32.0296,-0.2945],[32.0061,-0.2466],[31.9843,-0.2442],[31.9746,-0.2304],[31.9805,-0.1895],[31.9613,-0.1836],[31.9266,-0.1956],[31.9401,-0.1403],[31.9198,-0.1341],[31.9949,-0.0858],[32.0699,-0.0994],[32.0617,-0.0758],[32.0258,-0.0673],[32.0161,-0.0446],[32.0373,-0.0523],[32.0767,-0.0364],[32.1321,-0.0632],[32.17,-0.0726],[32.1883,-0.0685],[32.2062,-0.042],[32.208,-0.0243],[32.1936,0.0137],[32.208,0.0372],[32.2003,0.0166],[32.2154,-0.0034],[32.2413,-0.0214],[32.2692,-0.029],[32.2898,-0.0175],[32.2916,0.0019],[32.2483,0.044],[32.2557,0.0513],[32.3243,0.0269],[32.3522,0.0095],[32.3519,-0.0243],[32.379,-0.0243],[32.3687,-0.0037],[32.3749,0.054],[32.3655,0.0855],[32.3861,0.0917],[32.4011,0.0778],[32.4211,0.0828],[32.4391,0.0993],[32.4476,0.119],[32.4591,0.1087],[32.4579,0.0952],[32.4411,0.0713],[32.4196,0.0552],[32.4376,0.0337],[32.452,0.0301],[32.4882,0.0834],[32.4959,0.0855],[32.5094,0.0513],[32.53,0.0781],[32.5471,0.0658],[32.5574,0.044],[32.5701,0.0605],[32.5439,0.1023],[32.5506,0.119],[32.578,0.1052],[32.588,0.1079],[32.5715,0.1335],[32.5983,0.1402],[32.5983,0.147],[32.5715,0.1614],[32.5754,0.1747],[32.563,0.1897],[32.568,0.1985],[32.5948,0.1962],[32.5983,0.2085],[32.616,0.2115],[32.6454,0.2909],[32.6628,0.2889],[32.6669,0.2768],[32.6634,0.2633],[32.6478,0.2477],[32.6481,0.2309],[32.6566,0.2221],[32.6734,0.2365],[32.6808,0.2221],[32.6575,0.1832],[32.6613,0.1717],[32.6905,0.1673],[32.6993,0.1741],[32.7149,0.2085],[32.7249,0.2059],[32.7417,0.1738],[32.704,0.1402],[32.6531,0.1335],[32.6666,0.0917],[32.6822,0.089],[32.7561,0.1261],[32.7967,0.1061],[32.7991,0.1388],[32.8106,0.1614],[32.8173,0.1614],[32.8223,0.1497],[32.8591,0.147],[32.8515,0.1811],[32.8591,0.1811],[32.8641,0.1688],[32.8777,0.1906],[32.893,0.1956],[32.8856,0.1811],[32.8992,0.1811],[32.8859,0.1611],[32.8874,0.1526],[32.8992,0.147],[32.8777,0.1364],[32.8715,0.127],[32.8762,0.1158],[32.8927,0.1073],[32.893,0.0887],[32.9012,0.0769],[32.9207,0.0778],[32.9863,0.1011],[33.0776,0.1661],[33.092,0.1862],[33.1052,0.2221],[33.0431,0.2288],[33.0787,0.25],[33.0711,0.263],[33.1238,0.2471],[33.1129,0.2256],[33.117,0.2144],[33.1264,0.2171],[33.1394,0.2288],[33.1388,0.2474],[33.1673,0.263],[33.1506,0.2974],[33.1538,0.3163],[33.2386,0.3519],[33.2698,0.3731],[33.2668,0.3904],[33.1929,0.406],[33.1874,0.4281],[33.2109,0.4228],[33.2359,0.4272],[33.2503,0.4405],[33.2418,0.4617],[33.283,0.4829],[33.2907,0.4396],[33.3186,0.4375],[33.3457,0.4564],[33.366,0.497],[33.3893,0.4846],[33.3498,0.4219],[33.366,0.4072],[33.3493,0.3919],[33.3101,0.3819],[33.3178,0.3519],[33.366,0.3731],[33.369,0.3551],[33.3593,0.3389],[33.3949,0.3413],[33.4276,0.3245],[33.4243,0.3389],[33.4137,0.3457],[33.442,0.3563],[33.4691,0.3519],[33.4549,0.3457],[33.4658,0.3307],[33.4947,0.3189],[33.4891,0.3048],[33.5082,0.3004],[33.5079,0.2833],[33.495,0.2703],[33.4758,0.2774],[33.4891,0.2836],[33.459,0.2945],[33.4343,0.2909],[33.4002,0.2977],[33.4134,0.2836],[33.4343,0.2774],[33.4208,0.27],[33.4479,0.2568],[33.4264,0.2436],[33.4823,0.1879],[33.4891,0.1879],[33.4864,0.2162],[33.4926,0.2365],[33.5011,0.2321],[33.5038,0.2215],[33.5026,0.1956],[33.5306,0.2221],[33.5162,0.1811],[33.5312,0.1856],[33.5368,0.2018],[33.5441,0.2018],[33.5459,0.1859],[33.5556,0.1797],[33.5665,0.1838],[33.58,0.2076],[33.6174,0.2271],[33.6262,0.2462],[33.6198,0.311],[33.6421,0.3233],[33.6678,0.311],[33.6857,0.326],[33.7087,0.3322],[33.749,0.3192],[33.7558,0.311],[33.7151,0.2983],[33.7019,0.2842],[33.6951,0.263],[33.7184,0.2689],[33.7428,0.263],[33.7098,0.2153],[33.7087,0.2018],[33.7219,0.1932],[33.777,0.1879],[33.7876,0.1979],[33.7899,0.2365],[33.8046,0.2203],[33.8179,0.1538],[33.8314,0.2085],[33.8938,0.1738],[33.8953,0.1923],[33.9159,0.2044],[33.9209,0.2191],[33.9818,0.2656],[34.0036,0.2256],[33.9916,0.1811],[33.9883,0.119],[33.9824,0.1061],[33.958,0.1058],[33.9551,0.0952],[33.9618,0.0575],[33.986,0.0381],[33.996,-0.0405],[34.0301,-0.0523],[34.0207,-0.0705],[34.0437,-0.0726],[34.0649,-0.1067],[34.0719,-0.0726],[34.0649,-0.0726],[34.0769,-0.0635],[34.1234,-0.0585],[34.1349,-0.0649],[34.1128,-0.1067],[34.1287,-0.1064],[34.1384,-0.1115],[34.1379,-0.1173],[34.0855,-0.1403],[34.094,-0.1689],[34.1223,-0.1853],[34.1879,-0.1889],[34.185,-0.2089],[34.1958,-0.2212],[34.2491,-0.2522],[34.2532,-0.2645],[34.2365,-0.2987],[34.2512,-0.299],[34.2568,-0.3051],[34.2432,-0.3257],[34.2771,-0.3464],[34.2709,-0.3811],[34.288,-0.3964],[34.303,-0.3905],[34.3254,-0.3413],[34.3763,-0.3019],[34.3869,-0.2848],[34.3831,-0.2442],[34.3728,-0.2233],[34.3574,-0.2289],[34.3463,-0.2198],[34.3416,-0.2039],[34.3454,-0.1889],[34.3598,-0.1794],[34.4069,-0.1827],[34.4466,-0.1683],[34.5055,-0.1809],[34.5485,-0.1494],[34.6003,-0.1374],[34.6465,-0.117],[34.6745,-0.0897],[34.7228,-0.0911],[34.7366,-0.0858],[34.7313,-0.1379],[34.7434,-0.1621],[34.7501,-0.1544],[34.7681,-0.1792],[34.7952,-0.1956],[34.8328,-0.2713],[34.8546,-0.2875],[34.8379,-0.309],[34.829,-0.3122],[34.8093,-0.3063],[34.7828,-0.2869],[34.7707,-0.2913],[34.7495,-0.2872],[34.7537,-0.3358],[34.7404,-0.3402],[34.6583,-0.3449],[34.613,-0.3319],[34.5868,-0.3358],[34.5623,-0.3184],[34.5441,-0.3257],[34.4979,-0.3293],[34.4487,-0.3464],[34.4493,-0.397],[34.4569,-0.4241],[34.4999,-0.4414],[34.5055,-0.4679],[34.5032,-0.4768],[34.424,-0.525],[34.4075,-0.5218],[34.4204,-0.4974],[34.4187,-0.4891],[34.404,-0.46],[34.386,-0.4447],[34.3592,-0.442],[34.3657,-0.4591],[34.3607,-0.4726],[34.3477,-0.4794],[34.3313,-0.4768],[34.3112,-0.4494],[34.3048,-0.4523],[34.3045,-0.4606],[34.3112,-0.4768],[34.2847,-0.4659],[34.2444,-0.4294],[34.2159,-0.4285],[34.2226,-0.4152],[34.1891,-0.4223],[34.1744,-0.4509],[34.1611,-0.5177],[34.1502,-0.5315],[34.1025,-0.5321],[34.0855,-0.5518],[34.0575,-0.5586],[34.0828,-0.5863],[34.0855,-0.5995],[34.0725,-0.6169],[34.0545,-0.6275],[34.0478,-0.6413],[34.0375,-0.7305],[34.0575,-0.7281],[34.0675,-0.7487],[34.0719,-0.7953],[34.1196,-0.8262],[34.1749,-0.8468],[34.1832,-0.8712],[34.1399,-0.9118],[34.1246,-0.9778],[34.1334,-1.0037],[34.0719,-0.9701],[34.066,-0.996],[34.0584,-1.0022],[34.0375,-0.9975],[34.0481,-1.0119],[34.0634,-1.0157],[34.0922,-1.0037],[34.0978,-1.019],[34.0725,-1.0252],[34.0649,-1.0355],[34.0754,-1.0484],[34.0719,-1.059],[34.0336,-1.0823],[34.0233,-1.1005],[33.9757,-1.1052],[33.9927,-1.1382],[33.9633,-1.1726],[33.9006,-1.2088],[33.8862,-1.2233],[33.8732,-1.2559],[33.8859,-1.2777],[33.9088,-1.2857],[33.9339,-1.278],[33.9277,-1.2986],[33.9668,-1.3163],[33.9827,-1.3331],[33.9892,-1.3501],[33.9857,-1.3699],[33.9795,-1.376],[33.9689,-1.3743],[33.9757,-1.3537],[33.9618,-1.3401],[33.9053,-1.3207],[33.8214,-1.3263],[33.8043,-1.3195],[33.7926,-1.3342],[33.8246,-1.3743],[33.8179,-1.3878],[33.832,-1.3831],[33.8438,-1.3875],[33.8588,-1.4084],[33.7976,-1.3878],[33.7814,-1.3975],[33.7814,-1.4096],[33.7911,-1.4214],[33.8043,-1.429],[33.8302,-1.4276],[33.8473,-1.4334],[33.8673,-1.4708],[33.8794,-1.4705],[33.8909,-1.4802],[33.8938,-1.4976],[33.9277,-1.4841],[33.9448,-1.5114],[33.9559,-1.5185],[33.9448,-1.5256],[33.9277,-1.5182],[33.9183,-1.53]],[[34.1196,-0.4152],[34.1196,-0.4279],[34.1611,-0.4358],[34.2041,-0.4073],[34.2173,-0.389],[34.2226,-0.3602],[34.202,-0.3949],[34.1911,-0.3946],[34.1673,-0.367],[34.1537,-0.4011],[34.1196,-0.4152]],[[33.9456,-0.4729],[34.0172,-0.5047],[34.049,-0.49],[34.0619,-0.4744],[34.054,-0.4673],[34.0451,-0.4373],[34.0304,-0.4323],[33.9642,-0.445],[33.9509,-0.455],[33.9456,-0.4729]],[[31.8106,-1.8194],[31.8406,-1.7952],[31.8492,-1.7799],[31.8509,-1.7584],[31.8424,-1.7516],[31.838,-1.7516],[31.8365,-1.7746],[31.8159,-1.8008],[31.8106,-1.8194]],[[31.7691,-2.1352],[31.798,-2.1514],[31.8247,-2.1305],[31.7932,-2.1243],[31.785,-2.1149],[31.7826,-2.0875],[31.7759,-2.0799],[31.7641,-2.1211],[31.7691,-2.1352]],[[31.921,-2.3981],[31.8995,-2.3548],[31.9078,-2.3218],[31.8689,-2.3101],[31.8448,-2.2241],[31.8403,-2.2156],[31.8177,-2.2029],[31.8168,-2.1829],[31.8106,-2.1829],[31.7909,-2.2341],[31.7882,-2.2597],[31.8106,-2.2521],[31.808,-2.2677],[31.7903,-2.2889],[31.7759,-2.2859],[31.7826,-2.3209],[31.803,-2.3159],[31.8303,-2.3227],[31.8168,-2.3339],[31.8509,-2.3748],[31.838,-2.426],[31.8483,-2.4546],[31.8601,-2.4605],[31.8754,-2.4537],[31.9198,-2.4163],[31.921,-2.3981]],[[31.9401,-1.6622],[31.9198,-1.628],[31.8924,-1.6109],[31.8583,-1.6212],[31.8718,-1.653],[31.8721,-1.6901],[31.8671,-1.6907],[31.8654,-1.6828],[31.8583,-1.7449],[31.8886,-1.6913],[31.8995,-1.6351],[31.9401,-1.6622]],[[32.0714,-2.278],[32.0676,-2.2671],[32.0599,-2.2653],[32.0502,-2.2791],[32.044,-2.2791],[32.057,-2.245],[32.0502,-2.2521],[32.044,-2.2315],[32.0258,-2.2335],[31.9601,-2.2715],[31.951,-2.2771],[31.951,-2.2924],[31.9813,-2.293],[31.9852,-2.3089],[31.9546,-2.3474],[31.9699,-2.3436],[31.9778,-2.3675],[32.0376,-2.351],[32.0502,-2.3413],[32.0714,-2.278]],[[32.324,-0.354],[32.319,-0.3375],[32.2898,-0.2987],[32.2772,-0.309],[32.2831,-0.3257],[32.2734,-0.3302],[32.256,-0.3269],[32.2483,-0.3184],[32.2557,-0.3054],[32.1874,-0.3275],[32.1662,-0.3257],[32.153,-0.3116],[32.1562,-0.2916],[32.1736,-0.2575],[32.1724,-0.2398],[32.1574,-0.2345],[32.1117,-0.2371],[32.0738,-0.2304],[32.0644,-0.2351],[32.0646,-0.2545],[32.0502,-0.2575],[32.0502,-0.2639],[32.0917,-0.2804],[32.1117,-0.3054],[32.1044,-0.3222],[32.1441,-0.3381],[32.1724,-0.3408],[32.1936,-0.3319],[32.2283,-0.3605],[32.2215,-0.3737],[32.248,-0.3967],[32.2483,-0.4085],[32.2421,-0.4135],[32.2251,-0.4091],[32.2165,-0.3987],[32.1971,-0.4285],[32.1706,-0.4355],[32.1677,-0.4715],[32.1324,-0.5253],[32.1382,-0.5383],[32.1662,-0.5383],[32.1736,-0.5047],[32.1936,-0.5109],[32.1874,-0.47],[32.2419,-0.4638],[32.2386,-0.4835],[32.2589,-0.4903],[32.2719,-0.4723],[32.2831,-0.47],[32.2707,-0.3867],[32.2828,-0.3531],[32.324,-0.354]],[[32.3375,-0.2501],[32.3519,-0.2713],[32.3699,-0.2698],[32.3396,-0.2159],[32.3125,-0.198],[32.2966,-0.203],[32.324,-0.2198],[32.3313,-0.2304],[32.3216,-0.2354],[32.3228,-0.2498],[32.3313,-0.2575],[32.3375,-0.2501]],[[32.3608,-0.3755],[32.4135,-0.367],[32.4135,-0.3602],[32.4002,-0.3569],[32.379,-0.3319],[32.3693,-0.3343],[32.3687,-0.3443],[32.379,-0.367],[32.3519,-0.3602],[32.3608,-0.3755]],[[32.5368,-2.3071],[32.5327,-2.2839],[32.4959,-2.2859],[32.5021,-2.3209],[32.4747,-2.3245],[32.465,-2.3142],[32.4679,-2.2718],[32.4464,-2.2839],[32.4338,-2.2656],[32.4076,-2.3421],[32.4099,-2.3548],[32.4264,-2.3622],[32.4411,-2.4163],[32.4626,-2.4184],[32.4818,-2.4022],[32.4921,-2.4043],[32.5068,-2.3966],[32.5194,-2.3831],[32.5233,-2.3675],[32.5162,-2.3748],[32.5121,-2.3589],[32.5368,-2.3071]],[[32.5436,-0.3737],[32.5162,-0.3873],[32.5041,-0.384],[32.5021,-0.4085],[32.4897,-0.4185],[32.4541,-0.4285],[32.4771,-0.4417],[32.4729,-0.4609],[32.4411,-0.4903],[32.4485,-0.5021],[32.4617,-0.5047],[32.4812,-0.4921],[32.4865,-0.4818],[32.4818,-0.47],[32.5006,-0.4585],[32.5212,-0.4205],[32.5233,-0.3949],[32.53,-0.3949],[32.5368,-0.4085],[32.5436,-0.3737]],[[32.7496,-0.0273],[32.7629,-0.0523],[32.8032,-0.009],[32.8109,0.0192],[32.7894,0.0372],[32.7894,0.0166],[32.7735,0.0207],[32.767,0.0116],[32.7696,-0.0175],[32.7538,-0.0184],[32.7496,-0.0273]],[[32.8173,-0.0858],[32.7932,-0.0802],[32.7853,-0.0867],[32.7832,-0.0994],[32.7629,-0.0932],[32.7658,-0.077],[32.7588,-0.0599],[32.7346,-0.0379],[32.7555,-0.0858],[32.739,-0.0776],[32.7346,-0.0585],[32.724,-0.0723],[32.7075,-0.0652],[32.7143,-0.0979],[32.7075,-0.1067],[32.684,-0.0941],[32.6734,-0.1067],[32.6596,-0.0994],[32.6654,-0.1112],[32.6858,-0.1209],[32.7187,-0.1256],[32.7408,-0.115],[32.7555,-0.1206],[32.7417,-0.1273],[32.7417,-0.1341],[32.7864,-0.1215],[32.8173,-0.0858]],[[33.0093,-1.8194],[32.9954,-1.8194],[33.0037,-1.8491],[32.9969,-1.8588],[33.0234,-1.8882],[33.0372,-1.895],[33.0882,-1.8538],[33.0917,-1.8367],[33.0787,-1.8132],[33.0934,-1.8167],[33.097,-1.8079],[33.0834,-1.7955],[33.0157,-1.8005],[33.0057,-1.8052],[33.0093,-1.8194]],[[33.1809,-2.1487],[33.1862,-2.1167],[33.1735,-2.1149],[33.1347,-2.074],[33.147,-2.0669],[33.147,-2.0596],[33.1093,-2.0513],[33.1005,-2.0434],[33.1202,-2.0113],[33.1052,-1.9668],[33.0469,-1.9774],[33.0272,-1.9733],[33.0234,-1.9807],[32.9925,-1.9913],[32.941,-1.9633],[32.9315,-1.948],[32.9477,-1.9094],[32.9204,-1.895],[32.8515,-1.9433],[32.8415,-1.9309],[32.825,-1.9291],[32.8515,-1.9701],[32.8992,-1.9774],[32.8874,-2.003],[32.845,-2.0507],[32.8532,-2.0719],[32.8715,-2.0663],[32.9286,-2.0922],[32.996,-2.099],[33.0558,-2.1405],[33.0746,-2.1328],[33.0787,-2.1217],[33.1417,-2.1667],[33.1735,-2.1693],[33.1635,-2.154],[33.1676,-2.1476],[33.1809,-2.1487]],[[33.1947,0.1614],[33.1768,0.1614],[33.1659,0.147],[33.1641,0.1255],[33.1735,0.1061],[33.1809,0.1173],[33.1841,0.1499],[33.1947,0.1614]],[[33.3039,0.044],[33.283,0.044],[33.2904,0.0637],[33.2503,0.0496],[33.2477,0.0354],[33.2562,0.0104],[33.2845,0.0219],[33.3039,0.044]],[[33.4002,0.2568],[33.371,0.2977],[33.3519,0.2977],[33.3519,0.2909],[33.3657,0.2851],[33.3722,0.27],[33.3569,0.2745],[33.3498,0.2671],[33.3519,0.2427],[33.3381,0.25],[33.3292,0.2391],[33.3198,0.2403],[33.3145,0.248],[33.3178,0.263],[33.296,0.2633],[33.2939,0.2742],[33.3178,0.2977],[33.2983,0.3051],[33.2386,0.2977],[33.205,0.2559],[33.2551,0.2079],[33.2621,0.1915],[33.2456,0.1811],[33.2077,0.1879],[33.2283,0.1538],[33.2468,0.165],[33.2645,0.1532],[33.2792,0.1299],[33.283,0.1061],[33.3013,0.1176],[33.3039,0.1402],[33.3107,0.1402],[33.3101,0.1002],[33.3163,0.0849],[33.3392,0.0799],[33.3448,0.0855],[33.3245,0.097],[33.3192,0.119],[33.3251,0.1417],[33.3381,0.1538],[33.3178,0.1714],[33.3169,0.1841],[33.3245,0.1956],[33.3183,0.2109],[33.3248,0.2191],[33.3363,0.2174],[33.3448,0.2018],[33.3593,0.2174],[33.3722,0.2159],[33.3869,0.2512],[33.4002,0.2568]],[[33.7287,-0.1088],[33.719,-0.0994],[33.7048,-0.1041],[33.6539,-0.1341],[33.6539,-0.1403],[33.6816,-0.1397],[33.6951,-0.1621],[33.7019,-0.1544],[33.7154,-0.1683],[33.7287,-0.1088]],[[33.7696,0.0781],[33.8314,0.0637],[33.8635,0.0737],[33.8794,0.0637],[33.8826,0.0787],[33.8667,0.0905],[33.8438,0.0958],[33.8246,0.0917],[33.8123,0.1152],[33.7861,0.1158],[33.7655,0.1008],[33.7696,0.0781]]]}},{"type":"Feature","properties":{"name":"Lake Edward","scalerank":4},"geometry":{"type":"Polygon","coordinates":[[[29.4522,-0.6069],[29.4377,-0.6095],[29.4389,-0.6201],[29.398,-0.6816],[29.3918,-0.6693],[29.3774,-0.6896],[29.37,-0.6896],[29.3774,-0.6481],[29.3756,-0.6098],[29.37,-0.5995],[29.3556,-0.5933],[29.3091,-0.5927],[29.3112,-0.5665],[29.3341,-0.5389],[29.3444,-0.5144],[29.3091,-0.4974],[29.3197,-0.4818],[29.3568,-0.4638],[29.3918,-0.422],[29.3845,-0.3976],[29.3924,-0.3758],[29.4383,-0.3193],[29.4466,-0.2575],[29.4636,-0.2159],[29.4934,-0.1812],[29.5319,-0.155],[29.6747,-0.1141],[29.7071,-0.0726],[29.7324,-0.0694],[29.7545,-0.0776],[29.7695,-0.0944],[29.7807,-0.1262],[29.8095,-0.1309],[29.8113,-0.1518],[29.8231,-0.1621],[29.8363,-0.1636],[29.8637,-0.1477],[29.9017,-0.1403],[29.8669,-0.2943],[29.8301,-0.3602],[29.7465,-0.4199],[29.6859,-0.4358],[29.6723,-0.4473],[29.6491,-0.4771],[29.6261,-0.4912],[29.6111,-0.5456],[29.5879,-0.5804],[29.5549,-0.603],[29.4798,-0.6413],[29.4704,-0.616],[29.4522,-0.6069]]]}},{"type":"Feature","properties":{"name":"Lake Kyoga","scalerank":5},"geometry":{"type":"Polygon","coordinates":[[[33.4964,1.6547],[33.4891,1.6547],[33.4964,1.6335],[33.4031,1.6494],[33.3519,1.6418],[33.3178,1.6132],[33.2874,1.6232],[33.2601,1.6118],[33.2147,1.572],[33.1979,1.5738],[33.1753,1.5647],[33.1556,1.5499],[33.1411,1.5232],[33.0952,1.507],[33.0929,1.4922],[33.1082,1.4808],[33.147,1.469],[33.17,1.4684],[33.2215,1.4902],[33.2147,1.4766],[33.2762,1.4858],[33.2771,1.469],[33.2621,1.4763],[33.2498,1.4705],[33.2442,1.4572],[33.2495,1.4419],[33.1997,1.4393],[33.1532,1.4137],[33.1662,1.4004],[33.2215,1.3945],[33.2215,1.3872],[33.1947,1.3945],[33.203,1.3813],[33.2224,1.378],[33.2433,1.383],[33.2562,1.3945],[33.2783,1.383],[33.2866,1.3919],[33.2904,1.4213],[33.3325,1.4237],[33.3381,1.4137],[33.3292,1.4036],[33.3066,1.4031],[33.3107,1.3804],[33.3331,1.3719],[33.3245,1.3636],[33.3272,1.3545],[33.3519,1.3318],[33.3292,1.3047],[33.3178,1.3115],[33.2845,1.2983],[33.2624,1.2809],[33.2739,1.2323],[33.2698,1.2158],[33.2568,1.2273],[33.2418,1.2226],[33.2336,1.2656],[33.2147,1.3053],[33.2009,1.2977],[33.1865,1.3115],[33.1747,1.308],[33.1532,1.2847],[33.1129,1.2774],[33.13,1.3256],[33.1026,1.3489],[33.0946,1.3477],[33.0678,1.3674],[33.0475,1.3589],[33.0284,1.3757],[32.9784,1.3948],[32.941,1.4228],[32.8995,1.4413],[32.8515,1.4281],[32.8727,1.4213],[32.8591,1.3945],[32.8515,1.3945],[32.8376,1.4137],[32.8438,1.3842],[32.8797,1.3401],[32.893,1.3115],[32.8653,1.3256],[32.8794,1.2977],[32.8585,1.3089],[32.8312,1.4013],[32.8112,1.3989],[32.7832,1.421],[32.7629,1.4137],[32.742,1.4163],[32.7243,1.3992],[32.7199,1.3777],[32.7487,1.3639],[32.7567,1.3495],[32.7726,1.3418],[32.7764,1.3053],[32.7382,1.3536],[32.6772,1.3742],[32.6195,1.3804],[32.5842,1.3969],[32.5374,1.4507],[32.5577,1.4993],[32.5568,1.514],[32.5436,1.5237],[32.5609,1.5311],[32.5824,1.5052],[32.6019,1.497],[32.6808,1.4902],[32.7396,1.5382],[32.7576,1.5714],[32.8106,1.6],[32.8173,1.6],[32.8182,1.5903],[32.8106,1.5652],[32.7967,1.5788],[32.7888,1.5652],[32.7964,1.5432],[32.8106,1.5379],[32.8421,1.5564],[32.8515,1.5517],[32.8709,1.5588],[32.8992,1.5558],[32.9136,1.572],[32.9357,1.5535],[32.9798,1.5679],[32.9954,1.5585],[32.9825,1.5379],[33.0084,1.5423],[33.0334,1.5602],[33.0893,1.6118],[33.0876,1.6356],[33.1076,1.6497],[33.1164,1.6456],[33.1164,1.6359],[33.1052,1.6206],[33.1249,1.6056],[33.1332,1.6062],[33.1559,1.6303],[33.1606,1.6274],[33.1532,1.6206],[33.1706,1.6271],[33.1759,1.6494],[33.1921,1.6715],[33.2077,1.6683],[33.2144,1.6556],[33.2239,1.653],[33.2418,1.6889],[33.2515,1.6921],[33.2592,1.6821],[33.2509,1.6745],[33.2503,1.6577],[33.2577,1.6412],[33.2736,1.6335],[33.3245,1.6745],[33.3928,1.6889],[33.4379,1.774],[33.4549,1.7639],[33.4399,1.7551],[33.4343,1.7324],[33.4361,1.6706],[33.4552,1.6848],[33.4758,1.6889],[33.4691,1.6547],[33.4838,1.6603],[33.4964,1.6547]],[[32.8653,1.4487],[32.7514,1.4469],[32.727,1.4616],[32.7149,1.4622],[32.7326,1.4416],[32.7511,1.4313],[32.8038,1.4354],[32.8241,1.4251],[32.8653,1.4419],[32.8653,1.4487]]]}},{"type":"Feature","properties":{"name":null,"scalerank":4},"geometry":{"type":"Polygon","coordinates":[[[33.1606,1.6335],[33.1559,1.6303],[33.1547,1.6315],[33.1556,1.6321],[33.1606,1.6335]]]}},{"type":"Feature","properties":{"name":"Lake Albert","scalerank":0},"geometry":{"type":"Polygon","coordinates":[[[31.3605,2.2623],[31.3617,2.1993],[31.3894,2.161],[31.3947,2.1375],[31.3785,2.1207],[31.4038,2.0583],[31.4053,2.0248],[31.3855,1.9974],[31.4038,1.9532],[31.4062,1.9147],[31.3947,1.8631],[31.3811,1.8378],[31.3596,1.8243],[31.3308,1.8328],[31.322,1.8122],[31.3096,1.7372],[31.2958,1.7118],[31.1839,1.6144],[31.1112,1.5788],[31.0756,1.5861],[31.0632,1.5788],[31.0497,1.5864],[31.0367,1.5561],[30.9467,1.5176],[30.8984,1.4334],[30.7309,1.2397],[30.7206,1.2241],[30.7144,1.1749],[30.604,1.0581],[30.6067,1.0483],[30.5905,1.0445],[30.604,1.0377],[30.604,1.0316],[30.5775,1.028],[30.556,1.0445],[30.5337,1.0139],[30.5357,1.0581],[30.5063,1.0345],[30.4977,1.0345],[30.4919,1.0448],[30.5078,1.0725],[30.5098,1.0946],[30.488,1.1408],[30.4942,1.1599],[30.4863,1.1991],[30.5078,1.2091],[30.5078,1.2158],[30.4668,1.2506],[30.4551,1.2715],[30.4524,1.2297],[30.4462,1.2364],[30.4327,1.2226],[30.4212,1.2541],[30.4077,1.2612],[30.3924,1.2568],[30.3985,1.2977],[30.3859,1.3103],[30.393,1.3239],[30.4221,1.3395],[30.4768,1.4416],[30.4986,1.509],[30.526,1.529],[30.5493,1.5652],[30.6214,1.6029],[30.6385,1.6456],[30.6541,1.663],[30.7344,1.7157],[30.745,1.7457],[30.8162,1.7987],[30.9125,1.9067],[30.954,1.9291],[31.0049,1.9409],[31.067,2.0027],[31.1112,2.0315],[31.1521,2.0451],[31.2016,2.1066],[31.2369,2.1169],[31.2413,2.1475],[31.2943,2.1908],[31.3252,2.2623],[31.3676,2.31],[31.4509,2.3483],[31.4612,2.3597],[31.4747,2.4083],[31.4744,2.3589],[31.468,2.3359],[31.412,2.3094],[31.3726,2.2794],[31.3605,2.2623]]]}},{"type":"Feature","properties":{"name":"Lake Turkana","scalerank":3},"geometry":{"type":"Polygon","coordinates":[[[36.7097,2.7303],[36.6879,2.7153],[36.7,2.6462],[36.6938,2.5452],[36.7082,2.5084],[36.7024,2.4863],[36.6358,2.4089],[36.6217,2.4033],[36.5817,2.4074],[36.5581,2.3945],[36.5319,2.4227],[36.5178,2.5517],[36.4769,2.6117],[36.4433,2.6306],[36.4365,2.6544],[36.436,2.7303],[36.3806,2.8463],[36.2614,2.9385],[36.2473,2.9806],[36.2396,2.982],[36.2131,2.9632],[36.1822,2.9835],[36.1419,2.9823],[36.1266,2.9876],[36.1207,3.0079],[36.1481,3.1165],[36.1345,3.1722],[36.1481,3.2131],[36.1428,3.2199],[36.1063,3.2163],[36.0283,3.2525],[35.9965,3.3058],[35.9479,3.3394],[35.94,3.5407],[35.9258,3.5522],[35.9226,3.5425],[35.9358,3.4975],[35.9182,3.4813],[35.9079,3.4957],[35.8961,3.5613],[35.8531,3.6005],[35.8413,3.6302],[35.8334,3.7197],[35.8402,3.7583],[35.8605,3.7924],[35.8531,3.8372],[35.854,3.959],[35.9226,4.118],[35.9152,4.4229],[35.9494,4.5769],[35.9703,4.6172],[35.9882,4.6352],[36.0041,4.6352],[36.0071,4.591],[36.0294,4.5539],[36.0321,4.5254],[36.038,4.5254],[36.0583,4.5604],[36.0386,4.5728],[36.025,4.6034],[36.0247,4.6149],[36.0433,4.6366],[36.0745,4.6434],[36.1066,4.6378],[36.1269,4.6216],[36.1236,4.6631],[36.1548,4.664],[36.1675,4.6602],[36.1866,4.6246],[36.1855,4.616],[36.1684,4.6149],[36.1981,4.5472],[36.2031,4.5157],[36.1958,4.4783],[36.2072,4.4624],[36.2084,4.4427],[36.1884,4.3393],[36.2149,4.2858],[36.2149,4.2298],[36.2231,4.2148],[36.2161,4.1998],[36.237,4.1827],[36.2446,4.1451],[36.2429,4.1236],[36.2249,4.0879],[36.2161,4.032],[36.1984,3.9793],[36.1816,3.962],[36.1855,3.9428],[36.219,3.8798],[36.247,3.7795],[36.2646,3.765],[36.2658,3.7536],[36.2464,3.6944],[36.2358,3.6838],[36.2167,3.6811],[36.2114,3.6588],[36.2064,3.5401],[36.2161,3.4565],[36.2443,3.3709],[36.2381,3.3462],[36.2225,3.322],[36.237,3.2988],[36.2917,3.2431],[36.3067,3.1919],[36.3262,3.1866],[36.3406,3.1616],[36.3759,3.123],[36.3883,3.0762],[36.3883,3.0321],[36.4006,3.0106],[36.5322,2.9017],[36.5746,2.8946],[36.6579,2.8987],[36.6891,2.8811],[36.6994,2.8504],[36.6976,2.7695],[36.7097,2.7303]]]}},{"type":"Feature","properties":{"name":"Lake Tana","scalerank":1},"geometry":{"type":"Polygon","coordinates":[[[37.3052,11.7311],[37.2923,11.7988],[37.2722,11.8165],[37.2246,11.8303],[37.2098,11.8303],[37.1674,11.81],[37.1321,11.8165],[37.123,11.8259],[37.1206,11.8583],[37.1018,11.8503],[37.0865,11.8035],[37.0697,11.8303],[37.0394,11.8412],[37.0262,11.8798],[37.0108,11.8898],[36.9914,11.8854],[36.9873,11.9054],[37.0008,11.9354],[37.0153,12.1709],[37.0682,12.2421],[37.1374,12.2813],[37.1554,12.2766],[37.1674,12.2589],[37.176,12.2201],[37.1963,12.2077],[37.2122,12.2206],[37.251,12.2077],[37.2758,12.2156],[37.2949,12.2648],[37.3267,12.2892],[37.3479,12.2851],[37.3608,12.2689],[37.3782,12.2851],[37.3947,12.2901],[37.4291,12.2895],[37.4786,12.3092],[37.4986,12.3039],[37.5383,12.2368],[37.5598,12.1803],[37.5919,12.1382],[37.601,12.112],[37.5981,12.0758],[37.5804,12.0158],[37.5666,11.9919],[37.5737,11.981],[37.5607,11.9684],[37.5389,11.9201],[37.4912,11.906],[37.5116,11.8583],[37.5057,11.8383],[37.4712,11.8235],[37.4568,11.8103],[37.4503,11.7694],[37.4285,11.7464],[37.4291,11.7217],[37.4091,11.6905],[37.4062,11.6619],[37.3868,11.6319],[37.37,11.6243],[37.3267,11.6322],[37.2937,11.664],[37.299,11.6976],[37.3335,11.6937],[37.3441,11.7046],[37.3052,11.7311]]]}},{"type":"Feature","properties":{"name":"Lake Nasser","scalerank":5},"geometry":{"type":"Polygon","coordinates":[[[32.2277,22.6514],[32.2483,22.6785],[32.2112,22.6929],[32.2215,22.7059],[32.2054,22.708],[32.1662,22.7333],[32.1326,22.73],[32.0944,22.7077],[32.077,22.7044],[32.0776,22.6923],[32.0558,22.6897],[32.0443,22.6709],[32.057,22.6376],[32.0205,22.6517],[32.0043,22.6485],[31.9696,22.6146],[31.9813,22.5619],[31.9522,22.5796],[31.944,22.5784],[31.9401,22.5619],[31.9746,22.4937],[31.9513,22.4972],[31.9348,22.4786],[31.9036,22.4666],[31.8948,22.4507],[31.8924,22.4112],[31.8118,22.4183],[31.8242,22.4042],[31.8168,22.3968],[31.8409,22.3786],[31.8451,22.3641],[31.838,22.3497],[31.8224,22.3415],[31.7965,22.3703],[31.7688,22.3762],[31.7414,22.3712],[31.6864,22.3424],[31.6973,22.3262],[31.6932,22.3182],[31.6805,22.3209],[31.6661,22.3359],[31.6593,22.3088],[31.6461,22.3223],[31.6378,22.3038],[31.6181,22.295],[31.6484,22.2729],[31.6617,22.2473],[31.6864,22.2467],[31.6678,22.2402],[31.6113,22.2535],[31.5963,22.2487],[31.5424,22.2125],[31.5424,22.1919],[31.5316,22.1969],[31.5177,22.1896],[31.44,22.1266],[31.3855,22.035],[31.3855,21.932],[31.3443,21.8564],[31.3308,21.8431],[31.3308,21.8222],[31.3034,21.7948],[31.2952,21.7733],[31.2831,21.7669],[31.2687,21.7813],[31.2551,21.7669],[31.2301,21.7686],[31.2131,21.7433],[31.221,21.726],[31.201,21.7056],[31.1818,21.6562],[31.1215,21.6347],[31.0906,21.6091],[31.1074,21.6444],[31.1212,21.6585],[31.1668,21.6712],[31.181,21.718],[31.1733,21.7669],[31.1916,21.8087],[31.1869,21.8222],[31.2113,21.8175],[31.2278,21.829],[31.2381,21.8593],[31.2813,21.8855],[31.337,21.9609],[31.344,21.9876],[31.3443,22.0477],[31.3661,22.1092],[31.3582,22.1437],[31.3811,22.1463],[31.4009,22.1604],[31.4444,22.2211],[31.5151,22.2602],[31.6593,22.3839],[31.6461,22.3906],[31.6937,22.4042],[31.6728,22.4595],[31.689,22.4636],[31.73,22.4477],[31.7559,22.4695],[31.7485,22.4937],[31.7894,22.4751],[31.8112,22.4728],[31.8168,22.4937],[31.7382,22.5316],[31.6693,22.5923],[31.6561,22.614],[31.6678,22.6367],[31.6661,22.6514],[31.6905,22.6208],[31.7453,22.6026],[31.7829,22.5631],[31.8242,22.5749],[31.8448,22.5619],[31.8562,22.5702],[31.8562,22.5773],[31.838,22.5831],[31.8389,22.6005],[31.8474,22.6132],[31.8895,22.6288],[31.8786,22.652],[31.9331,22.6626],[31.9575,22.677],[32.0025,22.7265],[31.9949,22.7333],[32.0623,22.7403],[32.0638,22.7674],[32.0906,22.7542],[32.1041,22.7559],[32.1282,22.778],[32.1583,22.7857],[32.1662,22.8083],[32.1703,22.7904],[32.1662,22.7748],[32.2048,22.7674],[32.2257,22.7695],[32.2419,22.7815],[32.266,22.7297],[32.2898,22.7127],[32.2863,22.6885],[32.3104,22.6717],[32.3104,22.6438],[32.3511,22.6279],[32.3655,22.6308],[32.3867,22.6467],[32.4235,22.7165],[32.5041,22.7586],[32.5162,22.7748],[32.5459,22.7659],[32.5598,22.7857],[32.5718,22.8857],[32.5715,22.8978],[32.5527,22.919],[32.5506,22.932],[32.5836,22.9193],[32.5992,22.9234],[32.6278,22.9505],[32.6369,22.9855],[32.6254,22.9941],[32.651,23.0312],[32.6425,23.0556],[32.6805,23.0709],[32.6596,23.0759],[32.6596,23.0833],[32.6813,23.0856],[32.6937,23.1015],[32.6961,23.1236],[32.6869,23.1448],[32.6958,23.1545],[32.7008,23.1925],[32.7249,23.196],[32.7211,23.2199],[32.7691,23.2781],[32.78,23.2796],[32.7894,23.2608],[32.8103,23.2902],[32.8312,23.2608],[32.8427,23.2761],[32.8268,23.2967],[32.825,23.3093],[32.8329,23.3188],[32.8653,23.3296],[32.8839,23.2934],[32.893,23.2887],[32.9054,23.2943],[32.9095,23.3064],[32.9068,23.3296],[32.8942,23.3497],[32.8444,23.3844],[32.825,23.385],[32.8288,23.3985],[32.8621,23.4356],[32.88,23.4665],[32.8856,23.4865],[32.8794,23.5004],[32.8656,23.5001],[32.8212,23.473],[32.8073,23.4792],[32.7797,23.5248],[32.762,23.5254],[32.749,23.5351],[32.7211,23.5142],[32.7149,23.4901],[32.6451,23.4583],[32.6139,23.4692],[32.5574,23.508],[32.5783,23.518],[32.646,23.5316],[32.6666,23.5489],[32.6869,23.5422],[32.7393,23.5616],[32.7249,23.5731],[32.6919,23.5793],[32.6796,23.6011],[32.6649,23.6008],[32.6543,23.5872],[32.6596,23.5625],[32.6369,23.564],[32.621,23.576],[32.6125,23.5952],[32.6119,23.6178],[32.6369,23.6116],[32.6737,23.6649],[32.7014,23.6791],[32.7111,23.6758],[32.7393,23.6111],[32.7764,23.5905],[32.7985,23.5646],[32.8206,23.5666],[32.8226,23.5743],[32.8106,23.5905],[32.8412,23.6105],[32.8447,23.6449],[32.8653,23.7064],[32.8524,23.6964],[32.8173,23.7203],[32.853,23.7161],[32.8715,23.7379],[32.8794,23.8089],[32.87,23.8421],[32.8312,23.886],[32.7832,23.8984],[32.805,23.906],[32.8347,23.8966],[32.8515,23.9119],[32.8794,23.9878],[32.8895,23.9669],[32.8794,23.9187],[32.8992,23.8916],[32.8912,23.8748],[32.893,23.8642],[32.9295,23.8212],[32.9404,23.7783],[32.9892,23.7544],[32.9704,23.7529],[32.9731,23.7403],[33.0028,23.7132],[32.9825,23.6929],[32.9954,23.6826],[32.9825,23.6723],[32.9751,23.624],[32.9686,23.624],[32.9601,23.6378],[32.933,23.6464],[32.9271,23.6587],[32.9024,23.6222],[32.8962,23.5905],[32.9174,23.5796],[32.9348,23.5551],[32.9545,23.5693],[32.9477,23.5422],[32.9686,23.5489],[32.9731,23.5298],[32.991,23.5177],[33.0128,23.5145],[33.0302,23.5216],[33.0372,23.5142],[32.9937,23.4995],[32.9477,23.508],[32.9101,23.5236],[32.8953,23.5222],[32.8992,23.5004],[32.9351,23.4762],[32.9204,23.4595],[32.9583,23.4247],[32.9477,23.4185],[32.9542,23.3979],[32.9663,23.39],[32.9745,23.3944],[32.9686,23.4118],[32.9845,23.4115],[32.9925,23.4032],[33.0028,23.3776],[32.9725,23.3629],[32.9704,23.3517],[32.9919,23.327],[33.0184,23.3261],[32.9981,23.2758],[33.0166,23.2405],[33.0081,23.2234],[32.9925,23.2219],[32.9545,23.234],[32.9613,23.2546],[32.9204,23.2608],[32.9068,23.234],[32.9204,23.2287],[32.941,23.1851],[32.9704,23.1445],[32.9577,23.138],[32.863,23.1683],[32.8447,23.151],[32.8447,23.1371],[32.8727,23.0691],[32.9006,23.065],[32.9469,23.03],[32.9442,23.0179],[32.9227,23.002],[32.9318,22.9805],[32.9477,22.9864],[32.9572,22.9714],[33.0093,22.959],[33.0643,22.9181],[33.0396,22.9146],[33.0007,22.9205],[32.9628,22.932],[32.941,22.9455],[32.9368,22.9323],[32.941,22.9181],[32.928,22.9249],[32.8856,22.9652],[32.8097,23.0117],[32.7997,23.0247],[32.7764,23.0279],[32.7764,23.0691],[32.7284,23.0485],[32.747,23.0353],[32.7417,23.0144],[32.7555,23.0144],[32.744,23.0003],[32.7284,23.0076],[32.7287,22.9702],[32.7149,22.932],[32.7043,22.9508],[32.6925,22.9555],[32.6866,22.9464],[32.6937,22.9249],[32.6563,22.932],[32.6254,22.9181],[32.6342,22.904],[32.6325,22.8902],[32.6119,22.9181],[32.603,22.9066],[32.5983,22.8637],[32.6151,22.8651],[32.6195,22.8463],[32.5983,22.8301],[32.5963,22.7818],[32.5851,22.7606],[32.5659,22.7409],[32.4885,22.7156],[32.4818,22.6985],[32.4497,22.6885],[32.4235,22.6611],[32.4076,22.6105],[32.3993,22.6029],[32.3313,22.6029],[32.3178,22.5346],[32.3443,22.5284],[32.3266,22.5199],[32.2863,22.5413],[32.2645,22.5225],[32.2504,22.5266],[32.2419,22.5552],[32.2695,22.5581],[32.2934,22.5708],[32.3104,22.5911],[32.3178,22.6167],[32.276,22.6102],[32.2831,22.6308],[32.266,22.6344],[32.2424,22.6532],[32.2277,22.6514]]]}},{"type":"Feature","properties":{"name":"Lake Hammar","scalerank":5},"geometry":{"type":"MultiPolygon","coordinates":[[[[46.7319,30.7576],[46.7699,30.7506],[46.7699,30.7438],[46.7561,30.7438],[46.7622,30.7241],[46.7243,30.7326],[46.6872,30.7506],[46.7319,30.7576]]],[[[47.6244,30.7046],[47.6333,30.6826],[47.5408,30.662],[47.5302,30.6761],[47.517,30.662],[47.4799,30.6593],[47.4755,30.6481],[47.4614,30.6528],[47.4278,30.6481],[47.4043,30.6578],[47.3998,30.6858],[47.3889,30.7002],[47.1908,30.7097],[47.1199,30.7367],[47.0919,30.7376],[47.1049,30.7553],[47.1052,30.7615],[47.0955,30.7644],[47.0681,30.7529],[47.0054,30.7417],[46.9904,30.7329],[47.0027,30.7241],[46.9851,30.7197],[46.9683,30.7303],[46.9821,30.7506],[46.9345,30.7582],[46.925,30.7662],[46.9342,30.7794],[46.9268,30.7924],[46.9083,30.7974],[46.8832,30.7918],[46.845,30.7644],[46.9065,30.7438],[46.91,30.7294],[46.8585,30.7097],[46.8285,30.7149],[46.8085,30.7229],[46.7902,30.7438],[46.8199,30.7659],[46.8517,30.7785],[46.8517,30.7847],[46.8235,30.7921],[46.7967,30.7847],[46.7829,30.7991],[46.804,30.8194],[46.804,30.8271],[46.716,30.8103],[46.7078,30.8194],[46.6942,30.8194],[46.6942,30.8271],[46.7352,30.8468],[46.7266,30.8642],[46.6913,30.876],[46.6804,30.8886],[46.7266,30.8901],[46.749,30.8957],[46.7622,30.9089],[46.7749,30.9042],[46.7967,30.929],[46.7899,30.9081],[46.7952,30.8972],[46.8043,30.8954],[46.8108,30.9089],[46.807,30.9242],[46.8173,30.9328],[46.8311,30.9322],[46.8453,30.9113],[46.9003,30.9151],[46.8929,30.8966],[46.9003,30.8816],[46.9065,30.9022],[46.9683,30.8742],[46.9615,30.8607],[46.9804,30.8574],[47.0304,30.8194],[47.0236,30.8127],[47.0437,30.8071],[47.0887,30.8401],[47.1131,30.8371],[47.1223,30.8306],[47.0919,30.8271],[47.0919,30.8194],[47.112,30.8127],[47.1361,30.8192],[47.1535,30.8059],[47.1738,30.8165],[47.1923,30.8094],[47.2218,30.7785],[47.2059,30.7735],[47.2023,30.7644],[47.2076,30.7576],[47.2282,30.7626],[47.2556,30.7532],[47.2694,30.7582],[47.3121,30.7441],[47.3407,30.75],[47.394,30.8153],[47.4037,30.8194],[47.5035,30.8127],[47.5146,30.7991],[47.4826,30.7759],[47.4375,30.7582],[47.3795,30.7582],[47.3981,30.7344],[47.4266,30.7303],[47.4985,30.7447],[47.5285,30.7417],[47.5323,30.7323],[47.5408,30.7303],[47.5821,30.7356],[47.5991,30.7303],[47.5991,30.7241],[47.5717,30.7303],[47.5818,30.7167],[47.6244,30.7046]]]]}},{"type":"Feature","properties":{"name":"Lake Razazah","scalerank":3},"geometry":{"type":"Polygon","coordinates":[[[43.8981,32.704],[43.8863,32.6018],[43.8342,32.5615],[43.8021,32.5462],[43.7689,32.5053],[43.7574,32.5173],[43.7409,32.5117],[43.7488,32.5262],[43.7347,32.5606],[43.7274,32.5606],[43.7209,32.5462],[43.7135,32.5462],[43.7067,32.5668],[43.7,32.5606],[43.6823,32.5665],[43.677,32.5409],[43.6691,32.5332],[43.6564,32.5382],[43.6517,32.5503],[43.652,32.5806],[43.6794,32.5806],[43.6638,32.588],[43.6111,32.5742],[43.6311,32.5948],[43.5837,32.6077],[43.5737,32.5909],[43.5378,32.5956],[43.4989,32.6124],[43.4451,32.6792],[43.4292,32.7104],[43.4392,32.7313],[43.4256,32.7381],[43.4348,32.7528],[43.4115,32.807],[43.4256,32.7996],[43.4495,32.8367],[43.4465,32.8479],[43.4321,32.8423],[43.4194,32.8629],[43.405,32.8685],[43.405,32.8759],[43.4392,32.8888],[43.4727,32.8759],[43.4727,32.8821],[43.4557,32.8838],[43.4554,32.8891],[43.4698,32.9097],[43.4869,32.913],[43.4945,32.9442],[43.453,32.9851],[43.4577,32.9974],[43.4869,33.026],[43.5045,33.0181],[43.5178,33.0219],[43.526,33.0331],[43.5292,33.0466],[43.5216,33.1046],[43.5348,33.1149],[43.5351,33.0737],[43.5554,33.0398],[43.6246,33.0125],[43.6161,32.9901],[43.6446,32.9474],[43.6661,32.89],[43.7321,32.7755],[43.7544,32.7522],[43.7956,32.7449],[43.8263,32.7246],[43.8981,32.704]]]}},{"type":"Feature","properties":{"name":"Lake Habbaniyah","scalerank":6},"geometry":{"type":"Polygon","coordinates":[[[43.4162,33.2521],[43.3044,33.3048],[43.2873,33.3215],[43.2952,33.3489],[43.3061,33.356],[43.3388,33.3601],[43.3567,33.3757],[43.3709,33.4446],[43.4256,33.4166],[43.4339,33.3675],[43.4498,33.3619],[43.4819,33.3295],[43.4904,33.3351],[43.5113,33.3271],[43.5292,33.3557],[43.5702,33.3374],[43.597,33.293],[43.5805,33.2474],[43.549,33.2112],[43.5128,33.2073],[43.501,33.1947],[43.4665,33.1838],[43.4289,33.2011],[43.4268,33.2097],[43.438,33.222],[43.4324,33.2315],[43.4465,33.2521],[43.4162,33.2521]]]}},{"type":"Feature","properties":{"name":"Buhayrat ath Tharthar","scalerank":3},"geometry":{"type":"Polygon","coordinates":[[[43.2914,33.7198],[43.2746,33.7325],[43.2611,33.7183],[43.2352,33.7478],[43.2228,33.7516],[43.2007,33.7816],[43.2131,33.7863],[43.2078,33.7949],[43.1722,33.8205],[43.1369,33.8614],[43.1248,33.8873],[43.0962,33.915],[43.0783,33.9468],[43.0762,33.9544],[43.0886,33.973],[43.0762,33.9789],[43.083,33.9933],[43.0692,33.9933],[43.0692,33.9995],[43.083,34.0118],[43.0792,34.0545],[43.0898,34.0751],[43.0677,34.0854],[43.0642,34.1046],[43.0762,34.1496],[43.0753,34.1767],[43.0512,34.2535],[43.0589,34.2768],[43.0803,34.295],[43.0765,34.343],[43.0865,34.3489],[43.103,34.3339],[43.1101,34.308],[43.1177,34.308],[43.1112,34.3365],[43.1148,34.3459],[43.1407,34.3165],[43.1519,34.3141],[43.1451,34.308],[43.1563,34.2971],[43.1569,34.2829],[43.1451,34.2526],[43.1689,34.2391],[43.191,34.1829],[43.2166,34.1602],[43.2196,34.1434],[43.2405,34.1366],[43.2575,34.1122],[43.2952,34.1019],[43.2908,34.0789],[43.2952,34.0675],[43.3226,34.0948],[43.3329,34.058],[43.3294,34.0472],[43.3464,34.048],[43.3573,34.0416],[43.3635,34.0124],[43.3709,34.0124],[43.3947,34.0368],[43.4124,34.036],[43.4392,34.0124],[43.4465,33.9653],[43.4774,33.9518],[43.4807,33.9379],[43.4954,33.9394],[43.5033,33.9244],[43.5075,33.8758],[43.4895,33.8767],[43.4821,33.8835],[43.453,33.8758],[43.488,33.8673],[43.5148,33.8479],[43.4945,33.8555],[43.4727,33.8479],[43.4795,33.8426],[43.4695,33.8017],[43.4945,33.7766],[43.4889,33.7425],[43.4665,33.7045],[43.4418,33.693],[43.3874,33.7113],[43.3229,33.7204],[43.3088,33.7325],[43.2914,33.7198]]]}},{"type":"Feature","properties":{"name":"Lake Urmia","scalerank":4},"geometry":{"type":"Polygon","coordinates":[[[45.9104,37.3888],[45.9089,37.3629],[45.8756,37.3741],[45.8347,37.3561],[45.8238,37.3499],[45.8141,37.3231],[45.7485,37.2849],[45.7175,37.2855],[45.7025,37.2943],[45.6952,37.3072],[45.7005,37.3231],[45.6596,37.3096],[45.6236,37.264],[45.6183,37.1927],[45.6001,37.1497],[45.5851,37.1315],[45.5668,37.1238],[45.5324,37.1445],[45.5121,37.1445],[45.5038,37.1427],[45.5018,37.13],[45.4629,37.1212],[45.3958,37.1963],[45.372,37.1995],[45.3564,37.2107],[45.3384,37.2519],[45.3169,37.2651],[45.3031,37.3361],[45.2825,37.3635],[45.3072,37.372],[45.3243,37.3908],[45.2925,37.4747],[45.2622,37.5045],[45.2825,37.556],[45.2822,37.5736],[45.2486,37.6042],[45.2628,37.6148],[45.2348,37.669],[45.2392,37.6802],[45.2622,37.6958],[45.253,37.7603],[45.2207,37.8059],[45.1833,37.823],[45.1689,37.8386],[45.1456,37.8297],[45.0599,37.8577],[45.0629,37.8686],[45.0479,37.954],[45.0599,37.9878],[45.0914,38.0152],[45.1385,38.0231],[45.1812,38.0384],[45.1933,38.0593],[45.1995,38.1135],[45.1933,38.1312],[45.173,38.1524],[45.1727,38.1659],[45.1659,38.1659],[45.1544,38.1412],[45.14,38.13],[45.125,38.135],[45.1115,38.1591],[45.0505,38.1264],[45.0287,38.1244],[45.0037,38.1379],[44.9975,38.1594],[45.0037,38.1756],[45.0152,38.1724],[45.0332,38.2033],[45.0493,38.2071],[45.0473,38.2504],[45.0941,38.268],[45.3084,38.2725],[45.3617,38.266],[45.4173,38.2251],[45.4653,38.1762],[45.4847,38.1659],[45.4935,38.1565],[45.5027,38.0955],[45.4738,38.0426],[45.4862,38.0334],[45.4768,38.0034],[45.4879,37.9878],[45.4538,37.9737],[45.4676,37.9601],[45.4341,37.936],[45.4061,37.901],[45.4129,37.8159],[45.4217,37.7982],[45.4535,37.7614],[45.4791,37.7505],[45.4941,37.7273],[45.518,37.7376],[45.5221,37.7614],[45.6454,37.7673],[45.7111,37.7246],[45.742,37.7117],[45.7555,37.7273],[45.7605,37.6996],[45.7761,37.6787],[45.7967,37.6652],[45.7897,37.6413],[45.7729,37.6343],[45.6628,37.6446],[45.6599,37.6405],[45.6781,37.6216],[45.7052,37.6134],[45.714,37.5763],[45.7258,37.5639],[45.7658,37.5315],[45.7929,37.5259],[45.8003,37.5065],[45.8103,37.5006],[45.8115,37.4797],[45.8315,37.45],[45.8571,37.4235],[45.8903,37.4091],[45.9104,37.3888]],[[45.5577,37.3405],[45.5565,37.352],[45.5297,37.397],[45.5297,37.407],[45.5427,37.412],[45.5383,37.4229],[45.5106,37.4394],[45.4968,37.4365],[45.4941,37.4262],[45.5086,37.412],[45.4882,37.407],[45.4838,37.4003],[45.5018,37.3847],[45.5324,37.3741],[45.5427,37.3437],[45.5577,37.3405]],[[45.6663,37.4803],[45.664,37.5018],[45.6475,37.508],[45.6042,37.508],[45.5892,37.5283],[45.5668,37.5068],[45.5701,37.4945],[45.5639,37.4871],[45.6042,37.4721],[45.6116,37.4597],[45.6525,37.4871],[45.6663,37.4803]]]}},{"type":"Feature","properties":{"name":"Lake Van","scalerank":4},"geometry":{"type":"Polygon","coordinates":[[[43.1042,38.3143],[43.0191,38.3166],[42.9944,38.3354],[42.9455,38.3366],[42.9352,38.344],[42.9532,38.3775],[42.9361,38.3928],[42.9184,38.392],[42.9114,38.4017],[42.8978,38.4058],[42.9049,38.4329],[42.9252,38.4188],[42.9243,38.4279],[42.939,38.4329],[42.9252,38.4535],[42.9108,38.4467],[42.8702,38.4535],[42.8775,38.4608],[42.8722,38.4717],[42.8911,38.4741],[42.8702,38.4944],[42.8799,38.5006],[42.8763,38.5059],[42.8684,38.5047],[42.8566,38.4738],[42.8393,38.4697],[42.8019,38.4815],[42.798,38.4564],[42.7913,38.4467],[42.7739,38.4402],[42.6918,38.4388],[42.6632,38.4723],[42.6517,38.4788],[42.5988,38.4856],[42.5837,38.4935],[42.5758,38.5079],[42.5417,38.4944],[42.5208,38.4741],[42.5013,38.4712],[42.4748,38.4841],[42.466,38.4944],[42.4698,38.5088],[42.4572,38.5168],[42.4098,38.4962],[42.3957,38.4959],[42.3842,38.5079],[42.3697,38.4976],[42.3279,38.4873],[42.3082,38.4876],[42.2997,38.5077],[42.3097,38.518],[42.3497,38.5286],[42.3909,38.5771],[42.4201,38.5812],[42.4251,38.5868],[42.408,38.6074],[42.4107,38.618],[42.494,38.6248],[42.4728,38.6383],[42.466,38.659],[42.4354,38.7037],[42.4383,38.7208],[42.4678,38.7367],[42.6008,38.7785],[42.7091,38.7932],[42.7333,38.8035],[42.8019,38.7926],[42.8098,38.7855],[42.9164,38.7967],[42.9564,38.7844],[43.0924,38.8041],[43.1757,38.8444],[43.2069,38.8918],[43.1778,38.9003],[43.1451,38.8992],[43.1374,38.9059],[43.1313,38.8936],[43.1101,38.878],[43.1439,38.8803],[43.1478,38.8653],[43.1295,38.8518],[43.0971,38.8582],[43.0721,38.893],[43.0659,38.9256],[43.0721,38.9309],[43.1107,38.9339],[43.1619,38.948],[43.2034,38.9401],[43.2711,38.9624],[43.3155,38.9542],[43.3088,38.981],[43.3273,38.9683],[43.3506,38.9674],[43.3535,38.9848],[43.3771,38.9878],[43.4015,39.0016],[43.5422,38.981],[43.5902,38.981],[43.6131,38.9651],[43.6323,38.9639],[43.6591,38.9468],[43.6446,38.9401],[43.6591,38.9327],[43.5348,38.9133],[43.5213,38.8853],[43.5013,38.8712],[43.4289,38.8588],[43.4127,38.8503],[43.39,38.8226],[43.3697,38.8409],[43.3391,38.8459],[43.3088,38.8356],[43.2952,38.8067],[43.292,38.7791],[43.2446,38.7699],[43.2196,38.7549],[43.211,38.7208],[43.1763,38.6857],[43.156,38.6375],[43.133,38.6248],[43.083,38.6119],[43.083,38.6042],[43.0898,38.6042],[43.1239,38.6195],[43.1757,38.6248],[43.1907,38.6207],[43.2166,38.5868],[43.2711,38.5695],[43.3161,38.5424],[43.3253,38.4865],[43.3064,38.4397],[43.2673,38.4402],[43.1843,38.389],[43.1625,38.3828],[43.1475,38.3655],[43.1507,38.3222],[43.1042,38.3143]]]}},{"type":"Feature","properties":{"name":"Dead Sea","scalerank":5},"geometry":{"type":"Polygon","coordinates":[[[35.5264,31.1889],[35.5311,31.1697],[35.5037,31.1391],[35.5178,31.1103],[35.4855,31.0885],[35.4593,31.0873],[35.4007,31.1009],[35.3883,31.1418],[35.3636,31.1756],[35.3586,31.2104],[35.3698,31.2354],[35.4007,31.2304],[35.4213,31.2516],[35.4613,31.2192],[35.5264,31.1889]]]}},{"type":"Feature","properties":{"name":"Dead Sea","scalerank":3},"geometry":{"type":"Polygon","coordinates":[[[35.5864,31.7529],[35.5882,31.7305],[35.5785,31.7014],[35.5546,31.5383],[35.572,31.4682],[35.5446,31.354],[35.5476,31.3319],[35.5237,31.3102],[35.5037,31.3063],[35.5105,31.3676],[35.4913,31.367],[35.4422,31.3222],[35.4148,31.3266],[35.406,31.3449],[35.3936,31.4358],[35.4007,31.4723],[35.3927,31.5141],[35.4148,31.5663],[35.408,31.6148],[35.4766,31.7305],[35.5069,31.7558],[35.559,31.7655],[35.5864,31.7529]]]}},{"type":"Feature","properties":{"name":"Sea of Galilee","scalerank":5},"geometry":{"type":"Polygon","coordinates":[[[35.6376,32.875],[35.6409,32.8208],[35.6356,32.782],[35.6409,32.7723],[35.635,32.7696],[35.6341,32.7522],[35.5994,32.7178],[35.577,32.7202],[35.5664,32.757],[35.5493,32.7696],[35.5172,32.8208],[35.5237,32.852],[35.5549,32.8806],[35.5917,32.898],[35.6135,32.8959],[35.6376,32.875]]]}},{"type":"Feature","properties":{"name":"Lake Tuz","scalerank":4},"geometry":{"type":"Polygon","coordinates":[[[33.4205,38.9545],[33.4205,38.9404],[33.4343,38.9133],[33.4137,38.8677],[33.4261,38.8506],[33.5468,38.7529],[33.5553,38.7611],[33.5474,38.8038],[33.5715,38.8918],[33.5783,38.8918],[33.5842,38.8465],[33.6295,38.7864],[33.6439,38.7314],[33.6863,38.6595],[33.6987,38.6469],[33.7428,38.6383],[33.7428,38.631],[33.711,38.6216],[33.6295,38.6151],[33.5989,38.5974],[33.59,38.5506],[33.5683,38.5318],[33.5415,38.4844],[33.517,38.4982],[33.4979,38.5288],[33.4626,38.5389],[33.4208,38.5633],[33.3548,38.5827],[33.2966,38.6383],[33.1532,38.7072],[33.1385,38.7381],[33.1467,38.7793],[33.2021,38.9047],[33.2194,38.9203],[33.2989,38.9295],[33.3225,38.9383],[33.3325,38.9574],[33.3325,38.9954],[33.3039,39.0493],[33.3178,39.0908],[33.2892,39.1179],[33.283,39.1317],[33.3381,39.1523],[33.4423,39.0449],[33.4726,38.981],[33.4205,38.9545]]]}},{"type":"Feature","properties":{"name":"Lake Volta","scalerank":5},"geometry":{"type":"Polygon","coordinates":[[[0.3298,7.5473],[0.2945,7.4587],[0.3045,7.4434],[0.2945,7.4452],[0.2829,7.4263],[0.3023,7.4104],[0.3081,7.3972],[0.2673,7.3625],[0.2673,7.3557],[0.2863,7.3577],[0.2673,7.3209],[0.287,7.2992],[0.3157,7.2942],[0.3217,7.28],[0.3081,7.2753],[0.2886,7.2859],[0.2746,7.28],[0.2664,7.2503],[0.2673,7.2117],[0.2746,7.2191],[0.283,7.2135],[0.2945,7.2191],[0.2851,7.2026],[0.2673,7.1917],[0.2673,7.1844],[0.2873,7.1844],[0.292,7.1755],[0.2826,7.1679],[0.2604,7.1708],[0.2795,7.1502],[0.2624,7.1158],[0.2673,7.0958],[0.2757,7.1064],[0.3081,7.1161],[0.3113,7.0961],[0.2945,7.0819],[0.3081,7.0678],[0.2953,7.0631],[0.2945,7.0472],[0.281,7.0546],[0.2746,7.0337],[0.2673,7.0337],[0.2673,7.0546],[0.2596,7.0328],[0.281,6.9383],[0.2746,6.9312],[0.2677,6.933],[0.253,6.9592],[0.2239,6.8809],[0.22,6.8394],[0.2399,6.8211],[0.2342,6.8038],[0.2468,6.7455],[0.239,6.6904],[0.2468,6.6775],[0.2401,6.656],[0.2604,6.6501],[0.2827,6.6707],[0.2945,6.6984],[0.3061,6.7667],[0.3157,6.7867],[0.3217,6.7867],[0.3091,6.714],[0.3217,6.7046],[0.3098,6.6848],[0.3157,6.6636],[0.3081,6.643],[0.3014,6.643],[0.3014,6.6636],[0.2869,6.6545],[0.2668,6.6263],[0.253,6.6301],[0.253,6.6227],[0.2468,6.6301],[0.2336,6.6068],[0.2262,6.6021],[0.2262,6.6159],[0.2127,6.6124],[0.1962,6.6006],[0.1916,6.5886],[0.1648,6.6301],[0.1438,6.6021],[0.1648,6.5948],[0.1369,6.5477],[0.1573,6.527],[0.1488,6.515],[0.1306,6.5056],[0.1238,6.4923],[0.1219,6.4776],[0.1369,6.4446],[0.1419,6.412],[0.1356,6.3852],[0.1095,6.3416],[0.1033,6.3384],[0.0958,6.4043],[0.1035,6.4008],[0.1033,6.3899],[0.1095,6.3899],[0.1061,6.4558],[0.0942,6.4776],[0.0686,6.4655],[0.0712,6.4379],[0.0612,6.4105],[0.0346,6.4173],[0.0046,6.3493],[-0.0106,6.339],[-0.0277,6.3625],[-0.0356,6.4326],[-0.0487,6.4514],[-0.1049,6.4894],[-0.1164,6.5129],[-0.1441,6.5059],[-0.24,6.5544],[-0.2398,6.5694],[-0.2487,6.5833],[-0.2746,6.6021],[-0.2671,6.6092],[-0.2746,6.6227],[-0.2944,6.6168],[-0.3707,6.623],[-0.4206,6.6778],[-0.4863,6.7046],[-0.5419,6.7078],[-0.5621,6.7319],[-0.568,6.7207],[-0.5962,6.7046],[-0.6098,6.7319],[-0.6345,6.734],[-0.65,6.7764],[-0.6691,6.7826],[-0.6764,6.7952],[-0.6993,6.8008],[-0.7197,6.8491],[-0.7054,6.8417],[-0.6993,6.8553],[-0.6859,6.8358],[-0.6719,6.8491],[-0.6645,6.8491],[-0.6583,6.835],[-0.6364,6.8361],[-0.5893,6.7734],[-0.5817,6.7867],[-0.5584,6.7776],[-0.5484,6.794],[-0.5512,6.8567],[-0.5349,6.8691],[-0.5326,6.8202],[-0.5226,6.8079],[-0.5194,6.7602],[-0.5075,6.7319],[-0.449,6.7157],[-0.4386,6.7393],[-0.4311,6.7393],[-0.4173,6.7154],[-0.4011,6.7122],[-0.3955,6.7187],[-0.4112,6.7564],[-0.4181,6.8082],[-0.3846,6.8553],[-0.3613,6.7773],[-0.3549,6.7334],[-0.3566,6.691],[-0.3307,6.7146],[-0.2844,6.7319],[-0.2648,6.7134],[-0.2536,6.7122],[-0.2364,6.7275],[-0.2331,6.7531],[-0.2121,6.7455],[-0.2121,6.7599],[-0.2058,6.7599],[-0.1928,6.7352],[-0.1838,6.7287],[-0.171,6.7319],[-0.1587,6.7131],[-0.1779,6.6948],[-0.1744,6.6575],[-0.1439,6.6336],[-0.1164,6.6363],[-0.1164,6.6159],[-0.1035,6.6227],[-0.0965,6.6177],[-0.089,6.6227],[-0.0829,6.6159],[-0.0458,6.6251],[-0.034,6.6566],[-0.0344,6.7319],[-0.014,6.7181],[-0.0202,6.7599],[-0.0643,6.7667],[-0.0836,6.7823],[-0.0608,6.787],[-0.0549,6.794],[-0.0854,6.8123],[-0.089,6.8282],[-0.0634,6.8146],[-0.0509,6.8179],[-0.0414,6.8282],[-0.0549,6.8417],[-0.0414,6.8417],[-0.0487,6.8553],[-0.0338,6.8629],[-0.0344,6.8835],[-0.0206,6.8782],[-0.014,6.8553],[0.014,6.8282],[0.014,6.8553],[0.0406,6.8417],[0.0337,6.8556],[0.0686,6.8629],[0.0695,6.8726],[0.0829,6.8835],[0.0994,6.8891],[0.1164,6.8835],[0.1217,6.9085],[0.1095,6.9241],[0.0851,6.9221],[0.0686,6.9038],[0.0481,6.9174],[-0.0003,6.9038],[0.0206,6.935],[0.0524,6.9439],[0.0481,6.9927],[0.1164,6.9686],[0.1186,6.9524],[0.1235,6.9571],[0.1306,6.9927],[0.1238,6.9857],[0.1095,7.0001],[0.1033,6.9927],[0.0612,7.0198],[0.069,7.0269],[0.1095,7.0269],[0.0754,7.0472],[0.1217,7.0445],[0.1306,7.0546],[0.089,7.0819],[0.0829,7.0746],[0.0885,7.0955],[0.0686,7.1025],[0.0686,7.1099],[0.0863,7.1146],[0.0958,7.129],[0.0749,7.1437],[0.0829,7.157],[0.0608,7.1596],[0.0481,7.1434],[0.0365,7.1629],[0.0406,7.1844],[0.016,7.1705],[-0.0003,7.1844],[-0.0013,7.1956],[0.014,7.2329],[0.0065,7.2017],[0.011,7.192],[0.0215,7.1923],[0.0406,7.2056],[0.0456,7.2],[0.0549,7.2056],[0.0686,7.1844],[0.0754,7.1844],[0.0824,7.2008],[0.0926,7.2038],[0.101,7.1953],[0.1033,7.1776],[0.1306,7.2259],[0.1573,7.2191],[0.1454,7.2415],[0.1506,7.2662],[0.1643,7.2574],[0.1648,7.2391],[0.1965,7.2741],[0.1648,7.3209],[0.1573,7.3012],[0.1423,7.3051],[0.1306,7.2942],[0.125,7.3298],[0.0963,7.3489],[0.0829,7.3692],[0.089,7.3763],[0.0525,7.4293],[0.0346,7.4381],[0.0612,7.4525],[0.044,7.454],[0.0346,7.4655],[0.053,7.4723],[0.0549,7.4934],[0.0406,7.4793],[-0.0202,7.5135],[-0.0287,7.509],[-0.089,7.5135],[-0.0361,7.4343],[-0.0549,7.4246],[-0.0553,7.4419],[-0.0818,7.4684],[-0.0926,7.469],[-0.1229,7.4475],[-0.1381,7.4484],[-0.1164,7.4655],[-0.1194,7.4861],[-0.1679,7.5241],[-0.1812,7.5264],[-0.2331,7.4996],[-0.2378,7.5143],[-0.2536,7.5202],[-0.2536,7.5276],[-0.2194,7.5276],[-0.2262,7.5476],[-0.1984,7.5405],[-0.1921,7.5612],[-0.1853,7.5612],[-0.1818,7.5467],[-0.1706,7.5411],[-0.1369,7.5405],[-0.1436,7.5538],[-0.13,7.5679],[-0.1136,7.5461],[-0.089,7.5476],[-0.0829,7.5344],[-0.0612,7.5344],[-0.0549,7.5405],[-0.0549,7.5612],[-0.0487,7.5612],[-0.0414,7.5405],[-0.0344,7.5538],[-0.0237,7.5394],[0.0065,7.5476],[0.0481,7.5344],[0.0397,7.5488],[-0.0003,7.5753],[-0.0221,7.6121],[-0.0524,7.618],[-0.0593,7.6545],[-0.0692,7.6618],[-0.0871,7.6577],[-0.1164,7.6368],[-0.1239,7.6368],[-0.127,7.6486],[-0.1351,7.6512],[-0.1512,7.6368],[-0.1648,7.6442],[-0.1797,7.6395],[-0.2227,7.6589],[-0.2467,7.6506],[-0.2194,7.6442],[-0.2467,7.6227],[-0.2698,7.6344],[-0.3041,7.6144],[-0.3219,7.6227],[-0.422,7.6138],[-0.456,7.5909],[-0.4664,7.5679],[-0.4727,7.5959],[-0.4961,7.5888],[-0.5039,7.603],[-0.5207,7.5932],[-0.5621,7.5476],[-0.569,7.5679],[-0.5875,7.555],[-0.6204,7.5538],[-0.6585,7.5317],[-0.6719,7.5405],[-0.6595,7.5594],[-0.6391,7.5673],[-0.5618,7.5723],[-0.5409,7.5891],[-0.5409,7.6088],[-0.5206,7.63],[-0.506,7.6239],[-0.4938,7.63],[-0.4864,7.6188],[-0.4747,7.6174],[-0.4639,7.6227],[-0.4591,7.6336],[-0.4162,7.6415],[-0.4043,7.6506],[-0.4112,7.6777],[-0.3629,7.648],[-0.3493,7.6636],[-0.3131,7.6489],[-0.2331,7.6989],[-0.2331,7.7051],[-0.2558,7.7083],[-0.2746,7.7195],[-0.2311,7.7195],[-0.2194,7.7263],[-0.1676,7.6924],[-0.1573,7.6989],[-0.1713,7.7145],[-0.1541,7.7313],[-0.1573,7.7466],[-0.112,7.7357],[-0.0914,7.7378],[-0.0829,7.7572],[-0.0957,7.7628],[-0.1567,7.7643],[-0.1779,7.774],[-0.1436,7.781],[-0.1779,7.8075],[-0.1241,7.8175],[-0.13,7.8355],[-0.1504,7.8323],[-0.1684,7.8402],[-0.174,7.8546],[-0.1573,7.8702],[-0.1648,7.877],[-0.1668,7.9309],[-0.1818,7.9294],[-0.1984,7.9173],[-0.2088,7.9253],[-0.1847,7.963],[-0.1779,7.9862],[-0.2058,7.9727],[-0.2058,7.9862],[-0.2237,7.9859],[-0.2414,7.9986],[-0.2692,8.0519],[-0.3294,8.1031],[-0.3219,8.0516],[-0.3529,7.98],[-0.3771,7.9862],[-0.4386,7.9727],[-0.447,7.9588],[-0.4576,7.963],[-0.4567,7.9771],[-0.3627,8.013],[-0.3582,8.041],[-0.3678,8.0636],[-0.3846,8.0619],[-0.4131,8.0881],[-0.4385,8.0978],[-0.4795,8.0901],[-0.5,8.0686],[-0.5331,8.0115],[-0.5546,7.9933],[-0.5409,8.0483],[-0.5137,8.0792],[-0.5172,8.1305],[-0.5293,8.1519],[-0.5546,8.1714],[-0.5508,8.1243],[-0.5591,8.109],[-0.6014,8.0981],[-0.6583,8.0683],[-0.6583,8.0757],[-0.6358,8.1007],[-0.6327,8.1163],[-0.6477,8.1234],[-0.6788,8.1031],[-0.724,8.0913],[-0.7433,8.109],[-0.7608,8.0901],[-0.7743,8.1028],[-0.7706,8.1193],[-0.7402,8.144],[-0.709,8.124],[-0.6304,8.1575],[-0.6083,8.1446],[-0.5962,8.1502],[-0.5893,8.1849],[-0.5993,8.1952],[-0.6148,8.1993],[-0.6508,8.1993],[-0.6492,8.2255],[-0.6975,8.2508],[-0.7054,8.2812],[-0.7421,8.2788],[-0.7471,8.3085],[-0.757,8.3138],[-0.8482,8.32],[-0.8501,8.3289],[-0.8378,8.3339],[-0.788,8.3289],[-0.7602,8.3353],[-0.8129,8.4331],[-0.8687,8.4937],[-0.8978,8.5069],[-0.8937,8.5246],[-0.9236,8.6038],[-0.9523,8.6362],[-1.0055,8.6553],[-1.0287,8.6741],[-1.0836,8.6841],[-1.1468,8.6541],[-1.1517,8.6409],[-1.1346,8.5811],[-1.1342,8.5558],[-1.1579,8.5343],[-1.1602,8.5738],[-1.1928,8.6709],[-1.21,8.6644],[-1.2547,8.6715],[-1.2817,8.6627],[-1.2933,8.6953],[-1.323,8.7056],[-1.3703,8.7504],[-1.3814,8.7539],[-1.4528,8.7536],[-1.4723,8.7457],[-1.4851,8.7342],[-1.4943,8.6956],[-1.5029,8.685],[-1.5559,8.6512],[-1.5763,8.658],[-1.6118,8.6574],[-1.6403,8.6715],[-1.6556,8.6674],[-1.6924,8.6338],[-1.7128,8.6306],[-1.6764,8.6812],[-1.652,8.6959],[-1.6172,8.6786],[-1.5763,8.6853],[-1.5394,8.675],[-1.5192,8.7006],[-1.4974,8.7536],[-1.4631,8.7713],[-1.4149,8.776],[-1.4012,8.7816],[-1.3913,8.7945],[-1.3776,8.7745],[-1.3714,8.7922],[-1.3776,8.8434],[-1.365,8.829],[-1.348,8.7627],[-1.333,8.7448],[-1.3143,8.7348],[-1.2951,8.7398],[-1.2638,8.6945],[-1.2474,8.6853],[-1.2089,8.68],[-1.0613,8.7048],[-1.044,8.7165],[-1.0139,8.6927],[-1.0131,8.7307],[-1.0169,8.746],[-1.0282,8.7536],[-1.0166,8.7639],[-1.0254,8.7745],[-1.0697,8.7916],[-1.1654,8.7978],[-1.1807,8.8043],[-1.1723,8.8157],[-1.0971,8.8087],[-1.1723,8.9043],[-1.1813,8.9276],[-1.1848,8.9535],[-1.1791,9.0074],[-1.1648,8.9732],[-1.1407,9.0259],[-1.1399,9.0674],[-1.1517,9.1166],[-1.1284,9.1048],[-1.11,9.0821],[-1.0989,9.0533],[-1.0971,9.0209],[-1.1074,8.9991],[-1.1437,8.9626],[-1.1517,8.9352],[-1.1437,8.9176],[-1.1002,8.8496],[-1.0453,8.8157],[-1.037,8.8237],[-1.0207,8.8775],[-1.0194,8.7992],[-1.007,8.7807],[-1.0008,8.7884],[-0.992,8.7716],[-0.9785,8.6892],[-0.9599,8.6647],[-0.9116,8.6409],[-0.9015,8.6179],[-0.8837,8.6064],[-0.8632,8.5523],[-0.846,8.5473],[-0.8326,8.5726],[-0.7965,8.5997],[-0.7886,8.6147],[-0.7955,8.6373],[-0.8367,8.6674],[-0.8426,8.6818],[-0.8383,8.7015],[-0.8188,8.7056],[-0.8073,8.7183],[-0.7955,8.7745],[-0.7705,8.7545],[-0.7817,8.7277],[-0.8222,8.6853],[-0.784,8.6803],[-0.7539,8.6306],[-0.7328,8.61],[-0.73,8.6444],[-0.7213,8.6571],[-0.7054,8.6647],[-0.7132,8.6312],[-0.7113,8.6164],[-0.6993,8.61],[-0.7196,8.5917],[-0.7762,8.5711],[-0.7937,8.5323],[-0.8289,8.5146],[-0.8242,8.486],[-0.8127,8.4766],[-0.7717,8.4634],[-0.7266,8.391],[-0.7054,8.3765],[-0.6922,8.3583],[-0.657,8.3477],[-0.6501,8.3503],[-0.6447,8.3692],[-0.6377,8.3289],[-0.6139,8.3133],[-0.6057,8.2965],[-0.5868,8.2897],[-0.5777,8.2676],[-0.5409,8.2812],[-0.5424,8.2647],[-0.569,8.2258],[-0.5397,8.204],[-0.5254,8.2029],[-0.5137,8.2258],[-0.5075,8.1781],[-0.4895,8.1858],[-0.4795,8.2055],[-0.4454,8.1781],[-0.4267,8.1858],[-0.4181,8.1714],[-0.3978,8.1784],[-0.3903,8.192],[-0.3908,8.2226],[-0.4043,8.2364],[-0.3933,8.247],[-0.3628,8.2538],[-0.3415,8.2276],[-0.3294,8.2258],[-0.3166,8.2373],[-0.3157,8.26],[-0.2604,8.2464],[-0.24,8.2335],[-0.2194,8.2464],[-0.2268,8.2279],[-0.189,8.2202],[-0.1779,8.2023],[-0.1838,8.1758],[-0.2164,8.1961],[-0.2331,8.1781],[-0.2692,8.197],[-0.2826,8.1811],[-0.3188,8.189],[-0.3294,8.1993],[-0.336,8.1366],[-0.3219,8.144],[-0.3107,8.1334],[-0.3011,8.1337],[-0.2877,8.1502],[-0.2732,8.1128],[-0.248,8.1054],[-0.2433,8.096],[-0.2467,8.0757],[-0.2021,8.0619],[-0.1815,8.0363],[-0.1513,8.0469],[-0.1342,8.0274],[-0.1096,7.9862],[-0.1152,7.978],[-0.1123,7.9706],[-0.089,7.9659],[-0.0951,7.9465],[-0.0829,7.9318],[-0.0914,7.9215],[-0.0905,7.9064],[-0.0755,7.877],[-0.089,7.8702],[-0.079,7.8635],[-0.0755,7.849],[-0.0829,7.8287],[-0.0549,7.7672],[-0.0277,7.7952],[-0.0193,7.7908],[0.014,7.8149],[0.0208,7.8075],[0.0035,7.7963],[-0.0066,7.774],[0.011,7.7734],[0.0346,7.8014],[0.0393,7.7843],[0.0549,7.7884],[0.0612,7.774],[0.0829,7.774],[0.0709,7.7896],[0.089,7.8149],[0.0689,7.8467],[0.0686,7.8629],[0.0584,7.8608],[0.0405,7.872],[0.0475,7.8908],[0.0686,7.8832],[0.0723,7.8941],[0.0406,7.9385],[0.0536,7.9329],[0.0608,7.9388],[0.0481,7.9659],[0.0904,7.9738],[0.1048,7.9874],[0.1095,8.0068],[0.1033,8.0183],[0.0727,8.0051],[0.0549,8.0068],[0.0754,8.0274],[0.0396,8.0566],[0.0392,8.0739],[0.0612,8.0954],[0.0687,8.0772],[0.0765,8.0739],[0.1033,8.0825],[0.1095,8.1031],[0.1264,8.106],[0.1395,8.1007],[0.1445,8.0878],[0.1369,8.0683],[0.1916,8.0901],[0.1438,8.1366],[0.1506,8.1434],[0.1438,8.1502],[0.16,8.1611],[0.1648,8.1849],[0.1506,8.1808],[0.1347,8.187],[0.1217,8.1999],[0.1164,8.2161],[0.1064,8.2155],[0.084,8.2358],[0.1095,8.2335],[0.1033,8.2538],[0.1201,8.2411],[0.1369,8.2538],[0.1687,8.2438],[0.1831,8.2664],[0.183,8.3015],[0.1709,8.3289],[0.1912,8.3409],[0.2286,8.3465],[0.2286,8.3553],[0.2195,8.3801],[0.2071,8.3857],[0.1306,8.3692],[0.1032,8.3707],[0.0889,8.3807],[0.0801,8.4339],[0.0717,8.449],[0.0754,8.4593],[0.1164,8.4731],[0.1164,8.4793],[0.089,8.4899],[0.081,8.4996],[0.0754,8.5146],[0.0874,8.5387],[0.0724,8.5449],[0.089,8.5555],[0.1164,8.6026],[0.1304,8.6073],[0.1648,8.5891],[0.1594,8.6073],[0.1334,8.6435],[0.1369,8.6709],[0.1671,8.6989],[0.1671,8.7439],[0.2005,8.7536],[0.2195,8.7474],[0.1984,8.7262],[0.2058,8.7106],[0.1846,8.6945],[0.1535,8.6391],[0.1797,8.6191],[0.1809,8.5964],[0.1646,8.5805],[0.1306,8.5891],[0.1095,8.5417],[0.1119,8.5016],[0.1242,8.5002],[0.1344,8.4819],[0.1311,8.4613],[0.1238,8.4519],[0.0958,8.4487],[0.1091,8.4225],[0.1086,8.3995],[0.2473,8.4021],[0.2598,8.3692],[0.2608,8.3548],[0.253,8.3433],[0.2627,8.3315],[0.276,8.3283],[0.3014,8.3433],[0.2982,8.3221],[0.286,8.3185],[0.253,8.3153],[0.2205,8.3265],[0.1916,8.3227],[0.2262,8.3153],[0.2058,8.2947],[0.2058,8.2538],[0.1937,8.24],[0.1578,8.2261],[0.1438,8.2129],[0.2208,8.2032],[0.2058,8.1917],[0.1774,8.129],[0.2049,8.1143],[0.2673,8.1093],[0.281,8.116],[0.2639,8.0825],[0.2296,8.0954],[0.2133,8.0904],[0.195,8.0672],[0.1238,8.0483],[0.135,8.0139],[0.1497,7.998],[0.1648,7.9933],[0.1554,7.9824],[0.1292,7.9741],[0.1176,7.9582],[0.0754,7.9447],[0.1194,7.9385],[0.1306,7.9318],[0.1325,7.9223],[0.1164,7.89],[0.1579,7.9111],[0.1769,7.9076],[0.1853,7.8867],[0.1506,7.8014],[0.1675,7.8049],[0.1984,7.849],[0.1916,7.8629],[0.2009,7.8682],[0.2119,7.8629],[0.2058,7.8832],[0.2117,7.8935],[0.2433,7.9038],[0.2673,7.9385],[0.2746,7.9173],[0.2615,7.9008],[0.2399,7.8976],[0.2399,7.89],[0.253,7.8832],[0.2331,7.877],[0.2673,7.8702],[0.2673,7.8629],[0.239,7.8561],[0.2421,7.8499],[0.2604,7.849],[0.2604,7.8423],[0.2468,7.8287],[0.2058,7.8287],[0.218,7.8067],[0.2539,7.8019],[0.2673,7.7884],[0.2673,7.7952],[0.281,7.7884],[0.2692,7.7622],[0.2746,7.7543],[0.2877,7.7604],[0.2891,7.7292],[0.2857,7.7172],[0.2746,7.7119],[0.2877,7.6989],[0.2741,7.681],[0.2673,7.6574],[0.2824,7.653],[0.2864,7.6427],[0.2877,7.6165],[0.2746,7.6227],[0.277,7.603],[0.2945,7.5959],[0.2839,7.5823],[0.281,7.5612],[0.2331,7.6027],[0.2504,7.5712],[0.2468,7.5612],[0.2058,7.5476],[0.2206,7.5299],[0.2468,7.5344],[0.2533,7.5143],[0.2348,7.489],[0.2331,7.4723],[0.2417,7.4578],[0.2512,7.4599],[0.2683,7.4864],[0.2849,7.4899],[0.2917,7.5008],[0.2877,7.5276],[0.3014,7.5202],[0.3081,7.5476],[0.3217,7.5405],[0.3217,7.5679],[0.3293,7.5679],[0.3298,7.5473]],[[0.1828,6.7228],[0.1777,6.7428],[0.1506,6.7805],[0.1369,6.7531],[0.1306,6.7599],[0.1238,6.7531],[0.1238,6.7667],[0.1033,6.7599],[0.1095,6.7734],[0.0958,6.7734],[0.1095,6.7937],[0.1033,6.8143],[0.0754,6.8082],[0.0829,6.794],[0.0686,6.8008],[0.0612,6.7599],[0.0422,6.7749],[0.0406,6.8008],[0.0346,6.8008],[0.006,6.7605],[-0.0031,6.7349],[0.0065,6.7046],[0.0208,6.7455],[0.0277,6.7455],[0.0327,6.7281],[0.0277,6.7122],[0.049,6.7169],[0.0612,6.7046],[0.0612,6.6984],[0.0406,6.691],[0.0612,6.691],[0.0549,6.6775],[0.0727,6.6731],[0.0829,6.6848],[0.089,6.6775],[0.1033,6.6848],[0.091,6.6701],[0.089,6.6501],[0.0958,6.6501],[0.1039,6.6733],[0.1709,6.6984],[0.1828,6.7228]]]}},{"type":"Feature","properties":{"name":"Kainji Reservoir","scalerank":4},"geometry":{"type":"Polygon","coordinates":[[[4.6782,10.3747],[4.6947,10.3641],[4.6808,10.3361],[4.6638,10.3505],[4.6573,10.3408],[4.6529,10.2958],[4.619,10.2134],[4.6326,10.2201],[4.6337,10.2066],[4.6228,10.1934],[4.6084,10.1886],[4.5984,10.1998],[4.5631,10.148],[4.5431,10.1445],[4.5637,10.1177],[4.5563,10.0997],[4.5675,10.0897],[4.5778,10.0933],[4.5916,10.1177],[4.614,10.1254],[4.6223,10.1174],[4.6202,10.1077],[4.6052,10.1103],[4.6081,10.0847],[4.6058,10.0788],[4.5984,10.0836],[4.5964,10.0703],[4.6184,10.0565],[4.6258,10.0421],[4.6061,10.0058],[4.6137,9.9752],[4.6258,9.9602],[4.6217,9.9534],[4.6081,9.9511],[4.6064,9.9228],[4.6111,9.9116],[4.6217,9.9102],[4.6393,9.919],[4.6435,9.9008],[4.619,9.8616],[4.571,9.8428],[4.5911,9.8693],[4.5902,9.8807],[4.5772,9.8981],[4.5575,9.891],[4.5625,9.9334],[4.556,9.947],[4.5431,9.939],[4.5392,9.9558],[4.5643,9.9773],[4.571,9.9935],[4.5687,10.0038],[4.5407,10.0344],[4.5228,10.0214],[4.516,10.0291],[4.5366,10.0541],[4.5366,10.07],[4.5228,10.0836],[4.5027,10.0836],[4.4674,10.0421],[4.4748,10.0694],[4.4474,10.0556],[4.4586,10.0753],[4.4939,10.0953],[4.4954,10.1103],[4.4503,10.1277],[4.4333,10.1177],[4.4398,10.1386],[4.4624,10.1439],[4.488,10.138],[4.5089,10.1245],[4.5228,10.1445],[4.5157,10.1651],[4.5228,10.1854],[4.4771,10.1763],[4.4554,10.1795],[4.4474,10.1998],[4.4833,10.1907],[4.5051,10.2048],[4.5101,10.2284],[4.4954,10.2481],[4.4998,10.2605],[4.4818,10.3061],[4.4442,10.3641],[4.4297,10.3703],[4.3929,10.4053],[4.3488,10.3809],[4.3308,10.3847],[4.3885,10.4221],[4.4424,10.3965],[4.4536,10.3932],[4.4612,10.3982],[4.4612,10.4106],[4.4406,10.4536],[4.4612,10.4462],[4.463,10.4724],[4.4748,10.4945],[4.4612,10.4992],[4.4333,10.5292],[4.448,10.5328],[4.4977,10.5981],[4.4742,10.6063],[4.4583,10.6214],[4.4539,10.6402],[4.4674,10.6658],[4.4886,10.6311],[4.496,10.6355],[4.5089,10.6658],[4.516,10.6658],[4.5248,10.6231],[4.5528,10.6087],[4.5637,10.5902],[4.5819,10.5955],[4.5875,10.5684],[4.6393,10.6125],[4.6546,10.6134],[4.6555,10.6037],[4.6214,10.5436],[4.6317,10.5219],[4.6599,10.5292],[4.657,10.5148],[4.6326,10.4945],[4.6331,10.4812],[4.6655,10.4233],[4.6782,10.3747]]]}}]}