{"type":"FeatureCollection","features":[{"type":"Feature","properties":{"name":"Arctic Ocean","scalerank":0,"featurecla":"ocean"},"geometry":{"type":"Point","coordinates":[-138.073,80.603]}},{"type":"Feature","properties":{"name":"Southern Ocean","scalerank":0,"featurecla":"ocean"},"geometry":{"type":"Point","coordinates":[-122.844,-66.398]}},{"type":"Feature","properties":{"name":"North Atlantic Ocean","scalerank":0,"featurecla":"ocean"},"geometry":{"type":"Point","coordinates":[-28.84,34.227]}},{"type":"Feature","properties":{"name":"North Pacific Ocean","scalerank":0,"featurecla":"ocean"},"geometry":{"type":"Point","coordinates":[-147.385,29.188]}},{"type":"Feature","properties":{"name":"South Pacific Ocean","scalerank":0,"featurecla":"ocean"},"geometry":{"type":"Point","coordinates":[-125.751,-29.062]}},{"type":"Feature","properties":{"name":"Indian Ocean","scalerank":0,"featurecla":"ocean"},"geometry":{"type":"Point","coordinates":[80.118,-25.099]}},{"type":"Feature","properties":{"name":"South Atlantic Ocean","scalerank":0,"featurecla":"ocean"},"geometry":{"type":"Point","coordinates":[-16.483,-30.263]}},{"type":"Feature","properties":{"name":"Black Sea","scalerank":1,"featurecla":"sea"},"geometry":{"type":"Point","coordinates":[33.804,44.136]}},{"type":"Feature","properties":{"name":"Philippine Sea","scalerank":1,"featurecla":"sea"},"geometry":{"type":"Point","coordinates":[134.203,18.948]}},{"type":"Feature","properties":{"name":"Tasman Sea","scalerank":1,"featurecla":"sea"},"geometry":{"type":"Point","coordinates":[161.805,-40.332]}},{"type":"Feature","properties":{"name":"Bay Of Bengal","scalerank":1,"featurecla":"bay"},"geometry":{"type":"Point","coordinates":[86.59,14.528]}},{"type":"Feature","properties":{"name":"South China Sea","scalerank":1,"featurecla":"sea"},"geometry":{"type":"Point","coordinates":[112.746,10.26]}},{"type":"Feature","properties":{"name":"Arabian Sea","scalerank":1,"featurecla":"sea"},"geometry":{"type":"Point","coordinates":[62.874,12.465]}},{"type":"Feature","properties":{"name":"Beaufort Sea","scalerank":1,"featurecla":"sea"},"geometry":{"type":"Point","coordinates":[-135.957,72.795]}},{"type":"Feature","properties":{"name":"Caribbean Sea","scalerank":1,"featurecla":"sea"},"geometry":{"type":"Point","coordinates":[-72.722,15.594]}},{"type":"Feature","properties":{"name":"Gulf Of Mexico","scalerank":1,"featurecla":"gulf"},"geometry":{"type":"Point","coordinates":[-89.258,25.743]}},{"type":"Feature","properties":{"name":"Labrador Sea","scalerank":1,"featurecla":"sea"},"geometry":{"type":"Point","coordinates":[-52.718,53.886]}},{"type":"Feature","properties":{"name":"Hudson Bay","scalerank":1,"featurecla":"bay"},"geometry":{"type":"Point","coordinates":[-86.143,60.332]}},{"type":"Feature","properties":{"name":"Caspian Sea","scalerank":1,"featurecla":"sea"},"geometry":{"type":"Point","coordinates":[50.506,41.865]}},{"type":"Feature","properties":{"name":"Baffin Bay","scalerank":1,"featurecla":"bay"},"geometry":{"type":"Point","coordinates":[-68.989,74.371]}},{"type":"Feature","properties":{"name":"Gulf Of Alaska","scalerank":1,"featurecla":"gulf"},"geometry":{"type":"Point","coordinates":[-147.36,57.359]}},{"type":"Feature","properties":{"name":"Red Sea","scalerank":1,"featurecla":"sea"},"geometry":{"type":"Point","coordinates":[38.498,20.342]}},{"type":"Feature","properties":{"name":"Sea Of Okhotsk","scalerank":1,"featurecla":"sea"},"geometry":{"type":"Point","coordinates":[149.934,51.552]}},{"type":"Feature","properties":{"name":"Weddell Sea","scalerank":1,"featurecla":"sea"},"geometry":{"type":"Point","coordinates":[-54.81,-77.296]}},{"type":"Feature","properties":{"name":"Persian Gulf","scalerank":1,"featurecla":"gulf"},"geometry":{"type":"Point","coordinates":[51.068,27.255]}},{"type":"Feature","properties":{"name":"Mediterranean Sea","scalerank":1,"featurecla":"sea"},"geometry":{"type":"Point","coordinates":[3.951,37.32]}},{"type":"Feature","properties":{"name":"Ross Sea","scalerank":1,"featurecla":"sea"},"geometry":{"type":"Point","coordinates":[-168.169,-78.597]}},{"type":"Feature","properties":{"name":"Coral Sea","scalerank":1,"featurecla":"sea"},"geometry":{"type":"Point","coordinates":[158.345,-19.408]}},{"type":"Feature","properties":{"name":"Sea Of Japan","scalerank":1,"featurecla":"sea"},"geometry":{"type":"Point","coordinates":[137.346,43.073]}},{"type":"Feature","properties":{"name":"Celebes Sea","scalerank":2,"featurecla":"sea"},"geometry":{"type":"Point","coordinates":[121.853,4.326]}},{"type":"Feature","properties":{"name":"Sulu Sea","scalerank":2,"featurecla":"sea"},"geometry":{"type":"Point","coordinates":[120.643,8.931]}},{"type":"Feature","properties":{"name":"Norwegian Sea","scalerank":2,"featurecla":"sea"},"geometry":{"type":"Point","coordinates":[2.041,68.498]}},{"type":"Feature","properties":{"name":"Greenland Sea","scalerank":2,"featurecla":"sea"},"geometry":{"type":"Point","coordinates":[-6.797,74.277]}},{"type":"Feature","properties":{"name":"Banda Sea","scalerank":2,"featurecla":"sea"},"geometry":{"type":"Point","coordinates":[127.781,-4.804]}},{"type":"Feature","properties":{"name":"Luzon Strait","scalerank":2,"featurecla":"strait"},"geometry":{"type":"Point","coordinates":[120.868,22.059]}},{"type":"Feature","properties":{"name":"Bay Of Biscay","scalerank":2,"featurecla":"bay"},"geometry":{"type":"Point","coordinates":[-4.063,45.866]}},{"type":"Feature","properties":{"name":"Mozambique Channel","scalerank":2,"featurecla":"channel"},"geometry":{"type":"Point","coordinates":[40.324,-18.597]}},{"type":"Feature","properties":{"name":"Gulf Of Guinea","scalerank":2,"featurecla":"gulf"},"geometry":{"type":"Point","coordinates":[4.027,2.637]}},{"type":"Feature","properties":{"name":"Scotia Sea","scalerank":2,"featurecla":"sea"},"geometry":{"type":"Point","coordinates":[-54.922,-61.161]}},{"type":"Feature","properties":{"name":"Baltic Sea","scalerank":2,"featurecla":"sea"},"geometry":{"type":"Point","coordinates":[18.988,56.859]}},{"type":"Feature","properties":{"name":"Barents Sea","scalerank":2,"featurecla":"sea"},"geometry":{"type":"Point","coordinates":[38.323,74.303]}},{"type":"Feature","properties":{"name":"North Sea","scalerank":2,"featurecla":"sea"},"geometry":{"type":"Point","coordinates":[3.116,55.74]}},{"type":"Feature","properties":{"name":"Irish Sea","scalerank":2,"featurecla":"sea"},"geometry":{"type":"Point","coordinates":[-5.351,53.326]}},{"type":"Feature","properties":{"name":"Java Sea","scalerank":2,"featurecla":"sea"},"geometry":{"type":"Point","coordinates":[112.432,-5.165]}},{"type":"Feature","properties":{"name":"Andaman Sea","scalerank":2,"featurecla":"sea"},"geometry":{"type":"Point","coordinates":[95.461,11.06]}},{"type":"Feature","properties":{"name":"Yellow Sea","scalerank":2,"featurecla":"sea"},"geometry":{"type":"Point","coordinates":[123.477,35.996]}},{"type":"Feature","properties":{"name":"East China Sea","scalerank":2,"featurecla":"sea"},"geometry":{"type":"Point","coordinates":[125.533,28.456]}},{"type":"Feature","properties":{"name":"Chukchi Sea","scalerank":2,"featurecla":"sea"},"geometry":{"type":"Point","coordinates":[-172.263,68.53]}},{"type":"Feature","properties":{"name":"Bah\u00eda De Campeche","scalerank":2,"featurecla":"bay"},"geometry":{"type":"Point","coordinates":[-93.548,19.649]}},{"type":"Feature","properties":{"name":"Arafura Sea","scalerank":2,"featurecla":"sea"},"geometry":{"type":"Point","coordinates":[134.713,-7.754]}},{"type":"Feature","properties":{"name":"Timor Sea","scalerank":2,"featurecla":"sea"},"geometry":{"type":"Point","coordinates":[127.44,-11.049]}},{"type":"Feature","properties":{"name":"Gulf Of Thailand","scalerank":2,"featurecla":"gulf"},"geometry":{"type":"Point","coordinates":[102.055,9.842]}},{"type":"Feature","properties":{"name":"Laccadive Sea","scalerank":2,"featurecla":"sea"},"geometry":{"type":"Point","coordinates":[75.957,7.073]}},{"type":"Feature","properties":{"name":"Bellingshausen Sea","scalerank":2,"featurecla":"sea"},"geometry":{"type":"Point","coordinates":[-82.103,-71.398]}},{"type":"Feature","properties":{"name":"Amundsen Sea","scalerank":2,"featurecla":"sea"},"geometry":{"type":"Point","coordinates":[-108.088,-73.708]}},{"type":"Feature","properties":{"name":"Davis Strait","scalerank":2,"featurecla":"strait"},"geometry":{"type":"Point","coordinates":[-57.838,65.079]}},{"type":"Feature","properties":{"name":"Kara Sea","scalerank":2,"featurecla":"sea"},"geometry":{"type":"Point","coordinates":[73.215,74.806]}},{"type":"Feature","properties":{"name":"Laptev Sea","scalerank":2,"featurecla":"sea"},"geometry":{"type":"Point","coordinates":[125.598,76.002]}},{"type":"Feature","properties":{"name":"Drake Passage","scalerank":2,"featurecla":"channel"},"geometry":{"type":"Point","coordinates":[-64.037,-64.55]}},{"type":"Feature","properties":{"name":"Bering Sea","scalerank":2,"featurecla":"sea"},"geometry":{"type":"Point","coordinates":[-170.892,57.306]}},{"type":"Feature","properties":{"name":"Sargasso Sea","scalerank":2,"featurecla":"sea"},"geometry":{"type":"Point","coordinates":[-60.042,28.31]}},{"type":"Feature","properties":{"name":"Great Australian Bight","scalerank":3,"featurecla":"gulf"},"geometry":{"type":"Point","coordinates":[133.118,-37.497]}},{"type":"Feature","properties":{"name":"Gulf Of Aden","scalerank":3,"featurecla":"gulf"},"geometry":{"type":"Point","coordinates":[48.171,12.878]}},{"type":"Feature","properties":{"name":"Gulf Of Oman","scalerank":3,"featurecla":"gulf"},"geometry":{"type":"Point","coordinates":[58.851,24.403]}},{"type":"Feature","properties":{"name":"Tyrrhenian Sea","scalerank":3,"featurecla":"sea"},"geometry":{"type":"Point","coordinates":[11.815,40.898]}},{"type":"Feature","properties":{"name":"White Sea","scalerank":3,"featurecla":"sea"},"geometry":{"type":"Point","coordinates":[35.593,66.243]}},{"type":"Feature","properties":{"name":"James Bay","scalerank":3,"featurecla":"bay"},"geometry":{"type":"Point","coordinates":[-79.733,52.8]}},{"type":"Feature","properties":{"name":"Gulf Of Carpentaria","scalerank":3,"featurecla":"gulf"},"geometry":{"type":"Point","coordinates":[138.554,-14.962]}},{"type":"Feature","properties":{"name":"Golfo De California","scalerank":3,"featurecla":"gulf"},"geometry":{"type":"Point","coordinates":[-111.529,27.599]}},{"type":"Feature","properties":{"name":"Hudson Strait","scalerank":3,"featurecla":"strait"},"geometry":{"type":"Point","coordinates":[-73.914,62.557]}},{"type":"Feature","properties":{"name":"English Channel","scalerank":3,"featurecla":"channel"},"geometry":{"type":"Point","coordinates":[-2.988,49.802]}},{"type":"Feature","properties":{"name":"Gulf Of Honduras","scalerank":3,"featurecla":"gulf"},"geometry":{"type":"Point","coordinates":[-87.989,16.561]}},{"type":"Feature","properties":{"name":"Gulf Of Bothnia","scalerank":3,"featurecla":"gulf"},"geometry":{"type":"Point","coordinates":[19.558,62.763]}},{"type":"Feature","properties":{"name":"Adriatic Sea","scalerank":3,"featurecla":"sea"},"geometry":{"type":"Point","coordinates":[15.958,42.743]}}]}